{
"type": "FeatureCollection",
"name": "00611",
"crs": { "type": "name", "properties": { "name": "urn:ogc:def:crs:OGC:1.3:CRS84" } },
"features": [
{ "type": "Feature", "properties": { "Name": "", "Description": "" }, "geometry": { "type": "Polygon", "coordinates": [ [ [ -66.827431, 18.314638 ], [ -66.827198, 18.313943 ], [ -66.826859, 18.312165 ], [ -66.824451, 18.310683 ], [ -66.825255, 18.309256 ], [ -66.824841, 18.305255 ], [ -66.8235, 18.303429 ], [ -66.823572, 18.301359 ], [ -66.821011, 18.297909 ], [ -66.822568, 18.297195 ], [ -66.824005, 18.295644 ], [ -66.823877, 18.294526 ], [ -66.822745, 18.293294 ], [ -66.823126, 18.291658 ], [ -66.821804, 18.289792 ], [ -66.82109, 18.287919 ], [ -66.819311, 18.286094 ], [ -66.820942, 18.284321 ], [ -66.821078, 18.28297 ], [ -66.819303, 18.283096 ], [ -66.81804, 18.282063 ], [ -66.818359, 18.280589 ], [ -66.817617, 18.278427 ], [ -66.815226, 18.276939 ], [ -66.814136, 18.275552 ], [ -66.81552, 18.273074 ], [ -66.814004, 18.271737 ], [ -66.813621, 18.269619 ], [ -66.813719, 18.26804 ], [ -66.815366, 18.262586 ], [ -66.816598, 18.260959 ], [ -66.819975, 18.260616 ], [ -66.820601, 18.25906 ], [ -66.821935, 18.258044 ], [ -66.821357, 18.255578 ], [ -66.820232, 18.253127 ], [ -66.82113, 18.251783 ], [ -66.821862, 18.246649 ], [ -66.817446, 18.245255 ], [ -66.816478, 18.246242 ], [ -66.8151, 18.246008 ], [ -66.814708, 18.244818 ], [ -66.813274, 18.243827 ], [ -66.813794, 18.242157 ], [ -66.815034, 18.242537 ], [ -66.817248, 18.239539 ], [ -66.817897, 18.237383 ], [ -66.816924, 18.234913 ], [ -66.814322, 18.233112 ], [ -66.81469, 18.231895 ], [ -66.816203, 18.231684 ], [ -66.815563, 18.230331 ], [ -66.813167, 18.229279 ], [ -66.811088, 18.228817 ], [ -66.809741, 18.229475 ], [ -66.808108, 18.228211 ], [ -66.806867, 18.228414 ], [ -66.803512, 18.227425 ], [ -66.800469, 18.227842 ], [ -66.798759, 18.230026 ], [ -66.799972, 18.234023 ], [ -66.800169, 18.235588 ], [ -66.799531, 18.237171 ], [ -66.800323, 18.237776 ], [ -66.799223, 18.240176 ], [ -66.800591, 18.240144 ], [ -66.800355, 18.242347 ], [ -66.798839, 18.243714 ], [ -66.7966, 18.243631 ], [ -66.795957, 18.242516 ], [ -66.794819, 18.243341 ], [ -66.795294, 18.245847 ], [ -66.794319, 18.246838 ], [ -66.794425, 18.24988 ], [ -66.793949, 18.251527 ], [ -66.792249, 18.251632 ], [ -66.792638, 18.253055 ], [ -66.791183, 18.251476 ], [ -66.788214, 18.25137 ], [ -66.787034, 18.252008 ], [ -66.785208, 18.254155 ], [ -66.786475, 18.256183 ], [ -66.783724, 18.256087 ], [ -66.78259, 18.25811 ], [ -66.786015, 18.259129 ], [ -66.786403, 18.260038 ], [ -66.788765, 18.259868 ], [ -66.789131, 18.260983 ], [ -66.790797, 18.260938 ], [ -66.793764, 18.261974 ], [ -66.790137, 18.263857 ], [ -66.788601, 18.263274 ], [ -66.785663, 18.26516 ], [ -66.782931, 18.267657 ], [ -66.783589, 18.269039 ], [ -66.782844, 18.271883 ], [ -66.784848, 18.273938 ], [ -66.784983, 18.275971 ], [ -66.787232, 18.277474 ], [ -66.788428, 18.279061 ], [ -66.79131, 18.28009 ], [ -66.7931, 18.281972 ], [ -66.795824, 18.281946 ], [ -66.796378, 18.283106 ], [ -66.797675, 18.282462 ], [ -66.799234, 18.28334 ], [ -66.799328, 18.28453 ], [ -66.800076, 18.285408 ], [ -66.799797, 18.285984 ], [ -66.800776, 18.286195 ], [ -66.800956, 18.286606 ], [ -66.79998, 18.287197 ], [ -66.800801, 18.287109 ], [ -66.800946, 18.287467 ], [ -66.800456, 18.287857 ], [ -66.801402, 18.288458 ], [ -66.80198, 18.289703 ], [ -66.803089, 18.290112 ], [ -66.801945, 18.292141 ], [ -66.799068, 18.293692 ], [ -66.796595, 18.29426 ], [ -66.79667, 18.295673 ], [ -66.797659, 18.297154 ], [ -66.798815, 18.297294 ], [ -66.798406, 18.301998 ], [ -66.79935, 18.303289 ], [ -66.800621, 18.303698 ], [ -66.801598, 18.305383 ], [ -66.803494, 18.306885 ], [ -66.802409, 18.309553 ], [ -66.800934, 18.310599 ], [ -66.801171, 18.312408 ], [ -66.799583, 18.314175 ], [ -66.798579, 18.314375 ], [ -66.798778, 18.315881 ], [ -66.797225, 18.316331 ], [ -66.795845, 18.318464 ], [ -66.795708, 18.321406 ], [ -66.794824, 18.3219 ], [ -66.825621, 18.323298 ], [ -66.826128, 18.323382 ], [ -66.82498, 18.322285 ], [ -66.824991, 18.320177 ], [ -66.82342, 18.318332 ], [ -66.827431, 18.314638 ] ] ] } }
]
}
