{
"type": "FeatureCollection",
"name": "00636",
"crs": { "type": "name", "properties": { "name": "urn:ogc:def:crs:OGC:1.3:CRS84" } },
"features": [
{ "type": "Feature", "properties": { "Name": "", "Description": "" }, "geometry": { "type": "Polygon", "coordinates": [ [ [ -67.085257, 18.157984 ], [ -67.086045, 18.156416 ], [ -67.082594, 18.156866 ], [ -67.080093, 18.156279 ], [ -67.079291, 18.159809 ], [ -67.079278, 18.161858 ], [ -67.078709, 18.165029 ], [ -67.076944, 18.166065 ], [ -67.075473, 18.165654 ], [ -67.071867, 18.165999 ], [ -67.07118, 18.16668 ], [ -67.07234, 18.167907 ], [ -67.075626, 18.168833 ], [ -67.075126, 18.170088 ], [ -67.073499, 18.170455 ], [ -67.072768, 18.172853 ], [ -67.073685, 18.171479 ], [ -67.077096, 18.169144 ], [ -67.078486, 18.16755 ], [ -67.082144, 18.168073 ], [ -67.084678, 18.164604 ], [ -67.084429, 18.163346 ], [ -67.085706, 18.162978 ], [ -67.084067, 18.159435 ], [ -67.085257, 18.157984 ] ] ] } }
]
}
