{
"type": "FeatureCollection",
"name": "01380",
"crs": { "type": "name", "properties": { "name": "urn:ogc:def:crs:OGC:1.3:CRS84" } },
"features": [
{ "type": "Feature", "properties": { "Name": "", "Description": "" }, "geometry": { "type": "Polygon", "coordinates": [ [ [ -72.436667, 42.58226 ], [ -72.436208, 42.579708 ], [ -72.398781, 42.560824 ], [ -72.399338, 42.569339 ], [ -72.397826, 42.573007 ], [ -72.396301, 42.573637 ], [ -72.389032, 42.573679 ], [ -72.387155, 42.574647 ], [ -72.386066, 42.576317 ], [ -72.381829, 42.580003 ], [ -72.380439, 42.580793 ], [ -72.377026, 42.575531 ], [ -72.374928, 42.580042 ], [ -72.373337, 42.582353 ], [ -72.369949, 42.589789 ], [ -72.365349, 42.592362 ], [ -72.362337, 42.592099 ], [ -72.361236, 42.594075 ], [ -72.361402, 42.59294 ], [ -72.358969, 42.590388 ], [ -72.357665, 42.587747 ], [ -72.355481, 42.585036 ], [ -72.354575, 42.58508 ], [ -72.353853, 42.596745 ], [ -72.35379, 42.597982 ], [ -72.358542, 42.598817 ], [ -72.359607, 42.598156 ], [ -72.36092, 42.597358 ], [ -72.362355, 42.595429 ], [ -72.362317, 42.595273 ], [ -72.36391, 42.595586 ], [ -72.369702, 42.59837 ], [ -72.373569, 42.599409 ], [ -72.376203, 42.599022 ], [ -72.378598, 42.597828 ], [ -72.381644, 42.598105 ], [ -72.384693, 42.597852 ], [ -72.388198, 42.595954 ], [ -72.389335, 42.595855 ], [ -72.392846, 42.597886 ], [ -72.402628, 42.598299 ], [ -72.409886, 42.604037 ], [ -72.414862, 42.606677 ], [ -72.415086, 42.60697 ], [ -72.419017, 42.6073 ], [ -72.42298, 42.607122 ], [ -72.420613, 42.606809 ], [ -72.419414, 42.605377 ], [ -72.423161, 42.604874 ], [ -72.426315, 42.601767 ], [ -72.429542, 42.599814 ], [ -72.432845, 42.595823 ], [ -72.436486, 42.590493 ], [ -72.435025, 42.584834 ], [ -72.436667, 42.58226 ] ] ] } }
]
}
