{
"type": "FeatureCollection",
"name": "01965",
"crs": { "type": "name", "properties": { "name": "urn:ogc:def:crs:OGC:1.3:CRS84" } },
"features": [
{ "type": "Feature", "properties": { "Name": "", "Description": "" }, "geometry": { "type": "Polygon", "coordinates": [ [ [ -70.846126, 42.568254 ], [ -70.845971, 42.567001 ], [ -70.844246, 42.566623 ], [ -70.842326, 42.564464 ], [ -70.839805, 42.563752 ], [ -70.837877, 42.562495 ], [ -70.835792, 42.56225 ], [ -70.832074, 42.56102 ], [ -70.831655, 42.560679 ], [ -70.830131, 42.559834 ], [ -70.828199, 42.559658 ], [ -70.827069, 42.559222 ], [ -70.826784, 42.555586 ], [ -70.829165, 42.55399 ], [ -70.829778766104198, 42.551243412485 ], [ -70.823291, 42.551495 ], [ -70.816490743472002, 42.553819138306999 ], [ -70.818847, 42.556549 ], [ -70.822548, 42.556591 ], [ -70.824822, 42.559526 ], [ -70.82092, 42.560879 ], [ -70.818544, 42.564453 ], [ -70.819078, 42.565764 ], [ -70.819529, 42.568214 ], [ -70.826239, 42.56911 ], [ -70.827018, 42.567703 ], [ -70.829219, 42.565484 ], [ -70.836643, 42.570931 ], [ -70.841176, 42.572344 ], [ -70.842932, 42.572294 ], [ -70.844825, 42.568922 ], [ -70.846126, 42.568254 ] ] ] } }
]
}
