{
"type": "FeatureCollection",
"name": "02205",
"crs": { "type": "name", "properties": { "name": "urn:ogc:def:crs:OGC:1.3:CRS84" } },
"features": [
{ "type": "Feature", "properties": { "Name": "", "Description": "" }, "geometry": { "type": "Polygon", "coordinates": [ [ [ -71.057485, 42.347658 ], [ -71.058789, 42.346157 ], [ -71.057082, 42.346338 ], [ -71.055936, 42.346592 ], [ -71.055677, 42.347062 ], [ -71.052723, 42.351372 ], [ -71.055324, 42.352595 ], [ -71.057722, 42.348182 ], [ -71.057485, 42.347658 ] ] ] } }
]
}
