{
"type": "FeatureCollection",
"name": "02325",
"crs": { "type": "name", "properties": { "name": "urn:ogc:def:crs:OGC:1.3:CRS84" } },
"features": [
{ "type": "Feature", "properties": { "Name": "", "Description": "" }, "geometry": { "type": "Polygon", "coordinates": [ [ [ -70.974937, 41.988338 ], [ -70.975452, 41.987175 ], [ -70.97468, 41.986976 ], [ -70.975185, 41.9859 ], [ -70.972635, 41.986388 ], [ -70.972285, 41.986069 ], [ -70.969951, 41.987074 ], [ -70.967681, 41.987255 ], [ -70.963911, 41.983377 ], [ -70.960402, 41.985928 ], [ -70.960879, 41.987975 ], [ -70.956359, 41.990006 ], [ -70.956164, 41.992787 ], [ -70.957813, 41.993134 ], [ -70.965584, 41.991872 ], [ -70.965497, 41.991265 ], [ -70.965515, 41.990549 ], [ -70.967012, 41.988953 ], [ -70.969463, 41.990332 ], [ -70.970377, 41.989976 ], [ -70.972228, 41.989144 ], [ -70.9727, 41.988664 ], [ -70.972763, 41.988383 ], [ -70.974684, 41.988839 ], [ -70.974937, 41.988338 ] ] ] } }
]
}
