{
"type": "FeatureCollection",
"name": "02350",
"crs": { "type": "name", "properties": { "name": "urn:ogc:def:crs:OGC:1.3:CRS84" } },
"features": [
{ "type": "Feature", "properties": { "Name": "", "Description": "" }, "geometry": { "type": "Polygon", "coordinates": [ [ [ -70.850909, 42.019486 ], [ -70.849925, 42.018858 ], [ -70.848442, 42.017889 ], [ -70.845347, 42.019405 ], [ -70.846406, 42.017927 ], [ -70.843816, 42.017052 ], [ -70.842296, 42.019089 ], [ -70.845724, 42.019902 ], [ -70.844923, 42.021161 ], [ -70.841713, 42.019968 ], [ -70.841239, 42.021809 ], [ -70.8419, 42.023212 ], [ -70.845211, 42.023342 ], [ -70.849901, 42.020595 ], [ -70.850909, 42.019486 ] ] ] } }
]
}
