{
"type": "FeatureCollection",
"name": "02823",
"crs": { "type": "name", "properties": { "name": "urn:ogc:def:crs:OGC:1.3:CRS84" } },
"features": [
{ "type": "Feature", "properties": { "Name": "", "Description": "" }, "geometry": { "type": "Polygon", "coordinates": [ [ [ -71.553055, 41.734951 ], [ -71.552782, 41.733984 ], [ -71.5491, 41.733693 ], [ -71.550599, 41.731032 ], [ -71.549722, 41.729989 ], [ -71.548477, 41.730274 ], [ -71.547353, 41.731203 ], [ -71.545963, 41.730092 ], [ -71.540803, 41.730127 ], [ -71.53909, 41.730753 ], [ -71.537817, 41.731592 ], [ -71.539319, 41.734053 ], [ -71.541955, 41.73358 ], [ -71.543266, 41.738803 ], [ -71.545902, 41.736879 ], [ -71.548676, 41.736318 ], [ -71.547974, 41.733875 ], [ -71.553055, 41.734951 ] ] ] } }
]
}
