{
"type": "FeatureCollection",
"name": "02829",
"crs": { "type": "name", "properties": { "name": "urn:ogc:def:crs:OGC:1.3:CRS84" } },
"features": [
{ "type": "Feature", "properties": { "Name": "", "Description": "" }, "geometry": { "type": "Polygon", "coordinates": [ [ [ -71.598564, 41.898193 ], [ -71.601624, 41.897057 ], [ -71.597885, 41.892834 ], [ -71.594279, 41.887783 ], [ -71.592117, 41.887749 ], [ -71.591301, 41.886822 ], [ -71.587601, 41.889458 ], [ -71.585548, 41.886364 ], [ -71.586456, 41.88541 ], [ -71.582167, 41.883591 ], [ -71.584309, 41.887761 ], [ -71.583597, 41.888955 ], [ -71.584715, 41.891912 ], [ -71.581805, 41.893783 ], [ -71.581842, 41.894372 ], [ -71.581891, 41.894665 ], [ -71.583716, 41.895126 ], [ -71.587058, 41.896931 ], [ -71.589016, 41.899039 ], [ -71.594184, 41.901993 ], [ -71.595474, 41.901661 ], [ -71.598564, 41.898193 ] ] ] } }
]
}
