{
"type": "FeatureCollection",
"name": "02824",
"crs": { "type": "name", "properties": { "name": "urn:ogc:def:crs:OGC:1.3:CRS84" } },
"features": [
{ "type": "Feature", "properties": { "Name": "", "Description": "" }, "geometry": { "type": "Polygon", "coordinates": [ [ [ -71.568405, 41.99887 ], [ -71.568718, 41.998523 ], [ -71.56526, 41.996149 ], [ -71.563521, 41.996226 ], [ -71.562892, 41.996453 ], [ -71.557029, 41.996647 ], [ -71.557892, 41.998459 ], [ -71.558937, 42.000042 ], [ -71.560013, 42.001068 ], [ -71.562965, 42.002659 ], [ -71.566421, 42.00402 ], [ -71.56685, 41.999709 ], [ -71.568683, 42.000252 ], [ -71.568405, 41.99887 ] ] ] } }
]
}
