{
"type": "FeatureCollection",
"name": "02918",
"crs": { "type": "name", "properties": { "name": "urn:ogc:def:crs:OGC:1.3:CRS84" } },
"features": [
{ "type": "Feature", "properties": { "Name": "", "Description": "" }, "geometry": { "type": "Polygon", "coordinates": [ [ [ -71.439713, 41.845726 ], [ -71.440498, 41.843094 ], [ -71.438576, 41.842121 ], [ -71.433594, 41.841496 ], [ -71.432205, 41.841328 ], [ -71.429871, 41.841137 ], [ -71.42972, 41.841124 ], [ -71.429276, 41.844156 ], [ -71.429374, 41.844169 ], [ -71.433043, 41.844464 ], [ -71.432643, 41.84679 ], [ -71.434205, 41.847197 ], [ -71.434475, 41.846179 ], [ -71.437668, 41.846672 ], [ -71.438583, 41.846813 ], [ -71.438889, 41.845612 ], [ -71.439713, 41.845726 ] ] ] } }
]
}
