{
"type": "FeatureCollection",
"name": "03897",
"crs": { "type": "name", "properties": { "name": "urn:ogc:def:crs:OGC:1.3:CRS84" } },
"features": [
{ "type": "Feature", "properties": { "Name": "", "Description": "" }, "geometry": { "type": "Polygon", "coordinates": [ [ [ -71.361445, 43.913789 ], [ -71.360088, 43.908369 ], [ -71.35988, 43.907521 ], [ -71.356045, 43.892206 ], [ -71.351884, 43.893097 ], [ -71.349191, 43.897066 ], [ -71.348854, 43.898755 ], [ -71.348619, 43.901169 ], [ -71.350256, 43.907714 ], [ -71.343115, 43.908378 ], [ -71.340714, 43.907931 ], [ -71.337374, 43.905654 ], [ -71.335083, 43.906557 ], [ -71.332086, 43.906132 ], [ -71.329611, 43.903625 ], [ -71.325362, 43.904995 ], [ -71.323587, 43.906872 ], [ -71.322479, 43.906985 ], [ -71.320354, 43.905281 ], [ -71.317956, 43.904353 ], [ -71.314329, 43.905309 ], [ -71.311653, 43.903305 ], [ -71.309017, 43.902815 ], [ -71.306263, 43.904505 ], [ -71.301521, 43.901512 ], [ -71.301074, 43.899167 ], [ -71.297591, 43.896955 ], [ -71.296874, 43.894908 ], [ -71.297139, 43.897089 ], [ -71.296459, 43.901658 ], [ -71.293266, 43.905045 ], [ -71.291033, 43.905679 ], [ -71.291584, 43.906683 ], [ -71.294297, 43.909304 ], [ -71.298957, 43.912616 ], [ -71.299782, 43.913988 ], [ -71.311758, 43.912871 ], [ -71.313345, 43.922393 ], [ -71.327093, 43.921172 ], [ -71.325825, 43.911583 ], [ -71.351882, 43.90913 ], [ -71.358339, 43.912569 ], [ -71.361445, 43.913789 ] ] ] } }
]
}
