{
"type": "FeatureCollection",
"name": "04737",
"crs": { "type": "name", "properties": { "name": "urn:ogc:def:crs:OGC:1.3:CRS84" } },
"features": [
{ "type": "Feature", "properties": { "Name": "", "Description": "" }, "geometry": { "type": "Polygon", "coordinates": [ [ [ -69.554458, 46.614341 ], [ -69.553735, 46.6085 ], [ -69.551123, 46.608743 ], [ -69.548503, 46.606731 ], [ -69.546314, 46.60744 ], [ -69.542931, 46.607028 ], [ -69.54313, 46.608925 ], [ -69.539746, 46.609382 ], [ -69.536794, 46.608811 ], [ -69.530226, 46.610523 ], [ -69.523758, 46.61027 ], [ -69.521105, 46.60924 ], [ -69.519549, 46.605697 ], [ -69.511058, 46.606608 ], [ -69.510394, 46.60775 ], [ -69.503161, 46.609667 ], [ -69.501863, 46.613209 ], [ -69.504579, 46.617462 ], [ -69.502817, 46.620342 ], [ -69.504441, 46.622491 ], [ -69.504203, 46.62616 ], [ -69.504996, 46.629955 ], [ -69.511473, 46.631369 ], [ -69.536492, 46.61633 ], [ -69.54608, 46.613954 ], [ -69.554458, 46.614341 ] ] ] } }
]
}
