{
"type": "FeatureCollection",
"name": "05030",
"crs": { "type": "name", "properties": { "name": "urn:ogc:def:crs:OGC:1.3:CRS84" } },
"features": [
{ "type": "Feature", "properties": { "Name": "", "Description": "" }, "geometry": { "type": "Polygon", "coordinates": [ [ [ -72.41941, 43.401585 ], [ -72.419972, 43.398624 ], [ -72.416359, 43.395634 ], [ -72.414713, 43.395487 ], [ -72.403334639966602, 43.394402493194697 ], [ -72.401624713554, 43.403259726150402 ], [ -72.401542269708102, 43.4036867763106 ], [ -72.40491, 43.404723 ], [ -72.407067, 43.406297 ], [ -72.409864, 43.405958 ], [ -72.414219, 43.40286 ], [ -72.416698, 43.401462 ], [ -72.41941, 43.401585 ] ] ] } }
]
}
