{
"type": "FeatureCollection",
"name": "05088",
"crs": { "type": "name", "properties": { "name": "urn:ogc:def:crs:OGC:1.3:CRS84" } },
"features": [
{ "type": "Feature", "properties": { "Name": "", "Description": "" }, "geometry": { "type": "Polygon", "coordinates": [ [ [ -72.313012, 43.680871 ], [ -72.311311, 43.68 ], [ -72.309222, 43.677359 ], [ -72.309234, 43.675547 ], [ -72.310219, 43.67559 ], [ -72.311144, 43.676075 ], [ -72.310986, 43.674783 ], [ -72.30925, 43.674788 ], [ -72.309161, 43.671759 ], [ -72.30989, 43.670483 ], [ -72.30922, 43.670285 ], [ -72.309067, 43.670199 ], [ -72.309871, 43.66877 ], [ -72.310074, 43.66822 ], [ -72.311328, 43.668402 ], [ -72.311593, 43.668108 ], [ -72.311176, 43.667477 ], [ -72.311757, 43.665492 ], [ -72.309846, 43.662242 ], [ -72.309120825673801, 43.662034869297003 ], [ -72.305771, 43.666535 ], [ -72.304322, 43.669507 ], [ -72.303408, 43.674055 ], [ -72.303092, 43.678078 ], [ -72.304351, 43.681141 ], [ -72.30602, 43.683061 ], [ -72.305988371958705, 43.683498158721598 ], [ -72.306745, 43.684029 ], [ -72.309263, 43.680478 ], [ -72.313012, 43.680871 ] ] ] } }
]
}
