{
"type": "FeatureCollection",
"name": "05344",
"crs": { "type": "name", "properties": { "name": "urn:ogc:def:crs:OGC:1.3:CRS84" } },
"features": [
{ "type": "Feature", "properties": { "Name": "", "Description": "" }, "geometry": { "type": "Polygon", "coordinates": [ [ [ -72.737608, 42.84062 ], [ -72.738298, 42.838586 ], [ -72.736356, 42.838355 ], [ -72.734165, 42.835728 ], [ -72.732463, 42.836495 ], [ -72.731169, 42.837858 ], [ -72.727571, 42.837651 ], [ -72.725406, 42.839163 ], [ -72.727619, 42.840942 ], [ -72.73186, 42.83845 ], [ -72.732671, 42.840994 ], [ -72.735566, 42.841566 ], [ -72.737608, 42.84062 ] ] ] } }
]
}
