{
"type": "FeatureCollection",
"name": "05351",
"crs": { "type": "name", "properties": { "name": "urn:ogc:def:crs:OGC:1.3:CRS84" } },
"features": [
{ "type": "Feature", "properties": { "Name": "", "Description": "" }, "geometry": { "type": "Polygon", "coordinates": [ [ [ -72.772104, 42.931875 ], [ -72.776586, 42.924625 ], [ -72.74654, 42.923911 ], [ -72.746925, 42.921697 ], [ -72.745855, 42.9199 ], [ -72.749762, 42.913088 ], [ -72.751628, 42.911709 ], [ -72.755429, 42.910043 ], [ -72.757688, 42.906966 ], [ -72.760659, 42.905585 ], [ -72.766853, 42.906081 ], [ -72.768794, 42.90508 ], [ -72.766216, 42.905813 ], [ -72.758983, 42.903579 ], [ -72.756454, 42.902114 ], [ -72.753511, 42.901695 ], [ -72.747946, 42.900197 ], [ -72.745464, 42.897595 ], [ -72.742367, 42.895854 ], [ -72.740813, 42.896319 ], [ -72.738185, 42.895857 ], [ -72.73674, 42.896504 ], [ -72.738945, 42.893672 ], [ -72.740661, 42.890119 ], [ -72.737384, 42.890052 ], [ -72.737361, 42.889218 ], [ -72.728535, 42.889062 ], [ -72.727702, 42.89248 ], [ -72.726424, 42.89354 ], [ -72.724666, 42.893715 ], [ -72.72243, 42.895384 ], [ -72.722156, 42.89711 ], [ -72.720464, 42.898163 ], [ -72.717763, 42.897667 ], [ -72.718184, 42.898981 ], [ -72.716971, 42.899668 ], [ -72.716358, 42.901358 ], [ -72.7165, 42.905255 ], [ -72.714347, 42.908053 ], [ -72.715472, 42.910013 ], [ -72.715261, 42.912635 ], [ -72.713221, 42.91107 ], [ -72.7081, 42.909782 ], [ -72.70961, 42.912353 ], [ -72.705567, 42.912343 ], [ -72.705573, 42.91168 ], [ -72.701533, 42.911622 ], [ -72.701269, 42.916794 ], [ -72.694066, 42.917028 ], [ -72.694177, 42.922743 ], [ -72.694186, 42.928994 ], [ -72.698869, 42.931632 ], [ -72.698093, 42.93314 ], [ -72.696036, 42.933098 ], [ -72.697202, 42.934038 ], [ -72.700473, 42.933508 ], [ -72.700092, 42.936457 ], [ -72.704206, 42.937631 ], [ -72.706744, 42.938045 ], [ -72.709263, 42.935641 ], [ -72.712312, 42.934532 ], [ -72.714608, 42.936437 ], [ -72.717782, 42.937441 ], [ -72.722802, 42.940783 ], [ -72.72541, 42.944027 ], [ -72.729861, 42.945822 ], [ -72.731605, 42.946901 ], [ -72.732919, 42.946931 ], [ -72.739433, 42.944286 ], [ -72.736775, 42.9458 ], [ -72.738407, 42.945933 ], [ -72.742202, 42.949775 ], [ -72.743085, 42.95125 ], [ -72.744714, 42.956367 ], [ -72.745022, 42.958922 ], [ -72.744324, 42.962154 ], [ -72.74641, 42.964349 ], [ -72.752677, 42.966599 ], [ -72.750201, 42.971369 ], [ -72.750777, 42.97627 ], [ -72.751899, 42.977792 ], [ -72.748555, 42.97916 ], [ -72.751657, 42.982372 ], [ -72.755588, 42.984593 ], [ -72.772104, 42.931875 ] ] ] } }
]
}
