{
"type": "FeatureCollection",
"name": "05666",
"crs": { "type": "name", "properties": { "name": "urn:ogc:def:crs:OGC:1.3:CRS84" } },
"features": [
{ "type": "Feature", "properties": { "Name": "", "Description": "" }, "geometry": { "type": "Polygon", "coordinates": [ [ [ -72.445766, 44.333764 ], [ -72.445995, 44.331563 ], [ -72.444549, 44.33012 ], [ -72.443905, 44.328768 ], [ -72.443741, 44.326514 ], [ -72.444069, 44.321128 ], [ -72.442485, 44.319787 ], [ -72.440957, 44.31928 ], [ -72.439901, 44.319896 ], [ -72.439475, 44.319791 ], [ -72.438939, 44.319779 ], [ -72.438333, 44.318933 ], [ -72.439178, 44.318533 ], [ -72.437818, 44.318075 ], [ -72.438848, 44.319935 ], [ -72.439963, 44.319991 ], [ -72.440972, 44.319424 ], [ -72.441262, 44.320439 ], [ -72.439656, 44.320957 ], [ -72.438994, 44.32173 ], [ -72.438498, 44.322299 ], [ -72.438645, 44.32359 ], [ -72.437843, 44.323878 ], [ -72.438909, 44.325131 ], [ -72.438282, 44.326274 ], [ -72.440011, 44.32679 ], [ -72.438786, 44.327032 ], [ -72.439445, 44.327826 ], [ -72.438449, 44.327664 ], [ -72.439399, 44.328396 ], [ -72.438717, 44.329043 ], [ -72.438912, 44.330199 ], [ -72.440469, 44.330428 ], [ -72.440129, 44.33191 ], [ -72.438732, 44.332131 ], [ -72.43781, 44.333681 ], [ -72.438419, 44.335824 ], [ -72.437918, 44.337492 ], [ -72.436219, 44.338934 ], [ -72.432415, 44.340866 ], [ -72.431267, 44.342541 ], [ -72.430199, 44.343372 ], [ -72.432922, 44.344091 ], [ -72.436803, 44.345506 ], [ -72.436173, 44.34657 ], [ -72.437587, 44.346922 ], [ -72.43637, 44.350407 ], [ -72.432438, 44.349006 ], [ -72.42989, 44.353629 ], [ -72.429085, 44.354782 ], [ -72.430065, 44.355161 ], [ -72.42916, 44.35649 ], [ -72.433953, 44.358324 ], [ -72.438292, 44.352344 ], [ -72.44029, 44.351916 ], [ -72.442651, 44.352443 ], [ -72.44391, 44.35379 ], [ -72.444695, 44.356423 ], [ -72.44385, 44.35748 ], [ -72.439683, 44.35663 ], [ -72.439308, 44.358895 ], [ -72.437207, 44.360581 ], [ -72.43607, 44.360065 ], [ -72.434952, 44.361939 ], [ -72.438008, 44.360819 ], [ -72.440268, 44.3588 ], [ -72.443348, 44.357983 ], [ -72.445047, 44.356843 ], [ -72.445092, 44.354873 ], [ -72.442242, 44.350613 ], [ -72.441766, 44.347088 ], [ -72.44334, 44.341177 ], [ -72.444381, 44.339766 ], [ -72.442421, 44.338565 ], [ -72.442384, 44.335998 ], [ -72.444007, 44.333802 ], [ -72.445766, 44.333764 ] ] ] } }
]
}
