{
"type": "FeatureCollection",
"name": "05670",
"crs": { "type": "name", "properties": { "name": "urn:ogc:def:crs:OGC:1.3:CRS84" } },
"features": [
{ "type": "Feature", "properties": { "Name": "", "Description": "" }, "geometry": { "type": "Polygon", "coordinates": [ [ [ -72.50752, 44.175182 ], [ -72.508852, 44.173836 ], [ -72.507438, 44.173446 ], [ -72.506769, 44.174718 ], [ -72.501654, 44.181431 ], [ -72.50358, 44.181858 ], [ -72.502803, 44.181282 ], [ -72.506361, 44.179825 ], [ -72.50788, 44.177279 ], [ -72.50752, 44.175182 ] ] ] } }
]
}
