{
"type": "FeatureCollection",
"name": "05731",
"crs": { "type": "name", "properties": { "name": "urn:ogc:def:crs:OGC:1.3:CRS84" } },
"features": [
{ "type": "Feature", "properties": { "Name": "", "Description": "" }, "geometry": { "type": "Polygon", "coordinates": [ [ [ -73.309221, 43.753899 ], [ -73.308357, 43.74891 ], [ -73.307018, 43.744562 ], [ -73.306921, 43.742593 ], [ -73.303805, 43.743404 ], [ -73.302627, 43.744659 ], [ -73.300014, 43.745292 ], [ -73.298772, 43.743657 ], [ -73.297946, 43.743655 ], [ -73.294581, 43.745588 ], [ -73.289195, 43.745483 ], [ -73.286549, 43.746798 ], [ -73.284144, 43.746212 ], [ -73.282292, 43.747667 ], [ -73.281696, 43.750091 ], [ -73.282072, 43.751608 ], [ -73.281138, 43.753136 ], [ -73.279118, 43.75373 ], [ -73.276583, 43.752683 ], [ -73.275752, 43.750523 ], [ -73.272677, 43.749522 ], [ -73.272101, 43.751467 ], [ -73.269924, 43.752491 ], [ -73.266389, 43.752483 ], [ -73.266009, 43.754224 ], [ -73.263993, 43.756966 ], [ -73.264527, 43.761188 ], [ -73.266056, 43.761376 ], [ -73.300474, 43.758385 ], [ -73.302256, 43.757275 ], [ -73.305935, 43.756614 ], [ -73.309221, 43.753899 ] ] ] } }
]
}
