{
"type": "FeatureCollection",
"name": "05746",
"crs": { "type": "name", "properties": { "name": "urn:ogc:def:crs:OGC:1.3:CRS84" } },
"features": [
{ "type": "Feature", "properties": { "Name": "", "Description": "" }, "geometry": { "type": "Polygon", "coordinates": [ [ [ -72.808133, 43.734646 ], [ -72.8201, 43.716729 ], [ -72.770996, 43.702891 ], [ -72.768386, 43.706067 ], [ -72.766142, 43.712123 ], [ -72.764097, 43.714897 ], [ -72.761024, 43.716993 ], [ -72.759646, 43.719077 ], [ -72.755603, 43.722595 ], [ -72.751568, 43.724767 ], [ -72.747054, 43.723471 ], [ -72.741965, 43.723713 ], [ -72.740548, 43.723446 ], [ -72.736184, 43.727695 ], [ -72.73632, 43.730413 ], [ -72.73488, 43.735426 ], [ -72.735733, 43.73507 ], [ -72.736893, 43.729059 ], [ -72.736748, 43.727854 ], [ -72.740779, 43.724017 ], [ -72.746958, 43.723598 ], [ -72.751753, 43.724893 ], [ -72.75578, 43.722958 ], [ -72.759214, 43.724629 ], [ -72.765455, 43.725432 ], [ -72.767251, 43.72653 ], [ -72.772167, 43.727994 ], [ -72.775855, 43.726582 ], [ -72.783188, 43.731649 ], [ -72.7858, 43.734625 ], [ -72.786696, 43.737164 ], [ -72.788567, 43.739819 ], [ -72.793317, 43.737808 ], [ -72.795903, 43.737831 ], [ -72.797511, 43.737031 ], [ -72.801929, 43.737036 ], [ -72.805559, 43.736445 ], [ -72.808133, 43.734646 ] ] ] } }
]
}
