{
"type": "FeatureCollection",
"name": "05768",
"crs": { "type": "name", "properties": { "name": "urn:ogc:def:crs:OGC:1.3:CRS84" } },
"features": [
{ "type": "Feature", "properties": { "Name": "", "Description": "" }, "geometry": { "type": "Polygon", "coordinates": [ [ [ -73.24509, 43.306406 ], [ -73.24521, 43.304457 ], [ -73.243203, 43.302546 ], [ -73.241825, 43.30225 ], [ -73.241388, 43.298483 ], [ -73.240468, 43.29542 ], [ -73.240191, 43.292267 ], [ -73.239092, 43.287401 ], [ -73.237849, 43.281958 ], [ -73.236459, 43.278301 ], [ -73.236977, 43.275558 ], [ -73.236755, 43.274106 ], [ -73.23291, 43.274423 ], [ -73.229672, 43.274321 ], [ -73.224848, 43.278272 ], [ -73.220433, 43.282971 ], [ -73.21552, 43.287572 ], [ -73.214449, 43.288303 ], [ -73.210645, 43.289189 ], [ -73.206752, 43.291403 ], [ -73.202171, 43.292796 ], [ -73.19796, 43.293517 ], [ -73.197244, 43.299225 ], [ -73.194234, 43.30527 ], [ -73.193908, 43.312138 ], [ -73.237553, 43.313759 ], [ -73.242277, 43.313927 ], [ -73.243018, 43.31065 ], [ -73.243965, 43.310373 ], [ -73.24509, 43.306406 ] ] ] } }
]
}
