{
"type": "FeatureCollection",
"name": "05840",
"crs": { "type": "name", "properties": { "name": "urn:ogc:def:crs:OGC:1.3:CRS84" } },
"features": [
{ "type": "Feature", "properties": { "Name": "", "Description": "" }, "geometry": { "type": "Polygon", "coordinates": [ [ [ -71.800501, 44.601179 ], [ -71.801241, 44.600555 ], [ -71.798967, 44.598013 ], [ -71.798374, 44.596273 ], [ -71.792557, 44.590825 ], [ -71.788474, 44.587733 ], [ -71.786309, 44.585329 ], [ -71.784933, 44.582815 ], [ -71.78448, 44.58074 ], [ -71.747341, 44.560901 ], [ -71.747453, 44.562967 ], [ -71.744455, 44.565457 ], [ -71.740748, 44.566657 ], [ -71.739938, 44.565484 ], [ -71.737963, 44.566567 ], [ -71.73794, 44.571424 ], [ -71.738524, 44.572499 ], [ -71.737827, 44.574211 ], [ -71.732002, 44.574896 ], [ -71.728849, 44.57696 ], [ -71.725232, 44.578108 ], [ -71.721003, 44.578564 ], [ -71.715423, 44.57642 ], [ -71.711083, 44.576365 ], [ -71.712911, 44.579809 ], [ -71.713968, 44.580688 ], [ -71.712381, 44.583823 ], [ -71.71138, 44.587181 ], [ -71.707886, 44.589952 ], [ -71.707433, 44.591153 ], [ -71.705047, 44.593554 ], [ -71.703304, 44.596307 ], [ -71.701913, 44.600408 ], [ -71.702454, 44.605602 ], [ -71.705126, 44.607612 ], [ -71.705588, 44.609102 ], [ -71.703234, 44.612753 ], [ -71.701717, 44.614301 ], [ -71.701732, 44.61555 ], [ -71.700983, 44.613697 ], [ -71.701678, 44.612056 ], [ -71.698939, 44.611945 ], [ -71.697434, 44.609532 ], [ -71.694835, 44.608684 ], [ -71.692404, 44.609453 ], [ -71.69086, 44.60546 ], [ -71.691886, 44.604773 ], [ -71.690006, 44.603148 ], [ -71.688741, 44.598692 ], [ -71.688476, 44.592896 ], [ -71.685737, 44.593887 ], [ -71.685123, 44.595338 ], [ -71.682432, 44.596463 ], [ -71.68046, 44.595254 ], [ -71.678924, 44.596852 ], [ -71.677416, 44.59682 ], [ -71.676713, 44.599334 ], [ -71.672848, 44.604299 ], [ -71.669609, 44.606716 ], [ -71.666567, 44.60848 ], [ -71.665555, 44.611474 ], [ -71.662691, 44.611851 ], [ -71.660871, 44.611255 ], [ -71.658921, 44.612592 ], [ -71.65544, 44.611197 ], [ -71.653969, 44.611901 ], [ -71.648954, 44.611572 ], [ -71.646155, 44.611097 ], [ -71.644812, 44.613392 ], [ -71.640038, 44.615544 ], [ -71.662078, 44.626669 ], [ -71.735394, 44.665243 ], [ -71.789912, 44.611938 ], [ -71.800501, 44.601179 ] ] ] } }
]
}
