{
"type": "FeatureCollection",
"name": "06079",
"crs": { "type": "name", "properties": { "name": "urn:ogc:def:crs:OGC:1.3:CRS84" } },
"features": [
{ "type": "Feature", "properties": { "Name": "", "Description": "" }, "geometry": { "type": "Polygon", "coordinates": [ [ [ -73.410269, 42.031383 ], [ -73.409788, 42.029221 ], [ -73.408278, 42.030681 ], [ -73.407732, 42.033222 ], [ -73.404088, 42.032102 ], [ -73.402579, 42.03214 ], [ -73.402196, 42.031365 ], [ -73.403001, 42.02754 ], [ -73.402634, 42.025014 ], [ -73.400313, 42.029299 ], [ -73.398226, 42.031579 ], [ -73.39787, 42.033022 ], [ -73.396508, 42.033404 ], [ -73.397982, 42.036242 ], [ -73.396224, 42.037972 ], [ -73.390604, 42.040365 ], [ -73.387558, 42.043224 ], [ -73.381487, 42.045806 ], [ -73.377687, 42.048205 ], [ -73.375355380116702, 42.049091131731302 ], [ -73.405132814352001, 42.049866379545897 ], [ -73.408285, 42.038106 ], [ -73.408273, 42.036519 ], [ -73.409634, 42.034171 ], [ -73.410269, 42.031383 ] ] ] } }
]
}
