{
"type": "FeatureCollection",
"name": "06338",
"crs": { "type": "name", "properties": { "name": "urn:ogc:def:crs:OGC:1.3:CRS84" } },
"features": [
{ "type": "Feature", "properties": { "Name": "", "Description": "" }, "geometry": { "type": "Polygon", "coordinates": [ [ [ -71.989985, 41.465666 ], [ -71.989268, 41.458534 ], [ -71.987406, 41.454046 ], [ -71.986274, 41.452616 ], [ -71.984225, 41.450789 ], [ -71.981266, 41.450146 ], [ -71.979583, 41.449485 ], [ -71.979451, 41.450448 ], [ -71.975823, 41.450616 ], [ -71.975396, 41.450833 ], [ -71.969818, 41.452757 ], [ -71.966765, 41.453354 ], [ -71.966506, 41.453539 ], [ -71.965845, 41.454278 ], [ -71.965594, 41.454472 ], [ -71.969793, 41.463323 ], [ -71.969497, 41.463458 ], [ -71.967707, 41.46374 ], [ -71.967064, 41.463777 ], [ -71.966041, 41.463644 ], [ -71.965721, 41.463669 ], [ -71.964853, 41.464126 ], [ -71.961777, 41.465106 ], [ -71.960891, 41.465696 ], [ -71.95947, 41.466126 ], [ -71.958575, 41.466056 ], [ -71.957696, 41.465825 ], [ -71.956462, 41.466028 ], [ -71.95549, 41.466662 ], [ -71.954234, 41.466468 ], [ -71.953799, 41.468528 ], [ -71.952975, 41.46912 ], [ -71.954867, 41.470961 ], [ -71.956382, 41.471498 ], [ -71.956292, 41.472651 ], [ -71.957541, 41.47463 ], [ -71.956766, 41.475371 ], [ -71.957012, 41.475765 ], [ -71.957515, 41.476333 ], [ -71.958299, 41.47705 ], [ -71.958688, 41.477358 ], [ -71.958678, 41.477021 ], [ -71.959054, 41.4769 ], [ -71.959973, 41.478039 ], [ -71.96849, 41.482036 ], [ -71.969106, 41.482891 ], [ -71.97141, 41.486495 ], [ -71.974219, 41.486301 ], [ -71.973909, 41.484982 ], [ -71.974025, 41.483633 ], [ -71.972781, 41.483366 ], [ -71.971955, 41.481423 ], [ -71.973214, 41.479748 ], [ -71.968767, 41.479304 ], [ -71.97359, 41.478282 ], [ -71.97287, 41.477544 ], [ -71.966543, 41.478486 ], [ -71.965434, 41.477171 ], [ -71.968971, 41.476587 ], [ -71.967435, 41.474377 ], [ -71.964168, 41.475194 ], [ -71.96277, 41.473114 ], [ -71.966823, 41.472176 ], [ -71.967381, 41.471568 ], [ -71.962358, 41.472266 ], [ -71.967601, 41.470611 ], [ -71.968234, 41.471365 ], [ -71.971513, 41.470531 ], [ -71.972138, 41.471325 ], [ -71.97223, 41.471395 ], [ -71.972575, 41.471501 ], [ -71.972859, 41.471691 ], [ -71.973418, 41.471843 ], [ -71.973689, 41.471843 ], [ -71.973985, 41.471955 ], [ -71.9792, 41.472179 ], [ -71.978604, 41.470573 ], [ -71.979473, 41.466334 ], [ -71.980517, 41.464419 ], [ -71.984777, 41.466102 ], [ -71.989985, 41.465666 ] ] ] } }
]
}
