{
"type": "FeatureCollection",
"name": "06439",
"crs": { "type": "name", "properties": { "name": "urn:ogc:def:crs:OGC:1.3:CRS84" } },
"features": [
{ "type": "Feature", "properties": { "Name": "", "Description": "" }, "geometry": { "type": "Polygon", "coordinates": [ [ [ -72.411226, 41.420809 ], [ -72.41151, 41.419495 ], [ -72.409965, 41.415939 ], [ -72.409606, 41.413732 ], [ -72.40802, 41.412301 ], [ -72.405239, 41.412613 ], [ -72.397079, 41.408176 ], [ -72.395694, 41.408357 ], [ -72.388216, 41.411548 ], [ -72.389034, 41.416008 ], [ -72.390458, 41.417559 ], [ -72.401826, 41.423464 ], [ -72.406483, 41.421804 ], [ -72.405102, 41.42012 ], [ -72.411226, 41.420809 ] ] ] } }
]
}
