{
"type": "FeatureCollection",
"name": "06459",
"crs": { "type": "name", "properties": { "name": "urn:ogc:def:crs:OGC:1.3:CRS84" } },
"features": [
{ "type": "Feature", "properties": { "Name": "", "Description": "" }, "geometry": { "type": "Polygon", "coordinates": [ [ [ -72.665001, 41.550034 ], [ -72.666515, 41.543217 ], [ -72.659931, 41.543896 ], [ -72.65984, 41.544048 ], [ -72.659281, 41.54614 ], [ -72.659292, 41.548275 ], [ -72.659238, 41.548631 ], [ -72.658423, 41.55104 ], [ -72.658429, 41.553573 ], [ -72.654272, 41.554169 ], [ -72.654647, 41.555584 ], [ -72.653691, 41.557292 ], [ -72.654931, 41.559426 ], [ -72.653737, 41.560264 ], [ -72.654325, 41.561174 ], [ -72.658255, 41.559858 ], [ -72.661176, 41.55895 ], [ -72.66111, 41.55841 ], [ -72.659089, 41.559091 ], [ -72.658172, 41.55737 ], [ -72.66102, 41.556014 ], [ -72.661065, 41.557139 ], [ -72.662138, 41.557115 ], [ -72.661153, 41.553745 ], [ -72.660749, 41.554607 ], [ -72.660246, 41.553326 ], [ -72.659751, 41.552893 ], [ -72.659497, 41.553022 ], [ -72.659806, 41.550729 ], [ -72.660337, 41.552595 ], [ -72.662192, 41.551716 ], [ -72.663558, 41.55125 ], [ -72.66446, 41.550947 ], [ -72.665001, 41.550034 ] ] ] } }
]
}
