{
"type": "FeatureCollection",
"name": "06753",
"crs": { "type": "name", "properties": { "name": "urn:ogc:def:crs:OGC:1.3:CRS84" } },
"features": [
{ "type": "Feature", "properties": { "Name": "", "Description": "" }, "geometry": { "type": "Polygon", "coordinates": [ [ [ -73.365104, 41.813484 ], [ -73.365596, 41.810868 ], [ -73.361596, 41.80873 ], [ -73.356929, 41.807776 ], [ -73.35486, 41.808247 ], [ -73.352336, 41.807485 ], [ -73.352295, 41.806085 ], [ -73.349426, 41.807546 ], [ -73.343746, 41.807089 ], [ -73.341631, 41.80779 ], [ -73.340983, 41.810503 ], [ -73.340059, 41.810849 ], [ -73.338173, 41.813916 ], [ -73.336965, 41.817116 ], [ -73.336608, 41.820162 ], [ -73.337674, 41.82028 ], [ -73.337439, 41.821992 ], [ -73.336068, 41.824593 ], [ -73.334937, 41.82455 ], [ -73.332575, 41.827911 ], [ -73.333155, 41.829239 ], [ -73.332915, 41.832635 ], [ -73.334354, 41.834863 ], [ -73.333701, 41.835812 ], [ -73.329092, 41.835797 ], [ -73.328422, 41.84052 ], [ -73.327943, 41.839386 ], [ -73.324918, 41.839613 ], [ -73.32507, 41.841655 ], [ -73.327773, 41.842907 ], [ -73.32583, 41.846317 ], [ -73.326556, 41.846409 ], [ -73.330331, 41.846863 ], [ -73.333629, 41.84675 ], [ -73.335886, 41.845385 ], [ -73.337839, 41.844911 ], [ -73.338283, 41.842021 ], [ -73.338833, 41.841664 ], [ -73.343707, 41.841619 ], [ -73.344242, 41.842066 ], [ -73.34779, 41.841113 ], [ -73.34922, 41.839725 ], [ -73.349679, 41.838811 ], [ -73.347993, 41.837307 ], [ -73.34737, 41.835936 ], [ -73.347027, 41.833131 ], [ -73.348019, 41.831136 ], [ -73.352036, 41.82945 ], [ -73.356521, 41.825661 ], [ -73.358588, 41.821985 ], [ -73.361884, 41.819707 ], [ -73.358359, 41.818439 ], [ -73.362707, 41.812982 ], [ -73.365104, 41.813484 ] ] ] } }
]
}
