{
"type": "FeatureCollection",
"name": "07844",
"crs": { "type": "name", "properties": { "name": "urn:ogc:def:crs:OGC:1.3:CRS84" } },
"features": [
{ "type": "Feature", "properties": { "Name": "", "Description": "" }, "geometry": { "type": "Polygon", "coordinates": [ [ [ -74.972531, 40.908441 ], [ -74.975647, 40.906672 ], [ -74.969091, 40.902264 ], [ -74.968524, 40.903939 ], [ -74.96771, 40.904469 ], [ -74.967096, 40.90716 ], [ -74.965621, 40.908863 ], [ -74.967485, 40.912583 ], [ -74.966512, 40.911572 ], [ -74.965522, 40.914888 ], [ -74.9681, 40.914636 ], [ -74.971231, 40.912587 ], [ -74.971937, 40.912841 ], [ -74.970914, 40.910195 ], [ -74.972531, 40.908441 ] ] ] } }
]
}
