{
"type": "FeatureCollection",
"name": "08032",
"crs": { "type": "name", "properties": { "name": "urn:ogc:def:crs:OGC:1.3:CRS84" } },
"features": [
{ "type": "Feature", "properties": { "Name": "", "Description": "" }, "geometry": { "type": "Polygon", "coordinates": [ [ [ -75.066629, 39.782811 ], [ -75.065893, 39.782321 ], [ -75.059652, 39.77822 ], [ -75.059074, 39.777857 ], [ -75.060442, 39.776668 ], [ -75.059872, 39.775495 ], [ -75.057931, 39.777138 ], [ -75.05506, 39.77537 ], [ -75.054365, 39.776427 ], [ -75.054534, 39.779209 ], [ -75.055558, 39.782058 ], [ -75.058335, 39.782963 ], [ -75.058438, 39.782977 ], [ -75.064264, 39.784682 ], [ -75.063449, 39.785974 ], [ -75.066629, 39.782811 ] ] ] } }
]
}
