{
"type": "FeatureCollection",
"name": "08544",
"crs": { "type": "name", "properties": { "name": "urn:ogc:def:crs:OGC:1.3:CRS84" } },
"features": [
{ "type": "Feature", "properties": { "Name": "", "Description": "" }, "geometry": { "type": "Polygon", "coordinates": [ [ [ -74.66306, 40.348746 ], [ -74.661096, 40.346058 ], [ -74.660062, 40.343349 ], [ -74.660831, 40.342973 ], [ -74.660497, 40.342463 ], [ -74.656425, 40.343511 ], [ -74.655838, 40.342767 ], [ -74.65487, 40.343982 ], [ -74.652182, 40.344127 ], [ -74.653897, 40.346289 ], [ -74.656244, 40.349397 ], [ -74.65705, 40.350418 ], [ -74.659735, 40.349683 ], [ -74.66064, 40.349428 ], [ -74.66306, 40.348746 ] ] ] } }
]
}
