{
"type": "FeatureCollection",
"name": "10540",
"crs": { "type": "name", "properties": { "name": "urn:ogc:def:crs:OGC:1.3:CRS84" } },
"features": [
{ "type": "Feature", "properties": { "Name": "", "Description": "" }, "geometry": { "type": "Polygon", "coordinates": [ [ [ -73.734631, 41.337191 ], [ -73.736283, 41.335695 ], [ -73.731877, 41.321837 ], [ -73.728748, 41.321104 ], [ -73.728182, 41.320125 ], [ -73.728942, 41.318273 ], [ -73.719209, 41.319169 ], [ -73.718845, 41.321306 ], [ -73.719704, 41.326142 ], [ -73.723443, 41.32722 ], [ -73.726935, 41.330215 ], [ -73.726928, 41.332367 ], [ -73.729889, 41.332116 ], [ -73.732682, 41.333405 ], [ -73.734459, 41.335267 ], [ -73.734631, 41.337191 ] ] ] } }
]
}
