{
"type": "FeatureCollection",
"name": "11249",
"crs": { "type": "name", "properties": { "name": "urn:ogc:def:crs:OGC:1.3:CRS84" } },
"features": [
{ "type": "Feature", "properties": { "Name": "", "Description": "" }, "geometry": { "type": "Polygon", "coordinates": [ [ [ -73.969941, 40.70931 ], [ -73.969613, 40.707634 ], [ -73.969178, 40.706936 ], [ -73.969255, 40.705617 ], [ -73.967951, 40.705731 ], [ -73.96721, 40.704256 ], [ -73.967963, 40.702583 ], [ -73.967727, 40.697717 ], [ -73.966743, 40.697672 ], [ -73.964875, 40.697714 ], [ -73.963904, 40.697867 ], [ -73.962839, 40.698039 ], [ -73.962469, 40.698098 ], [ -73.961051, 40.698326 ], [ -73.958858, 40.698677 ], [ -73.957548, 40.699272 ], [ -73.957167, 40.699708 ], [ -73.957226, 40.7 ], [ -73.957457, 40.700822 ], [ -73.958071, 40.701398 ], [ -73.958689, 40.701953 ], [ -73.959889, 40.703032 ], [ -73.960168, 40.703282 ], [ -73.960341, 40.703437 ], [ -73.961854, 40.704786 ], [ -73.962485, 40.705352 ], [ -73.963098, 40.7059 ], [ -73.963745, 40.706479 ], [ -73.964393, 40.707056 ], [ -73.964849, 40.707454 ], [ -73.964421, 40.707534 ], [ -73.964329, 40.708015 ], [ -73.964185, 40.70872 ], [ -73.964027, 40.709534 ], [ -73.963875, 40.710297 ], [ -73.963606, 40.710853 ], [ -73.962942, 40.711905 ], [ -73.962552, 40.712526 ], [ -73.962081, 40.713269 ], [ -73.96168, 40.713901 ], [ -73.961287, 40.714502 ], [ -73.960881, 40.714892 ], [ -73.960436, 40.715306 ], [ -73.960139, 40.715583 ], [ -73.959511, 40.716172 ], [ -73.958913, 40.716728 ], [ -73.957725, 40.717835 ], [ -73.957131, 40.718388 ], [ -73.955942, 40.719493 ], [ -73.954754, 40.720601 ], [ -73.956038, 40.721397 ], [ -73.954776, 40.72246 ], [ -73.954183, 40.722636 ], [ -73.955139, 40.724329 ], [ -73.955679, 40.723943 ], [ -73.957572, 40.725097 ], [ -73.957717, 40.724298 ], [ -73.95892, 40.724351 ], [ -73.961611, 40.724951 ], [ -73.961543, 40.723876 ], [ -73.962645, 40.722747 ], [ -73.962787, 40.722562 ], [ -73.96355, 40.721571 ], [ -73.964038, 40.720939 ], [ -73.965572, 40.71895 ], [ -73.966511, 40.717917 ], [ -73.967578, 40.716496 ], [ -73.967716, 40.71604 ], [ -73.96837, 40.714127 ], [ -73.968469, 40.712999 ], [ -73.968861, 40.71265 ], [ -73.969021, 40.712508 ], [ -73.969612, 40.71016 ], [ -73.969941, 40.70931 ] ] ] } }
]
}
