{
"type": "FeatureCollection",
"name": "11439",
"crs": { "type": "name", "properties": { "name": "urn:ogc:def:crs:OGC:1.3:CRS84" } },
"features": [
{ "type": "Feature", "properties": { "Name": "", "Description": "" }, "geometry": { "type": "Polygon", "coordinates": [ [ [ -73.799001, 40.720145 ], [ -73.798492, 40.718707 ], [ -73.798096, 40.717543 ], [ -73.795577, 40.719025 ], [ -73.7903, 40.72092 ], [ -73.790509, 40.723471 ], [ -73.791745, 40.725776 ], [ -73.795883, 40.724415 ], [ -73.796752, 40.724117 ], [ -73.798472, 40.72353 ], [ -73.797233, 40.720609 ], [ -73.799001, 40.720145 ] ] ] } }
]
}
