{
"type": "FeatureCollection",
"name": "12082",
"crs": { "type": "name", "properties": { "name": "urn:ogc:def:crs:OGC:1.3:CRS84" } },
"features": [
{ "type": "Feature", "properties": { "Name": "", "Description": "" }, "geometry": { "type": "Polygon", "coordinates": [ [ [ -73.45084, 42.769674 ], [ -73.451033, 42.769163 ], [ -73.448952, 42.769177 ], [ -73.446049, 42.76953 ], [ -73.445251, 42.76974 ], [ -73.44211, 42.771251 ], [ -73.442606, 42.771317 ], [ -73.443782, 42.771059 ], [ -73.446837, 42.770068 ], [ -73.45084, 42.769674 ] ] ] } }
]
}
