{
"type": "FeatureCollection",
"name": "12226",
"crs": { "type": "name", "properties": { "name": "urn:ogc:def:crs:OGC:1.3:CRS84" } },
"features": [
{ "type": "Feature", "properties": { "Name": "", "Description": "" }, "geometry": { "type": "Polygon", "coordinates": [ [ [ -73.817575, 42.681262 ], [ -73.817624, 42.67992 ], [ -73.816736, 42.678858 ], [ -73.810936, 42.675508 ], [ -73.808355, 42.674088 ], [ -73.805707, 42.673771 ], [ -73.80269, 42.676572 ], [ -73.802083, 42.679172 ], [ -73.812329, 42.685109 ], [ -73.814545, 42.684298 ], [ -73.817575, 42.681262 ] ] ] } }
]
}
