{
"type": "FeatureCollection",
"name": "12544",
"crs": { "type": "name", "properties": { "name": "urn:ogc:def:crs:OGC:1.3:CRS84" } },
"features": [
{ "type": "Feature", "properties": { "Name": "", "Description": "" }, "geometry": { "type": "Polygon", "coordinates": [ [ [ -73.67796, 42.269143 ], [ -73.676752, 42.26855 ], [ -73.676415, 42.263858 ], [ -73.6748, 42.259938 ], [ -73.669083, 42.256306 ], [ -73.668354, 42.253017 ], [ -73.667235, 42.252611 ], [ -73.665601, 42.253081 ], [ -73.665134, 42.253236 ], [ -73.663536, 42.255392 ], [ -73.661006, 42.254853 ], [ -73.660201, 42.25646 ], [ -73.661722, 42.257598 ], [ -73.660191, 42.262411 ], [ -73.662314, 42.265057 ], [ -73.664735, 42.265895 ], [ -73.67796, 42.269143 ] ] ] } }
]
}
