{
"type": "FeatureCollection",
"name": "12820",
"crs": { "type": "name", "properties": { "name": "urn:ogc:def:crs:OGC:1.3:CRS84" } },
"features": [
{ "type": "Feature", "properties": { "Name": "", "Description": "" }, "geometry": { "type": "Polygon", "coordinates": [ [ [ -73.644612, 43.463015 ], [ -73.645289, 43.461187 ], [ -73.64292, 43.46014 ], [ -73.638493, 43.455803 ], [ -73.640471, 43.454344 ], [ -73.640448, 43.454256 ], [ -73.63564, 43.45578 ], [ -73.638077, 43.457946 ], [ -73.639194, 43.463685 ], [ -73.64266, 43.463715 ], [ -73.641536, 43.465833 ], [ -73.644612, 43.463015 ] ] ] } }
]
}
