{
"type": "FeatureCollection",
"name": "12854",
"crs": { "type": "name", "properties": { "name": "urn:ogc:def:crs:OGC:1.3:CRS84" } },
"features": [
{ "type": "Feature", "properties": { "Name": "", "Description": "" }, "geometry": { "type": "Polygon", "coordinates": [ [ [ -73.335662, 43.450331 ], [ -73.33545, 43.448937 ], [ -73.327221, 43.449239 ], [ -73.320794, 43.446568 ], [ -73.3243, 43.450157 ], [ -73.324521, 43.453134 ], [ -73.328345, 43.452721 ], [ -73.329352, 43.451713 ], [ -73.327141, 43.450339 ], [ -73.335662, 43.450331 ] ] ] } }
]
}
