{
"type": "FeatureCollection",
"name": "12915",
"crs": { "type": "name", "properties": { "name": "urn:ogc:def:crs:OGC:1.3:CRS84" } },
"features": [
{ "type": "Feature", "properties": { "Name": "", "Description": "" }, "geometry": { "type": "Polygon", "coordinates": [ [ [ -74.046167, 44.857189 ], [ -74.040012, 44.856214 ], [ -74.033405, 44.857963 ], [ -74.035824, 44.852923 ], [ -74.037513, 44.848766 ], [ -74.032435, 44.848229 ], [ -74.031115, 44.850293 ], [ -74.032053, 44.853714 ], [ -74.031402, 44.857082 ], [ -74.031994, 44.858393 ], [ -74.046167, 44.857189 ] ] ] } }
]
}
