{
"type": "FeatureCollection",
"name": "13065",
"crs": { "type": "name", "properties": { "name": "urn:ogc:def:crs:OGC:1.3:CRS84" } },
"features": [
{ "type": "Feature", "properties": { "Name": "", "Description": "" }, "geometry": { "type": "Polygon", "coordinates": [ [ [ -76.829295, 42.819689 ], [ -76.829237, 42.815254 ], [ -76.818714, 42.814337 ], [ -76.817609, 42.811961 ], [ -76.811871, 42.812187 ], [ -76.81171, 42.813161 ], [ -76.810825, 42.813079 ], [ -76.81034, 42.814613 ], [ -76.808561, 42.814419 ], [ -76.806111, 42.815648 ], [ -76.802412, 42.818634 ], [ -76.798954, 42.822527 ], [ -76.812961, 42.823506 ], [ -76.815506, 42.824022 ], [ -76.827904, 42.823426 ], [ -76.829295, 42.819689 ] ] ] } }
]
}
