{
"type": "FeatureCollection",
"name": "13119",
"crs": { "type": "name", "properties": { "name": "urn:ogc:def:crs:OGC:1.3:CRS84" } },
"features": [
{ "type": "Feature", "properties": { "Name": "", "Description": "" }, "geometry": { "type": "Polygon", "coordinates": [ [ [ -76.446708, 42.98008 ], [ -76.447371, 42.979859 ], [ -76.446384, 42.978938 ], [ -76.446972, 42.977333 ], [ -76.445648, 42.975826 ], [ -76.445915, 42.974406 ], [ -76.444311, 42.97312 ], [ -76.442229, 42.973537 ], [ -76.444545, 42.978779 ], [ -76.444967, 42.980263 ], [ -76.445773, 42.980239 ], [ -76.446384, 42.980156 ], [ -76.446708, 42.98008 ] ] ] } }
]
}
