{
"type": "FeatureCollection",
"name": "13121",
"crs": { "type": "name", "properties": { "name": "urn:ogc:def:crs:OGC:1.3:CRS84" } },
"features": [
{ "type": "Feature", "properties": { "Name": "", "Description": "" }, "geometry": { "type": "Polygon", "coordinates": [ [ [ -76.315514, 43.487084 ], [ -76.31471, 43.479571 ], [ -76.308615, 43.478366 ], [ -76.30689, 43.481593 ], [ -76.305268, 43.481546 ], [ -76.303883, 43.482589 ], [ -76.306847, 43.484407 ], [ -76.306119, 43.485524 ], [ -76.306624, 43.487242 ], [ -76.30532, 43.488485 ], [ -76.303263, 43.488203 ], [ -76.302357, 43.489268 ], [ -76.302751, 43.491455 ], [ -76.304402, 43.491873 ], [ -76.306044, 43.490934 ], [ -76.312279, 43.488611 ], [ -76.315514, 43.487084 ] ] ] } }
]
}
