{
"type": "FeatureCollection",
"name": "13154",
"crs": { "type": "name", "properties": { "name": "urn:ogc:def:crs:OGC:1.3:CRS84" } },
"features": [
{ "type": "Feature", "properties": { "Name": "", "Description": "" }, "geometry": { "type": "Polygon", "coordinates": [ [ [ -76.774658, 43.135592 ], [ -76.774458, 43.134292 ], [ -76.771459, 43.133556 ], [ -76.77112, 43.132586 ], [ -76.771403, 43.131362 ], [ -76.766053, 43.131667 ], [ -76.754883, 43.131532 ], [ -76.751035, 43.132745 ], [ -76.750302, 43.135222 ], [ -76.750573, 43.135807 ], [ -76.767146, 43.135719 ], [ -76.774658, 43.135592 ] ] ] } }
]
}
