{
"type": "FeatureCollection",
"name": "13244",
"crs": { "type": "name", "properties": { "name": "urn:ogc:def:crs:OGC:1.3:CRS84" } },
"features": [
{ "type": "Feature", "properties": { "Name": "", "Description": "" }, "geometry": { "type": "MultiPolygon", "coordinates": [ [ [ [ -76.129021, 43.027799 ], [ -76.128663, 43.023863 ], [ -76.124559, 43.022125 ], [ -76.12304, 43.014327 ], [ -76.122635, 43.013514 ], [ -76.121674, 43.011586 ], [ -76.111979, 43.007233 ], [ -76.111439, 43.007923 ], [ -76.114253, 43.010677 ], [ -76.112495, 43.010636 ], [ -76.112908, 43.014015 ], [ -76.113675, 43.021789 ], [ -76.119322, 43.021488 ], [ -76.119381, 43.022014 ], [ -76.120305, 43.021967 ], [ -76.121578, 43.021896 ], [ -76.121892, 43.02564 ], [ -76.125908, 43.025349 ], [ -76.127602, 43.027212 ], [ -76.129021, 43.027799 ] ] ], [ [ [ -76.129876, 43.037037 ], [ -76.129797, 43.036278 ], [ -76.128174, 43.03635 ], [ -76.128276, 43.03741 ], [ -76.129876, 43.037037 ] ] ], [ [ [ -76.139495, 43.037591 ], [ -76.13934, 43.035827 ], [ -76.139258, 43.034431 ], [ -76.137165, 43.035428 ], [ -76.133482, 43.035491 ], [ -76.133415, 43.033684 ], [ -76.132486, 43.033708 ], [ -76.129443, 43.032389 ], [ -76.129586, 43.033963 ], [ -76.129797, 43.036278 ], [ -76.131291, 43.036258 ], [ -76.131603, 43.039364 ], [ -76.128455, 43.039347 ], [ -76.128746, 43.04261 ], [ -76.131444, 43.042617 ], [ -76.132253, 43.040502 ], [ -76.136649, 43.041593 ], [ -76.136576, 43.040123 ], [ -76.136594, 43.039414 ], [ -76.138018, 43.039428 ], [ -76.13825, 43.037647 ], [ -76.139495, 43.037591 ] ] ] ] } }
]
}
