{
"type": "FeatureCollection",
"name": "13457",
"crs": { "type": "name", "properties": { "name": "urn:ogc:def:crs:OGC:1.3:CRS84" } },
"features": [
{ "type": "Feature", "properties": { "Name": "", "Description": "" }, "geometry": { "type": "Polygon", "coordinates": [ [ [ -75.060757, 42.786023 ], [ -75.063627, 42.786953 ], [ -75.05672, 42.783427 ], [ -75.057519, 42.781897 ], [ -75.041419, 42.774645 ], [ -75.044286, 42.771668 ], [ -75.037492, 42.767247 ], [ -75.036922, 42.76443 ], [ -75.035742, 42.762811 ], [ -75.031772, 42.760426 ], [ -75.030141, 42.761012 ], [ -75.028414, 42.762615 ], [ -75.026597, 42.766488 ], [ -75.027654, 42.768465 ], [ -75.03017, 42.776439 ], [ -75.028078, 42.780391 ], [ -75.024237, 42.786851 ], [ -75.024725, 42.788622 ], [ -75.028147, 42.78675 ], [ -75.030283, 42.78712 ], [ -75.031504, 42.786324 ], [ -75.031853, 42.784493 ], [ -75.033042, 42.782063 ], [ -75.034987, 42.782376 ], [ -75.038737, 42.780913 ], [ -75.040373, 42.781495 ], [ -75.046338, 42.78119 ], [ -75.051033, 42.782559 ], [ -75.053058, 42.783801 ], [ -75.054727, 42.783789 ], [ -75.056364, 42.785105 ], [ -75.060757, 42.786023 ] ] ] } }
]
}
