{
"type": "FeatureCollection",
"name": "13482",
"crs": { "type": "name", "properties": { "name": "urn:ogc:def:crs:OGC:1.3:CRS84" } },
"features": [
{ "type": "Feature", "properties": { "Name": "", "Description": "" }, "geometry": { "type": "Polygon", "coordinates": [ [ [ -75.201701, 42.692757 ], [ -75.203059, 42.676839 ], [ -75.19823, 42.67665 ], [ -75.194485, 42.675676 ], [ -75.191992, 42.676071 ], [ -75.182598, 42.680477 ], [ -75.180664, 42.680767 ], [ -75.181796, 42.683847 ], [ -75.184181, 42.686729 ], [ -75.184883, 42.691685 ], [ -75.180169, 42.691479 ], [ -75.177025, 42.692737 ], [ -75.175064, 42.692388 ], [ -75.173664, 42.690495 ], [ -75.172101, 42.689668 ], [ -75.168709, 42.69082 ], [ -75.166442, 42.690572 ], [ -75.163338, 42.685816 ], [ -75.162382, 42.685 ], [ -75.157488, 42.68315 ], [ -75.154981, 42.681752 ], [ -75.152787, 42.679653 ], [ -75.150483, 42.679186 ], [ -75.148385, 42.681848 ], [ -75.148422, 42.682937 ], [ -75.152587, 42.689386 ], [ -75.157178, 42.695528 ], [ -75.157976, 42.698078 ], [ -75.158773, 42.705052 ], [ -75.154528, 42.705578 ], [ -75.154437, 42.708495 ], [ -75.155384, 42.711744 ], [ -75.159298, 42.713199 ], [ -75.161545, 42.71284 ], [ -75.164785, 42.713668 ], [ -75.165125, 42.716323 ], [ -75.168177, 42.718805 ], [ -75.172419, 42.718599 ], [ -75.173597, 42.71816 ], [ -75.179752, 42.714002 ], [ -75.185513, 42.708443 ], [ -75.188178, 42.707221 ], [ -75.190515, 42.70543 ], [ -75.192666, 42.703088 ], [ -75.195718, 42.698355 ], [ -75.198565, 42.69598 ], [ -75.20078, 42.693142 ], [ -75.201701, 42.692757 ] ] ] } }
]
}
