{
"type": "FeatureCollection",
"name": "13611",
"crs": { "type": "name", "properties": { "name": "urn:ogc:def:crs:OGC:1.3:CRS84" } },
"features": [
{ "type": "Feature", "properties": { "Name": "", "Description": "" }, "geometry": { "type": "Polygon", "coordinates": [ [ [ -76.144194, 43.769675 ], [ -76.143411, 43.763359 ], [ -76.139095, 43.763082 ], [ -76.138493, 43.764249 ], [ -76.134968, 43.763865 ], [ -76.134816, 43.764723 ], [ -76.131604, 43.763932 ], [ -76.128533, 43.764793 ], [ -76.126918, 43.765165 ], [ -76.123859, 43.766725 ], [ -76.121922, 43.768652 ], [ -76.121024, 43.771475 ], [ -76.118731, 43.771304 ], [ -76.118221, 43.771962 ], [ -76.1148, 43.771841 ], [ -76.108342, 43.774814 ], [ -76.106277, 43.775063 ], [ -76.103697, 43.776629 ], [ -76.100983, 43.77947 ], [ -76.115405, 43.780344 ], [ -76.108336, 43.785519 ], [ -76.112912, 43.786746 ], [ -76.112514, 43.787074 ], [ -76.110599, 43.78756 ], [ -76.109053, 43.788504 ], [ -76.107033, 43.791081 ], [ -76.107124, 43.794419 ], [ -76.10811, 43.794607 ], [ -76.115981, 43.785382 ], [ -76.119474, 43.783485 ], [ -76.120224, 43.790331 ], [ -76.120619, 43.793514 ], [ -76.123853, 43.793685 ], [ -76.128191, 43.790879 ], [ -76.128333, 43.788815 ], [ -76.129931, 43.787326 ], [ -76.130706, 43.785013 ], [ -76.133351, 43.784111 ], [ -76.133147, 43.782697 ], [ -76.13653, 43.77956 ], [ -76.137478, 43.779872 ], [ -76.14001, 43.778199 ], [ -76.121605, 43.782931 ], [ -76.121614, 43.779952 ], [ -76.120772, 43.778742 ], [ -76.123036, 43.778207 ], [ -76.144194, 43.769675 ] ] ] } }
]
}
