{
"type": "FeatureCollection",
"name": "13632",
"crs": { "type": "name", "properties": { "name": "urn:ogc:def:crs:OGC:1.3:CRS84" } },
"features": [
{ "type": "Feature", "properties": { "Name": "", "Description": "" }, "geometry": { "type": "Polygon", "coordinates": [ [ [ -76.085149, 44.126989 ], [ -76.085826, 44.126646 ], [ -76.081979, 44.124871 ], [ -76.081004, 44.122072 ], [ -76.077475, 44.116949 ], [ -76.075676, 44.115248 ], [ -76.070987, 44.116085 ], [ -76.070391, 44.116886 ], [ -76.067204, 44.117635 ], [ -76.065099, 44.117326 ], [ -76.062592, 44.118584 ], [ -76.060815, 44.119748 ], [ -76.055024, 44.12235 ], [ -76.052773, 44.124627 ], [ -76.049065, 44.126819 ], [ -76.061303, 44.13488 ], [ -76.065673, 44.138531 ], [ -76.066936, 44.140196 ], [ -76.06782, 44.139414 ], [ -76.068775, 44.139981 ], [ -76.073719, 44.136774 ], [ -76.077404, 44.132989 ], [ -76.083083, 44.129232 ], [ -76.084255, 44.126879 ], [ -76.085149, 44.126989 ] ] ] } }
]
}
