{
"type": "FeatureCollection",
"name": "13649",
"crs": { "type": "name", "properties": { "name": "urn:ogc:def:crs:OGC:1.3:CRS84" } },
"features": [
{ "type": "Feature", "properties": { "Name": "", "Description": "" }, "geometry": { "type": "Polygon", "coordinates": [ [ [ -74.723942, 44.922917 ], [ -74.723719, 44.92155 ], [ -74.72064, 44.91665 ], [ -74.719202, 44.915707 ], [ -74.715992, 44.911437 ], [ -74.714883, 44.910765 ], [ -74.714742, 44.909009 ], [ -74.712237, 44.907488 ], [ -74.70836, 44.909206 ], [ -74.704971, 44.909085 ], [ -74.700836, 44.910228 ], [ -74.696855, 44.909545 ], [ -74.696417, 44.908788 ], [ -74.698635, 44.907058 ], [ -74.698784, 44.905861 ], [ -74.69562, 44.903411 ], [ -74.69375, 44.902994 ], [ -74.692929, 44.902071 ], [ -74.695301, 44.90024 ], [ -74.696622, 44.896314 ], [ -74.697925, 44.895747 ], [ -74.700323, 44.896145 ], [ -74.701, 44.895502 ], [ -74.699747, 44.894482 ], [ -74.699633, 44.893172 ], [ -74.698273, 44.892316 ], [ -74.695037, 44.892196 ], [ -74.693133, 44.892907 ], [ -74.678589, 44.903168 ], [ -74.677045, 44.904053 ], [ -74.677564, 44.907704 ], [ -74.682531, 44.907313 ], [ -74.683844, 44.916321 ], [ -74.69425, 44.915528 ], [ -74.695414, 44.924046 ], [ -74.695754, 44.926601 ], [ -74.708355, 44.925856 ], [ -74.711227, 44.927392 ], [ -74.713195, 44.927277 ], [ -74.717244, 44.923911 ], [ -74.719824, 44.923086 ], [ -74.7222, 44.924198 ], [ -74.723942, 44.922917 ] ] ] } }
]
}
