{
"type": "FeatureCollection",
"name": "13699",
"crs": { "type": "name", "properties": { "name": "urn:ogc:def:crs:OGC:1.3:CRS84" } },
"features": [
{ "type": "Feature", "properties": { "Name": "", "Description": "" }, "geometry": { "type": "Polygon", "coordinates": [ [ [ -75.005408, 44.662317 ], [ -75.004792, 44.66109 ], [ -75.001128, 44.659694 ], [ -74.997436, 44.659662 ], [ -74.993701, 44.661637 ], [ -74.992525, 44.663832 ], [ -74.989836, 44.666348 ], [ -74.994055, 44.666274 ], [ -74.994135, 44.667267 ], [ -75.00352, 44.667282 ], [ -75.003567, 44.665003 ], [ -75.005408, 44.662317 ] ] ] } }
]
}
