{
"type": "FeatureCollection",
"name": "13738",
"crs": { "type": "name", "properties": { "name": "urn:ogc:def:crs:OGC:1.3:CRS84" } },
"features": [
{ "type": "Feature", "properties": { "Name": "", "Description": "" }, "geometry": { "type": "Polygon", "coordinates": [ [ [ -76.125845, 42.568244 ], [ -76.126028, 42.565449 ], [ -76.121224, 42.562048 ], [ -76.115997, 42.555535 ], [ -76.113319, 42.555636 ], [ -76.112619, 42.555668 ], [ -76.115574, 42.560304 ], [ -76.119024, 42.562501 ], [ -76.121124, 42.568233 ], [ -76.122895, 42.568081 ], [ -76.125845, 42.568244 ] ] ] } }
]
}
