{
"type": "FeatureCollection",
"name": "13747",
"crs": { "type": "name", "properties": { "name": "urn:ogc:def:crs:OGC:1.3:CRS84" } },
"features": [
{ "type": "Feature", "properties": { "Name": "", "Description": "" }, "geometry": { "type": "Polygon", "coordinates": [ [ [ -74.988936, 42.485089 ], [ -74.987424, 42.487451 ], [ -74.985923, 42.487895 ], [ -74.984372, 42.486216 ], [ -74.983048, 42.486234 ], [ -74.981981, 42.488591 ], [ -74.979558, 42.488741 ], [ -74.979916, 42.489991 ], [ -74.973517, 42.490459 ], [ -74.974699, 42.490451 ], [ -74.978768, 42.491425 ], [ -74.979508, 42.491478 ], [ -74.978851, 42.493128 ], [ -74.981464, 42.494486 ], [ -74.982466, 42.494506 ], [ -74.981811, 42.491008 ], [ -74.986767, 42.489299 ], [ -74.988936, 42.485089 ] ] ] } }
]
}
