{
"type": "FeatureCollection",
"name": "14027",
"crs": { "type": "name", "properties": { "name": "urn:ogc:def:crs:OGC:1.3:CRS84" } },
"features": [
{ "type": "Feature", "properties": { "Name": "", "Description": "" }, "geometry": { "type": "Polygon", "coordinates": [ [ [ -79.032192, 42.599259 ], [ -79.032458, 42.588427 ], [ -79.017584, 42.588339 ], [ -79.005255, 42.588439 ], [ -79.00558, 42.591131 ], [ -79.008148, 42.595087 ], [ -79.010284, 42.595802 ], [ -79.012206, 42.596004 ], [ -79.013891, 42.598549 ], [ -79.017361, 42.599105 ], [ -79.01734, 42.600451 ], [ -79.020401, 42.60127 ], [ -79.0247, 42.602576 ], [ -79.032192, 42.599259 ] ] ] } }
]
}
