{
"type": "FeatureCollection",
"name": "14029",
"crs": { "type": "name", "properties": { "name": "urn:ogc:def:crs:OGC:1.3:CRS84" } },
"features": [
{ "type": "Feature", "properties": { "Name": "", "Description": "" }, "geometry": { "type": "Polygon", "coordinates": [ [ [ -78.28281, 42.480164 ], [ -78.283075, 42.469287 ], [ -78.259316, 42.469083 ], [ -78.264949, 42.465083 ], [ -78.27111, 42.461003 ], [ -78.270768, 42.458302 ], [ -78.270096, 42.458254 ], [ -78.265212, 42.458595 ], [ -78.264864, 42.458549 ], [ -78.262492, 42.459596 ], [ -78.258251, 42.463833 ], [ -78.251792, 42.468617 ], [ -78.251805, 42.469386 ], [ -78.249653, 42.471098 ], [ -78.247252, 42.473301 ], [ -78.244713, 42.474569 ], [ -78.243917, 42.47597 ], [ -78.242079, 42.476263 ], [ -78.241545, 42.478074 ], [ -78.237394, 42.478326 ], [ -78.237824, 42.479921 ], [ -78.28281, 42.480164 ] ] ] } }
]
}
