{
"type": "FeatureCollection",
"name": "14056",
"crs": { "type": "name", "properties": { "name": "urn:ogc:def:crs:OGC:1.3:CRS84" } },
"features": [
{ "type": "Feature", "properties": { "Name": "", "Description": "" }, "geometry": { "type": "Polygon", "coordinates": [ [ [ -78.314505, 42.994171 ], [ -78.314693, 42.993269 ], [ -78.311883, 42.993076 ], [ -78.311801, 42.991213 ], [ -78.309726, 42.99118 ], [ -78.309626, 42.986643 ], [ -78.302234, 42.98746 ], [ -78.302877, 42.993061 ], [ -78.301672, 42.993075 ], [ -78.301899, 42.996671 ], [ -78.309864, 42.995519 ], [ -78.309831, 42.994253 ], [ -78.314505, 42.994171 ] ] ] } }
]
}
