{
"type": "FeatureCollection",
"name": "14083",
"crs": { "type": "name", "properties": { "name": "urn:ogc:def:crs:OGC:1.3:CRS84" } },
"features": [
{ "type": "Feature", "properties": { "Name": "", "Description": "" }, "geometry": { "type": "Polygon", "coordinates": [ [ [ -78.443872, 42.678753 ], [ -78.443316, 42.676636 ], [ -78.441549, 42.675339 ], [ -78.439359, 42.676406 ], [ -78.43785, 42.674703 ], [ -78.438551, 42.673118 ], [ -78.435995, 42.672622 ], [ -78.434845, 42.673473 ], [ -78.424772, 42.673529 ], [ -78.424899, 42.676409 ], [ -78.425978, 42.678017 ], [ -78.428323, 42.678027 ], [ -78.428216, 42.683056 ], [ -78.429086, 42.685953 ], [ -78.432729, 42.685253 ], [ -78.439201, 42.6846 ], [ -78.439201, 42.685906 ], [ -78.443025, 42.686061 ], [ -78.440342, 42.681177 ], [ -78.440883, 42.68092 ], [ -78.442799, 42.680952 ], [ -78.443872, 42.678753 ] ] ] } }
]
}
