{
"type": "FeatureCollection",
"name": "14166",
"crs": { "type": "name", "properties": { "name": "urn:ogc:def:crs:OGC:1.3:CRS84" } },
"features": [
{ "type": "Feature", "properties": { "Name": "", "Description": "" }, "geometry": { "type": "Polygon", "coordinates": [ [ [ -79.419983, 42.447632 ], [ -79.420090883978204, 42.447339409447601 ], [ -79.415376, 42.449934 ], [ -79.41152, 42.449284 ], [ -79.411522903077497, 42.451594186619701 ], [ -79.412686, 42.451544 ], [ -79.415273, 42.453526 ], [ -79.417732, 42.453369 ], [ -79.418508, 42.452047 ], [ -79.419983, 42.447632 ] ] ] } }
]
}
