{
"type": "FeatureCollection",
"name": "14260",
"crs": { "type": "name", "properties": { "name": "urn:ogc:def:crs:OGC:1.3:CRS84" } },
"features": [
{ "type": "Feature", "properties": { "Name": "", "Description": "" }, "geometry": { "type": "Polygon", "coordinates": [ [ [ -78.796279, 43.003581 ], [ -78.796474, 43.00004 ], [ -78.794063, 43.000027 ], [ -78.794125, 42.998027 ], [ -78.785464, 42.998064 ], [ -78.785919, 43.001745 ], [ -78.785877, 43.005257 ], [ -78.786064, 43.005325 ], [ -78.794436, 43.004921 ], [ -78.796279, 43.003581 ] ] ] } }
]
}
