{
"type": "FeatureCollection",
"name": "14453",
"crs": { "type": "name", "properties": { "name": "urn:ogc:def:crs:OGC:1.3:CRS84" } },
"features": [
{ "type": "Feature", "properties": { "Name": "", "Description": "" }, "geometry": { "type": "Polygon", "coordinates": [ [ [ -77.485032, 43.017349 ], [ -77.485011, 43.016831 ], [ -77.478075, 43.015017 ], [ -77.471812, 43.014538 ], [ -77.470375, 43.009585 ], [ -77.468506, 43.011161 ], [ -77.465771, 43.010809 ], [ -77.464887, 43.014353 ], [ -77.465862, 43.014374 ], [ -77.465868, 43.017045 ], [ -77.468008, 43.01869 ], [ -77.469619, 43.017861 ], [ -77.472296, 43.018155 ], [ -77.475541, 43.017536 ], [ -77.474512, 43.020413 ], [ -77.482484, 43.020155 ], [ -77.482579, 43.01667 ], [ -77.485032, 43.017349 ] ] ] } }
]
}
