{
"type": "FeatureCollection",
"name": "14463",
"crs": { "type": "name", "properties": { "name": "urn:ogc:def:crs:OGC:1.3:CRS84" } },
"features": [
{ "type": "Feature", "properties": { "Name": "", "Description": "" }, "geometry": { "type": "Polygon", "coordinates": [ [ [ -77.078899, 42.805315 ], [ -77.078971, 42.800495 ], [ -77.078222, 42.799825 ], [ -77.077249, 42.797077 ], [ -77.074748, 42.792787 ], [ -77.075109, 42.790718 ], [ -77.074164, 42.790248 ], [ -77.07415, 42.787948 ], [ -77.059121, 42.788017 ], [ -77.058211, 42.78616 ], [ -77.058948, 42.800574 ], [ -77.06418, 42.79621 ], [ -77.067148, 42.79742 ], [ -77.069327, 42.79741 ], [ -77.06955, 42.8036 ], [ -77.071486, 42.80482 ], [ -77.074361, 42.80437 ], [ -77.076302, 42.805697 ], [ -77.078899, 42.805315 ] ] ] } }
]
}
