{
"type": "FeatureCollection",
"name": "14556",
"crs": { "type": "name", "properties": { "name": "urn:ogc:def:crs:OGC:1.3:CRS84" } },
"features": [
{ "type": "Feature", "properties": { "Name": "", "Description": "" }, "geometry": { "type": "Polygon", "coordinates": [ [ [ -77.841638, 42.671857 ], [ -77.841573, 42.661678 ], [ -77.82292, 42.661478 ], [ -77.822646, 42.680568 ], [ -77.821843, 42.680197 ], [ -77.822254, 42.690808 ], [ -77.819277, 42.691063 ], [ -77.819321, 42.692788 ], [ -77.827001, 42.693115 ], [ -77.827515, 42.695225 ], [ -77.831218, 42.695202 ], [ -77.833282, 42.697951 ], [ -77.841407, 42.69794 ], [ -77.841531, 42.688811 ], [ -77.841638, 42.671857 ] ] ] } }
]
}
