{
"type": "FeatureCollection",
"name": "14557",
"crs": { "type": "name", "properties": { "name": "urn:ogc:def:crs:OGC:1.3:CRS84" } },
"features": [
{ "type": "Feature", "properties": { "Name": "", "Description": "" }, "geometry": { "type": "MultiPolygon", "coordinates": [ [ [ [ -78.065643, 43.047259 ], [ -78.06564, 43.047214 ], [ -78.055426, 43.050739 ], [ -78.044961, 43.054348 ], [ -78.044903, 43.056884 ], [ -78.062057, 43.057185 ], [ -78.062339, 43.05514 ], [ -78.064656, 43.050837 ], [ -78.065643, 43.047259 ] ] ], [ [ [ -78.07569, 43.041705 ], [ -78.075959, 43.039047 ], [ -78.058097, 43.03887 ], [ -78.058062, 43.043243 ], [ -78.063536, 43.043405 ], [ -78.063444, 43.047715 ], [ -78.06564, 43.047214 ], [ -78.07322, 43.044545 ], [ -78.07174, 43.043861 ], [ -78.07569, 43.041705 ] ] ] ] } }
]
}
