{
"type": "FeatureCollection",
"name": "14785",
"crs": { "type": "name", "properties": { "name": "urn:ogc:def:crs:OGC:1.3:CRS84" } },
"features": [
{ "type": "Feature", "properties": { "Name": "", "Description": "" }, "geometry": { "type": "Polygon", "coordinates": [ [ [ -79.407488, 42.155699 ], [ -79.406841, 42.15171 ], [ -79.398072, 42.151818 ], [ -79.399059, 42.153022 ], [ -79.400264, 42.156899 ], [ -79.404689, 42.16239 ], [ -79.406823, 42.161399 ], [ -79.404233, 42.156808 ], [ -79.407488, 42.155699 ] ] ] } }
]
}
