{
"type": "FeatureCollection",
"name": "15275",
"crs": { "type": "name", "properties": { "name": "urn:ogc:def:crs:OGC:1.3:CRS84" } },
"features": [
{ "type": "Feature", "properties": { "Name": "", "Description": "" }, "geometry": { "type": "Polygon", "coordinates": [ [ [ -80.191832, 40.454968 ], [ -80.193453, 40.4527 ], [ -80.191599, 40.45083 ], [ -80.189324, 40.450584 ], [ -80.185977, 40.45121 ], [ -80.184401, 40.450895 ], [ -80.181411, 40.44821 ], [ -80.18018, 40.447653 ], [ -80.177753, 40.448061 ], [ -80.175645, 40.450223 ], [ -80.172917, 40.451097 ], [ -80.17256, 40.452009 ], [ -80.177668, 40.452843 ], [ -80.184833, 40.455393 ], [ -80.186675, 40.456507 ], [ -80.188262, 40.457762 ], [ -80.188366, 40.457844 ], [ -80.190483, 40.456459 ], [ -80.192438, 40.455868 ], [ -80.191832, 40.454968 ] ] ] } }
]
}
