{
"type": "FeatureCollection",
"name": "15282",
"crs": { "type": "name", "properties": { "name": "urn:ogc:def:crs:OGC:1.3:CRS84" } },
"features": [
{ "type": "Feature", "properties": { "Name": "", "Description": "" }, "geometry": { "type": "Polygon", "coordinates": [ [ [ -79.995721, 40.434103 ], [ -79.995914, 40.43389 ], [ -79.989451, 40.433561 ], [ -79.99004, 40.434851 ], [ -79.988473, 40.434861 ], [ -79.986771, 40.434982 ], [ -79.986776, 40.435058 ], [ -79.98436, 40.435457 ], [ -79.984296, 40.436777 ], [ -79.986612, 40.436918 ], [ -79.986534, 40.437731 ], [ -79.988307, 40.438289 ], [ -79.993934, 40.438025 ], [ -79.993873, 40.438509 ], [ -79.994623, 40.435796 ], [ -79.995721, 40.434103 ] ] ] } }
]
}
