{
"type": "FeatureCollection",
"name": "15365",
"crs": { "type": "name", "properties": { "name": "urn:ogc:def:crs:OGC:1.3:CRS84" } },
"features": [
{ "type": "Feature", "properties": { "Name": "", "Description": "" }, "geometry": { "type": "Polygon", "coordinates": [ [ [ -80.402156, 40.158582 ], [ -80.402532, 40.158618 ], [ -80.402112, 40.155057 ], [ -80.400564, 40.154394 ], [ -80.397629, 40.154469 ], [ -80.394517, 40.152611 ], [ -80.391456, 40.150342 ], [ -80.389214, 40.149577 ], [ -80.388061, 40.150498 ], [ -80.38547, 40.151444 ], [ -80.383184, 40.151486 ], [ -80.380521, 40.150116 ], [ -80.378542, 40.14984 ], [ -80.372056, 40.15534 ], [ -80.374591, 40.160028 ], [ -80.374382, 40.160815 ], [ -80.376843, 40.160754 ], [ -80.378249, 40.162679 ], [ -80.377269, 40.164042 ], [ -80.379855, 40.165187 ], [ -80.380153, 40.164579 ], [ -80.378874, 40.160541 ], [ -80.379892, 40.160269 ], [ -80.380719, 40.162154 ], [ -80.384552, 40.157847 ], [ -80.386913, 40.157267 ], [ -80.392169, 40.15824 ], [ -80.395497, 40.157991 ], [ -80.398853, 40.158863 ], [ -80.402156, 40.158582 ] ] ] } }
]
}
