{
"type": "FeatureCollection",
"name": "15416",
"crs": { "type": "name", "properties": { "name": "urn:ogc:def:crs:OGC:1.3:CRS84" } },
"features": [
{ "type": "Feature", "properties": { "Name": "", "Description": "" }, "geometry": { "type": "Polygon", "coordinates": [ [ [ -79.740163, 39.864313 ], [ -79.737491, 39.862528 ], [ -79.724291, 39.852365 ], [ -79.719599, 39.848473 ], [ -79.71478, 39.85167 ], [ -79.71334, 39.85528 ], [ -79.7106, 39.86003 ], [ -79.71071, 39.86178 ], [ -79.70837, 39.86518 ], [ -79.7131, 39.86473 ], [ -79.7135, 39.86327 ], [ -79.71654, 39.86166 ], [ -79.7175, 39.85977 ], [ -79.72186, 39.86206 ], [ -79.72075, 39.86326 ], [ -79.72105, 39.8652 ], [ -79.72483, 39.86698 ], [ -79.729244, 39.866816 ], [ -79.73504, 39.864691 ], [ -79.740163, 39.864313 ] ] ] } }
]
}
