{
"type": "FeatureCollection",
"name": "15465",
"crs": { "type": "name", "properties": { "name": "urn:ogc:def:crs:OGC:1.3:CRS84" } },
"features": [
{ "type": "Feature", "properties": { "Name": "", "Description": "" }, "geometry": { "type": "Polygon", "coordinates": [ [ [ -79.656256, 39.939172 ], [ -79.656645, 39.937661 ], [ -79.655021, 39.933503 ], [ -79.65397, 39.93293 ], [ -79.653596, 39.934593 ], [ -79.65097, 39.93337 ], [ -79.6479, 39.93655 ], [ -79.64721, 39.93912 ], [ -79.64621, 39.94036 ], [ -79.64356, 39.93806 ], [ -79.64404, 39.93291 ], [ -79.64228, 39.9334 ], [ -79.640106, 39.932572 ], [ -79.639875, 39.931304 ], [ -79.63816, 39.93118 ], [ -79.637782, 39.930109 ], [ -79.635225, 39.929486 ], [ -79.63087, 39.92977 ], [ -79.629936, 39.933088 ], [ -79.628022, 39.935575 ], [ -79.628475, 39.937223 ], [ -79.631889, 39.941009 ], [ -79.634232, 39.944594 ], [ -79.643188, 39.948945 ], [ -79.643622, 39.949124 ], [ -79.645078, 39.94747 ], [ -79.653192, 39.94176 ], [ -79.656256, 39.939172 ] ] ] } }
]
}
