{
"type": "FeatureCollection",
"name": "15488",
"crs": { "type": "name", "properties": { "name": "urn:ogc:def:crs:OGC:1.3:CRS84" } },
"features": [
{ "type": "Feature", "properties": { "Name": "", "Description": "" }, "geometry": { "type": "Polygon", "coordinates": [ [ [ -79.76792, 39.98784 ], [ -79.76802, 39.98658 ], [ -79.765543, 39.979998 ], [ -79.76794, 39.97779 ], [ -79.76662, 39.97765 ], [ -79.76601, 39.97579 ], [ -79.76285, 39.97347 ], [ -79.75879, 39.97268 ], [ -79.75661, 39.97122 ], [ -79.75557, 39.97264 ], [ -79.754062, 39.971261 ], [ -79.752779, 39.973976 ], [ -79.754789, 39.97509 ], [ -79.753693, 39.976371 ], [ -79.753976, 39.978528 ], [ -79.751561, 39.978764 ], [ -79.751633, 39.980845 ], [ -79.75268, 39.98031 ], [ -79.75651, 39.98049 ], [ -79.75725, 39.98095 ], [ -79.7546, 39.9825 ], [ -79.75905, 39.98084 ], [ -79.764399, 39.979896 ], [ -79.764334, 39.980699 ], [ -79.766389, 39.983561 ], [ -79.767446, 39.987444 ], [ -79.766352, 39.989259 ], [ -79.765591, 39.99245 ], [ -79.76792, 39.98784 ] ] ] } }
]
}
