{
"type": "FeatureCollection",
"name": "15565",
"crs": { "type": "name", "properties": { "name": "urn:ogc:def:crs:OGC:1.3:CRS84" } },
"features": [
{ "type": "Feature", "properties": { "Name": "", "Description": "" }, "geometry": { "type": "Polygon", "coordinates": [ [ [ -79.136272, 39.768681 ], [ -79.137185, 39.765 ], [ -79.134384, 39.761991 ], [ -79.129733, 39.759568 ], [ -79.124566, 39.759096 ], [ -79.122576, 39.759573 ], [ -79.120823, 39.758024 ], [ -79.119786, 39.755279 ], [ -79.11735, 39.755439 ], [ -79.113499, 39.753588 ], [ -79.113314, 39.753554 ], [ -79.111123, 39.753666 ], [ -79.109506, 39.75212 ], [ -79.10809, 39.751727 ], [ -79.106682, 39.751547 ], [ -79.104626, 39.752482 ], [ -79.103076, 39.754506 ], [ -79.09912, 39.753464 ], [ -79.097777, 39.75378 ], [ -79.095573, 39.753608 ], [ -79.095571, 39.753972 ], [ -79.095152, 39.754763 ], [ -79.097035, 39.756112 ], [ -79.101235, 39.755054 ], [ -79.103793, 39.755746 ], [ -79.102462, 39.760819 ], [ -79.110361, 39.765 ], [ -79.113575, 39.759158 ], [ -79.115064, 39.757903 ], [ -79.115253, 39.760659 ], [ -79.117979, 39.762208 ], [ -79.120398, 39.762513 ], [ -79.123563, 39.760777 ], [ -79.123386, 39.761773 ], [ -79.126618, 39.762176 ], [ -79.136272, 39.768681 ] ] ] } }
]
}
