{
"type": "FeatureCollection",
"name": "15619",
"crs": { "type": "name", "properties": { "name": "urn:ogc:def:crs:OGC:1.3:CRS84" } },
"features": [
{ "type": "Feature", "properties": { "Name": "", "Description": "" }, "geometry": { "type": "Polygon", "coordinates": [ [ [ -79.511178, 40.318542 ], [ -79.509852, 40.317128 ], [ -79.506363, 40.315872 ], [ -79.505198, 40.312466 ], [ -79.50307, 40.31302 ], [ -79.49604, 40.31642 ], [ -79.49356, 40.31709 ], [ -79.488292, 40.317268 ], [ -79.48774, 40.319602 ], [ -79.488565, 40.322677 ], [ -79.488695, 40.327258 ], [ -79.489235, 40.328251 ], [ -79.490086, 40.328897 ], [ -79.493178, 40.328782 ], [ -79.49557, 40.327384 ], [ -79.504199, 40.320219 ], [ -79.511178, 40.318542 ] ] ] } }
]
}
