{
"type": "FeatureCollection",
"name": "15674",
"crs": { "type": "name", "properties": { "name": "urn:ogc:def:crs:OGC:1.3:CRS84" } },
"features": [
{ "type": "Feature", "properties": { "Name": "", "Description": "" }, "geometry": { "type": "Polygon", "coordinates": [ [ [ -79.50489, 40.21154 ], [ -79.50392, 40.20936 ], [ -79.50129, 40.20961 ], [ -79.49936, 40.20804 ], [ -79.49744, 40.20829 ], [ -79.49737, 40.20462 ], [ -79.49941, 40.20531 ], [ -79.50115, 40.20359 ], [ -79.49742, 40.20249 ], [ -79.49664, 40.20163 ], [ -79.49239, 40.20165 ], [ -79.489719, 40.204782 ], [ -79.49123, 40.205855 ], [ -79.49075, 40.2074 ], [ -79.49607, 40.21074 ], [ -79.50218, 40.21209 ], [ -79.50489, 40.21154 ] ] ] } }
]
}
