{
"type": "FeatureCollection",
"name": "15682",
"crs": { "type": "name", "properties": { "name": "urn:ogc:def:crs:OGC:1.3:CRS84" } },
"features": [
{ "type": "Feature", "properties": { "Name": "", "Description": "" }, "geometry": { "type": "Polygon", "coordinates": [ [ [ -79.666557, 40.683816 ], [ -79.668426, 40.680007 ], [ -79.665587, 40.679202 ], [ -79.663847, 40.681602 ], [ -79.660585, 40.679917 ], [ -79.658373, 40.68234 ], [ -79.657491, 40.682512 ], [ -79.651612, 40.681465 ], [ -79.648212, 40.679417 ], [ -79.642254, 40.67802 ], [ -79.635055, 40.673739 ], [ -79.629467, 40.670943 ], [ -79.628767, 40.669827 ], [ -79.626712, 40.670918 ], [ -79.621987, 40.67008 ], [ -79.619307, 40.667783 ], [ -79.614619, 40.668453 ], [ -79.61103, 40.669059 ], [ -79.612871, 40.670196 ], [ -79.613793, 40.672929 ], [ -79.613582, 40.675658 ], [ -79.615201, 40.68018 ], [ -79.617073, 40.683533 ], [ -79.618151, 40.686526 ], [ -79.617416, 40.688717 ], [ -79.620091, 40.691747 ], [ -79.623156, 40.691163 ], [ -79.627513, 40.68976 ], [ -79.628538, 40.689844 ], [ -79.627203, 40.690817 ], [ -79.623007, 40.692218 ], [ -79.620739, 40.692515 ], [ -79.621814, 40.693583 ], [ -79.63182, 40.691319 ], [ -79.63809, 40.690602 ], [ -79.64086, 40.691113 ], [ -79.648222, 40.694825 ], [ -79.650976, 40.695256 ], [ -79.656769, 40.69412 ], [ -79.659065, 40.693222 ], [ -79.660955, 40.692025 ], [ -79.664031, 40.689096 ], [ -79.66585, 40.686097 ], [ -79.666557, 40.683816 ] ] ] } }
]
}
