{
"type": "FeatureCollection",
"name": "15705",
"crs": { "type": "name", "properties": { "name": "urn:ogc:def:crs:OGC:1.3:CRS84" } },
"features": [
{ "type": "Feature", "properties": { "Name": "", "Description": "" }, "geometry": { "type": "Polygon", "coordinates": [ [ [ -79.166087, 40.614259 ], [ -79.16611, 40.613853 ], [ -79.163444, 40.612155 ], [ -79.162581, 40.610054 ], [ -79.161058, 40.611926 ], [ -79.159432, 40.611152 ], [ -79.158154, 40.612572 ], [ -79.157332, 40.613476 ], [ -79.156729, 40.61414 ], [ -79.157648, 40.614578 ], [ -79.156204, 40.616311 ], [ -79.154383, 40.618562 ], [ -79.154594, 40.6206 ], [ -79.156952, 40.62048 ], [ -79.159639, 40.620535 ], [ -79.160727, 40.620547 ], [ -79.160745, 40.619895 ], [ -79.160763, 40.618414 ], [ -79.162135, 40.617725 ], [ -79.162132, 40.615987 ], [ -79.16336, 40.615333 ], [ -79.165727, 40.615341 ], [ -79.165998, 40.614926 ], [ -79.166087, 40.614259 ] ] ] } }
]
}
