{
"type": "FeatureCollection",
"name": "15720",
"crs": { "type": "name", "properties": { "name": "urn:ogc:def:crs:OGC:1.3:CRS84" } },
"features": [
{ "type": "Feature", "properties": { "Name": "", "Description": "" }, "geometry": { "type": "Polygon", "coordinates": [ [ [ -79.084628, 40.540181 ], [ -79.084551, 40.531313 ], [ -79.084324, 40.529793 ], [ -79.078354, 40.53165 ], [ -79.07424, 40.534134 ], [ -79.06833, 40.53475 ], [ -79.069017, 40.53164 ], [ -79.070663, 40.530897 ], [ -79.06864, 40.529087 ], [ -79.06812, 40.526915 ], [ -79.064551, 40.52414 ], [ -79.06363, 40.524175 ], [ -79.059457, 40.526983 ], [ -79.059281, 40.526786 ], [ -79.058662, 40.529127 ], [ -79.057597, 40.531266 ], [ -79.053927, 40.531728 ], [ -79.060127, 40.563019 ], [ -79.061494, 40.562627 ], [ -79.061955, 40.559761 ], [ -79.063213, 40.557481 ], [ -79.062277, 40.554023 ], [ -79.062521, 40.552114 ], [ -79.064808, 40.548629 ], [ -79.067646, 40.546256 ], [ -79.069148, 40.545479 ], [ -79.067492, 40.541883 ], [ -79.066888, 40.53976 ], [ -79.067613, 40.540268 ], [ -79.077317, 40.540336 ], [ -79.083278, 40.540541 ], [ -79.084628, 40.540181 ] ] ] } }
]
}
