{
"type": "FeatureCollection",
"name": "15763",
"crs": { "type": "name", "properties": { "name": "urn:ogc:def:crs:OGC:1.3:CRS84" } },
"features": [
{ "type": "Feature", "properties": { "Name": "", "Description": "" }, "geometry": { "type": "Polygon", "coordinates": [ [ [ -79.137396, 40.910626 ], [ -79.135883, 40.908157 ], [ -79.135926, 40.904976 ], [ -79.134839, 40.903107 ], [ -79.131767, 40.903524 ], [ -79.131768, 40.902588 ], [ -79.126926, 40.902424 ], [ -79.124823, 40.902916 ], [ -79.122372, 40.906014 ], [ -79.118244, 40.907863 ], [ -79.115731, 40.910406 ], [ -79.124724, 40.910571 ], [ -79.125724, 40.910561 ], [ -79.137396, 40.910626 ] ] ] } }
]
}
