{
"type": "FeatureCollection",
"name": "15831",
"crs": { "type": "name", "properties": { "name": "urn:ogc:def:crs:OGC:1.3:CRS84" } },
"features": [
{ "type": "Feature", "properties": { "Name": "", "Description": "" }, "geometry": { "type": "Polygon", "coordinates": [ [ [ -78.609453, 41.355283 ], [ -78.609957, 41.350584 ], [ -78.607788, 41.350791 ], [ -78.607149, 41.353142 ], [ -78.602821, 41.350784 ], [ -78.598287, 41.350501 ], [ -78.598528, 41.351687 ], [ -78.598811, 41.355043 ], [ -78.602964, 41.355098 ], [ -78.602931, 41.353771 ], [ -78.605119, 41.355003 ], [ -78.606267, 41.355398 ], [ -78.607053, 41.355523 ], [ -78.609453, 41.355283 ] ] ] } }
]
}
