{
"type": "FeatureCollection",
"name": "16172",
"crs": { "type": "name", "properties": { "name": "urn:ogc:def:crs:OGC:1.3:CRS84" } },
"features": [
{ "type": "Feature", "properties": { "Name": "", "Description": "" }, "geometry": { "type": "Polygon", "coordinates": [ [ [ -80.333081, 41.11986 ], [ -80.334617, 41.119124 ], [ -80.333074, 41.118667 ], [ -80.332379, 41.116459 ], [ -80.333684, 41.115944 ], [ -80.330947, 41.114449 ], [ -80.32888, 41.114983 ], [ -80.329709, 41.118146 ], [ -80.327924, 41.119349 ], [ -80.328647, 41.120067 ], [ -80.331513, 41.120202 ], [ -80.331514, 41.120645 ], [ -80.332303, 41.120635 ], [ -80.332303, 41.120201 ], [ -80.333081, 41.11986 ] ] ] } }
]
}
