{
"type": "FeatureCollection",
"name": "16220",
"crs": { "type": "name", "properties": { "name": "urn:ogc:def:crs:OGC:1.3:CRS84" } },
"features": [
{ "type": "Feature", "properties": { "Name": "", "Description": "" }, "geometry": { "type": "Polygon", "coordinates": [ [ [ -79.299911, 41.431965 ], [ -79.297646, 41.430722 ], [ -79.297068, 41.427968 ], [ -79.295162, 41.424895 ], [ -79.294518, 41.41837 ], [ -79.291328, 41.413396 ], [ -79.288404, 41.411378 ], [ -79.287092, 41.409337 ], [ -79.284775, 41.408568 ], [ -79.28138, 41.408958 ], [ -79.27916, 41.410119 ], [ -79.278099, 41.41176 ], [ -79.274574, 41.414297 ], [ -79.271713, 41.409304 ], [ -79.270774, 41.406534 ], [ -79.269233, 41.404223 ], [ -79.266807, 41.401719 ], [ -79.266197, 41.398539 ], [ -79.265892, 41.397913 ], [ -79.26313, 41.396583 ], [ -79.270045, 41.390787 ], [ -79.265594, 41.390513 ], [ -79.263847, 41.391069 ], [ -79.259727, 41.395298 ], [ -79.256103, 41.399053 ], [ -79.252998, 41.401073 ], [ -79.248535, 41.403085 ], [ -79.247055, 41.406296 ], [ -79.248657, 41.411635 ], [ -79.249336, 41.416086 ], [ -79.245506, 41.41646 ], [ -79.237343, 41.420906 ], [ -79.239182, 41.422384 ], [ -79.238281, 41.425104 ], [ -79.238227, 41.431343 ], [ -79.299911, 41.431965 ] ] ] } }
]
}
