{
"type": "FeatureCollection",
"name": "16430",
"crs": { "type": "name", "properties": { "name": "urn:ogc:def:crs:OGC:1.3:CRS84" } },
"features": [
{ "type": "Feature", "properties": { "Name": "", "Description": "" }, "geometry": { "type": "Polygon", "coordinates": [ [ [ -80.4520133015467, 41.999338449377397 ], [ -80.45175, 41.997866 ], [ -80.449895, 41.995402 ], [ -80.448075, 41.995402 ], [ -80.447283, 41.9936 ], [ -80.439659, 41.993923 ], [ -80.441656, 41.996011 ], [ -80.433731, 41.996312 ], [ -80.431727, 41.994258 ], [ -80.42474, 41.994242 ], [ -80.414854, 41.997411 ], [ -80.408629, 41.999904 ], [ -80.405099, 42.001609 ], [ -80.388497, 42.01049 ], [ -80.385811, 42.011518 ], [ -80.385949334085794, 42.019004188104802 ], [ -80.387754, 42.018257 ], [ -80.388705, 42.017485 ], [ -80.39028, 42.017396 ], [ -80.402431, 42.013114 ], [ -80.409621, 42.011392 ], [ -80.42002, 42.009648 ], [ -80.423592, 42.008096 ], [ -80.434221, 42.005366 ], [ -80.436924, 42.005609 ], [ -80.443015, 42.002716 ], [ -80.446343, 42.001767 ], [ -80.4520133015467, 41.999338449377397 ] ] ] } }
]
}
