{
"type": "FeatureCollection",
"name": "16475",
"crs": { "type": "name", "properties": { "name": "urn:ogc:def:crs:OGC:1.3:CRS84" } },
"features": [
{ "type": "Feature", "properties": { "Name": "", "Description": "" }, "geometry": { "type": "Polygon", "coordinates": [ [ [ -80.368273, 41.877794 ], [ -80.369125, 41.874114 ], [ -80.368121, 41.874052 ], [ -80.369053, 41.869751 ], [ -80.355033, 41.869427 ], [ -80.354022, 41.879351 ], [ -80.35252, 41.880638 ], [ -80.353959, 41.883438 ], [ -80.365555, 41.883286 ], [ -80.367327, 41.881979 ], [ -80.367852, 41.879629 ], [ -80.367311, 41.879602 ], [ -80.367222, 41.877808 ], [ -80.367413, 41.877656 ], [ -80.368273, 41.877794 ] ] ] } }
]
}
