{
"type": "FeatureCollection",
"name": "16654",
"crs": { "type": "name", "properties": { "name": "urn:ogc:def:crs:OGC:1.3:CRS84" } },
"features": [
{ "type": "Feature", "properties": { "Name": "", "Description": "" }, "geometry": { "type": "Polygon", "coordinates": [ [ [ -78.031043, 40.492514 ], [ -78.030297, 40.490925 ], [ -78.030624, 40.490127 ], [ -78.02722, 40.489296 ], [ -78.026236, 40.489769 ], [ -78.027026, 40.490916 ], [ -78.026175, 40.491272 ], [ -78.026895, 40.492609 ], [ -78.027102, 40.494483 ], [ -78.029191, 40.494052 ], [ -78.029603, 40.494662 ], [ -78.030584, 40.494211 ], [ -78.029773, 40.493037 ], [ -78.031043, 40.492514 ] ] ] } }
]
}
