{
"type": "FeatureCollection",
"name": "16675",
"crs": { "type": "name", "properties": { "name": "urn:ogc:def:crs:OGC:1.3:CRS84" } },
"features": [
{ "type": "Feature", "properties": { "Name": "", "Description": "" }, "geometry": { "type": "Polygon", "coordinates": [ [ [ -78.694218, 40.708146 ], [ -78.694627, 40.706958 ], [ -78.69281, 40.704209 ], [ -78.692605, 40.701558 ], [ -78.693188, 40.700013 ], [ -78.692759, 40.69924 ], [ -78.691125, 40.702166 ], [ -78.690659, 40.704855 ], [ -78.691078, 40.697425 ], [ -78.689633, 40.696145 ], [ -78.689604, 40.693282 ], [ -78.679022, 40.684983 ], [ -78.675793, 40.681148 ], [ -78.67521, 40.679278 ], [ -78.67808, 40.674079 ], [ -78.681122, 40.670657 ], [ -78.681676, 40.666843 ], [ -78.685381, 40.666728 ], [ -78.685271, 40.662991 ], [ -78.681772, 40.662043 ], [ -78.678805, 40.661656 ], [ -78.676314, 40.661778 ], [ -78.670979, 40.664299 ], [ -78.667227, 40.664201 ], [ -78.665358, 40.663502 ], [ -78.664462, 40.661802 ], [ -78.66386, 40.665211 ], [ -78.664536, 40.665862 ], [ -78.663459, 40.666784 ], [ -78.665471, 40.672969 ], [ -78.666754, 40.674022 ], [ -78.667548, 40.677536 ], [ -78.668763, 40.678274 ], [ -78.669156, 40.680852 ], [ -78.67025, 40.681961 ], [ -78.670588, 40.683863 ], [ -78.673667, 40.685545 ], [ -78.672893, 40.686644 ], [ -78.67397, 40.688038 ], [ -78.672331, 40.689735 ], [ -78.672128, 40.693091 ], [ -78.671203, 40.694368 ], [ -78.672121, 40.698269 ], [ -78.675754, 40.698765 ], [ -78.681153, 40.703283 ], [ -78.679248, 40.706616 ], [ -78.678973, 40.708093 ], [ -78.67964, 40.710918 ], [ -78.681148, 40.713639 ], [ -78.6859, 40.716645 ], [ -78.686895, 40.715835 ], [ -78.689374, 40.71678 ], [ -78.690599, 40.716618 ], [ -78.688768, 40.714692 ], [ -78.689623, 40.710405 ], [ -78.694218, 40.708146 ] ] ] } }
]
}
