{
"type": "FeatureCollection",
"name": "16684",
"crs": { "type": "name", "properties": { "name": "urn:ogc:def:crs:OGC:1.3:CRS84" } },
"features": [
{ "type": "Feature", "properties": { "Name": "", "Description": "" }, "geometry": { "type": "Polygon", "coordinates": [ [ [ -78.299419, 40.634997 ], [ -78.298933, 40.634701 ], [ -78.298479, 40.634168 ], [ -78.297269, 40.63419 ], [ -78.296376, 40.633927 ], [ -78.296174, 40.633658 ], [ -78.295439, 40.633411 ], [ -78.294452, 40.632719 ], [ -78.29386, 40.633013 ], [ -78.295816, 40.635657 ], [ -78.296467, 40.637402 ], [ -78.297022, 40.637981 ], [ -78.299094, 40.637232 ], [ -78.298012, 40.63515 ], [ -78.299419, 40.634997 ] ] ] } }
]
}
