{
"type": "FeatureCollection",
"name": "16856",
"crs": { "type": "name", "properties": { "name": "urn:ogc:def:crs:OGC:1.3:CRS84" } },
"features": [
{ "type": "Feature", "properties": { "Name": "", "Description": "" }, "geometry": { "type": "Polygon", "coordinates": [ [ [ -77.657026, 40.925705 ], [ -77.656486, 40.925207 ], [ -77.654345, 40.926959 ], [ -77.648871, 40.922813 ], [ -77.646684, 40.923831 ], [ -77.645402, 40.922529 ], [ -77.643862, 40.92331 ], [ -77.645381, 40.925499 ], [ -77.643731, 40.9259 ], [ -77.644347, 40.926743 ], [ -77.644443, 40.927936 ], [ -77.646158, 40.927228 ], [ -77.648889, 40.935231 ], [ -77.649527, 40.935806 ], [ -77.656516, 40.931489 ], [ -77.653169, 40.928972 ], [ -77.653213, 40.928854 ], [ -77.657026, 40.925705 ] ] ] } }
]
}
