{
"type": "FeatureCollection",
"name": "16864",
"crs": { "type": "name", "properties": { "name": "urn:ogc:def:crs:OGC:1.3:CRS84" } },
"features": [
{ "type": "Feature", "properties": { "Name": "", "Description": "" }, "geometry": { "type": "Polygon", "coordinates": [ [ [ -77.848679, 41.179893 ], [ -77.846983, 41.177653 ], [ -77.842941, 41.17575 ], [ -77.831844, 41.165967 ], [ -77.823675, 41.156012 ], [ -77.811021, 41.151463 ], [ -77.810134, 41.151273 ], [ -77.800495, 41.151004 ], [ -77.798994, 41.149847 ], [ -77.797166, 41.147595 ], [ -77.797804, 41.146242 ], [ -77.796212, 41.143173 ], [ -77.793276, 41.141956 ], [ -77.786519, 41.141283 ], [ -77.784618, 41.140194 ], [ -77.783916, 41.138878 ], [ -77.782121, 41.138097 ], [ -77.77991, 41.136097 ], [ -77.777517, 41.13556 ], [ -77.776565, 41.134367 ], [ -77.777127, 41.132724 ], [ -77.778821, 41.131305 ], [ -77.781528, 41.131167 ], [ -77.784679, 41.129407 ], [ -77.784178, 41.125289 ], [ -77.782327, 41.123078 ], [ -77.779038, 41.121798 ], [ -77.776114, 41.121656 ], [ -77.775837, 41.12224 ], [ -77.772609, 41.120863 ], [ -77.770796, 41.121762 ], [ -77.770635, 41.119451 ], [ -77.769207, 41.117873 ], [ -77.769069, 41.115922 ], [ -77.767177, 41.114932 ], [ -77.765005, 41.114764 ], [ -77.761165, 41.115927 ], [ -77.757777, 41.114347 ], [ -77.755628, 41.112023 ], [ -77.757718, 41.110722 ], [ -77.755184, 41.10793 ], [ -77.756907, 41.107324 ], [ -77.755787, 41.105313 ], [ -77.756309, 41.105272 ], [ -77.752008, 41.104627 ], [ -77.748418, 41.105226 ], [ -77.748473, 41.105664 ], [ -77.743686, 41.107447 ], [ -77.741852, 41.107547 ], [ -77.759338, 41.12267 ], [ -77.776813, 41.145147 ], [ -77.785338, 41.141523 ], [ -77.785531, 41.143682 ], [ -77.789563, 41.142127 ], [ -77.790009, 41.177142 ], [ -77.797615, 41.177151 ], [ -77.79856, 41.18195 ], [ -77.848679, 41.179893 ] ] ] } }
]
}
