{
"type": "FeatureCollection",
"name": "16910",
"crs": { "type": "name", "properties": { "name": "urn:ogc:def:crs:OGC:1.3:CRS84" } },
"features": [
{ "type": "Feature", "properties": { "Name": "", "Description": "" }, "geometry": { "type": "Polygon", "coordinates": [ [ [ -76.834671, 41.709344 ], [ -76.834667, 41.709103 ], [ -76.834543, 41.70279 ], [ -76.832394, 41.704569 ], [ -76.830579, 41.700111 ], [ -76.826108, 41.70456 ], [ -76.82886, 41.704948 ], [ -76.829096, 41.707253 ], [ -76.831112, 41.705591 ], [ -76.832214, 41.708178 ], [ -76.834671, 41.709344 ] ] ] } }
]
}
