{
"type": "FeatureCollection",
"name": "17014",
"crs": { "type": "name", "properties": { "name": "urn:ogc:def:crs:OGC:1.3:CRS84" } },
"features": [
{ "type": "Feature", "properties": { "Name": "", "Description": "" }, "geometry": { "type": "Polygon", "coordinates": [ [ [ -77.215183, 40.65309 ], [ -77.215669, 40.651016 ], [ -77.213212, 40.64815 ], [ -77.211398, 40.642647 ], [ -77.210517, 40.643166 ], [ -77.211771, 40.645597 ], [ -77.203844, 40.648824 ], [ -77.200737, 40.650888 ], [ -77.185974, 40.656897 ], [ -77.184566, 40.657325 ], [ -77.185415, 40.659699 ], [ -77.180058, 40.660974 ], [ -77.172877, 40.663363 ], [ -77.168028, 40.663893 ], [ -77.167996, 40.665037 ], [ -77.169765, 40.665589 ], [ -77.172694, 40.668453 ], [ -77.174528, 40.672799 ], [ -77.172812, 40.673056 ], [ -77.169124, 40.67533 ], [ -77.17377, 40.673504 ], [ -77.181576, 40.671159 ], [ -77.187021, 40.667647 ], [ -77.19076, 40.666234 ], [ -77.197777, 40.664086 ], [ -77.212251, 40.657184 ], [ -77.215183, 40.65309 ] ] ] } }
]
}
