{
"type": "FeatureCollection",
"name": "17054",
"crs": { "type": "name", "properties": { "name": "urn:ogc:def:crs:OGC:1.3:CRS84" } },
"features": [
{ "type": "Feature", "properties": { "Name": "", "Description": "" }, "geometry": { "type": "Polygon", "coordinates": [ [ [ -77.736162, 40.501435 ], [ -77.73571, 40.500275 ], [ -77.73306, 40.498566 ], [ -77.732269, 40.49651 ], [ -77.732978, 40.493745 ], [ -77.733376, 40.48804 ], [ -77.732407, 40.485387 ], [ -77.730709, 40.4857 ], [ -77.732299, 40.490936 ], [ -77.732487, 40.493103 ], [ -77.731052, 40.496623 ], [ -77.730055, 40.496247 ], [ -77.731422, 40.494078 ], [ -77.730418, 40.493515 ], [ -77.730481, 40.48923 ], [ -77.727881, 40.488755 ], [ -77.726758, 40.489803 ], [ -77.71777, 40.495386 ], [ -77.719369, 40.497951 ], [ -77.724492, 40.502745 ], [ -77.726487, 40.504048 ], [ -77.725588, 40.505018 ], [ -77.728621, 40.507088 ], [ -77.734205, 40.503791 ], [ -77.736162, 40.501435 ] ] ] } }
]
}
