{
"type": "FeatureCollection",
"name": "17303",
"crs": { "type": "name", "properties": { "name": "urn:ogc:def:crs:OGC:1.3:CRS84" } },
"features": [
{ "type": "Feature", "properties": { "Name": "", "Description": "" }, "geometry": { "type": "Polygon", "coordinates": [ [ [ -77.301929, 39.92658 ], [ -77.30232, 39.925941 ], [ -77.298659, 39.91956 ], [ -77.297501, 39.91991 ], [ -77.298617, 39.923027 ], [ -77.292357, 39.924846 ], [ -77.293898, 39.926938 ], [ -77.294157, 39.9305 ], [ -77.29453, 39.931101 ], [ -77.296238, 39.930567 ], [ -77.29771, 39.929767 ], [ -77.301929, 39.92658 ] ] ] } }
]
}
