{
"type": "FeatureCollection",
"name": "17323",
"crs": { "type": "name", "properties": { "name": "urn:ogc:def:crs:OGC:1.3:CRS84" } },
"features": [
{ "type": "Feature", "properties": { "Name": "", "Description": "" }, "geometry": { "type": "Polygon", "coordinates": [ [ [ -77.0293, 40.07642 ], [ -77.02907, 40.075235 ], [ -77.028222, 40.075316 ], [ -77.027375, 40.072325 ], [ -77.024304, 40.072806 ], [ -77.025595, 40.077795 ], [ -77.028806, 40.077843 ], [ -77.028497, 40.076531 ], [ -77.0293, 40.07642 ] ] ] } }
]
}
