{
"type": "FeatureCollection",
"name": "17342",
"crs": { "type": "name", "properties": { "name": "urn:ogc:def:crs:OGC:1.3:CRS84" } },
"features": [
{ "type": "Feature", "properties": { "Name": "", "Description": "" }, "geometry": { "type": "Polygon", "coordinates": [ [ [ -76.709875, 39.857951 ], [ -76.711879, 39.856966 ], [ -76.709292, 39.856547 ], [ -76.708215, 39.854472 ], [ -76.710076, 39.851379 ], [ -76.710465, 39.848475 ], [ -76.71067, 39.846928 ], [ -76.709656, 39.843644 ], [ -76.706482, 39.845294 ], [ -76.704376, 39.85493 ], [ -76.70684, 39.855237 ], [ -76.703086, 39.858588 ], [ -76.703016, 39.860682 ], [ -76.703981, 39.861109 ], [ -76.705883, 39.858137 ], [ -76.707811, 39.85913 ], [ -76.710736, 39.862239 ], [ -76.709875, 39.857951 ] ] ] } }
]
}
