{
"type": "FeatureCollection",
"name": "17506",
"crs": { "type": "name", "properties": { "name": "urn:ogc:def:crs:OGC:1.3:CRS84" } },
"features": [
{ "type": "Feature", "properties": { "Name": "", "Description": "" }, "geometry": { "type": "Polygon", "coordinates": [ [ [ -76.057001, 40.117005 ], [ -76.056594, 40.116396 ], [ -76.055851, 40.115346 ], [ -76.056796, 40.114955 ], [ -76.056399, 40.114354 ], [ -76.050405, 40.116827 ], [ -76.047799, 40.117626 ], [ -76.046945, 40.118038 ], [ -76.050114, 40.118958 ], [ -76.051676, 40.119281 ], [ -76.057001, 40.117005 ] ] ] } }
]
}
