{
"type": "FeatureCollection",
"name": "17504",
"crs": { "type": "name", "properties": { "name": "urn:ogc:def:crs:OGC:1.3:CRS84" } },
"features": [
{ "type": "Feature", "properties": { "Name": "", "Description": "" }, "geometry": { "type": "Polygon", "coordinates": [ [ [ -76.330421, 40.024841 ], [ -76.330828, 40.024507 ], [ -76.329475, 40.023642 ], [ -76.328807, 40.024181 ], [ -76.327576, 40.023283 ], [ -76.326272, 40.024499 ], [ -76.327481, 40.025261 ], [ -76.328149, 40.024714 ], [ -76.32945, 40.025675 ], [ -76.329894, 40.025308 ], [ -76.330421, 40.024841 ] ] ] } }
]
}
