{
"type": "FeatureCollection",
"name": "17534",
"crs": { "type": "name", "properties": { "name": "urn:ogc:def:crs:OGC:1.3:CRS84" } },
"features": [
{ "type": "Feature", "properties": { "Name": "", "Description": "" }, "geometry": { "type": "Polygon", "coordinates": [ [ [ -76.118011, 40.039601 ], [ -76.116829, 40.030219 ], [ -76.115193, 40.030562 ], [ -76.115223, 40.033965 ], [ -76.108727, 40.034478 ], [ -76.108902, 40.035832 ], [ -76.106488, 40.036241 ], [ -76.106291, 40.034706 ], [ -76.105196, 40.034799 ], [ -76.105032, 40.037744 ], [ -76.106705, 40.038106 ], [ -76.107725, 40.038349 ], [ -76.105468, 40.038589 ], [ -76.105463, 40.040204 ], [ -76.108833, 40.039833 ], [ -76.110843, 40.040926 ], [ -76.111692, 40.040848 ], [ -76.111071, 40.03884 ], [ -76.118011, 40.039601 ] ] ] } }
]
}
