{
"type": "FeatureCollection",
"name": "17720",
"crs": { "type": "name", "properties": { "name": "urn:ogc:def:crs:OGC:1.3:CRS84" } },
"features": [
{ "type": "Feature", "properties": { "Name": "", "Description": "" }, "geometry": { "type": "Polygon", "coordinates": [ [ [ -77.230264, 41.18926 ], [ -77.227595, 41.183546 ], [ -77.224179, 41.177885 ], [ -77.2241, 41.176596 ], [ -77.225294, 41.173984 ], [ -77.226858, 41.171807 ], [ -77.226787, 41.170616 ], [ -77.222997, 41.166952 ], [ -77.196024, 41.16873 ], [ -77.191389, 41.172167 ], [ -77.190289, 41.174477 ], [ -77.191825, 41.177909 ], [ -77.177409, 41.180732 ], [ -77.177447, 41.189089 ], [ -77.177475, 41.193036 ], [ -77.185201, 41.191052 ], [ -77.198586, 41.189424 ], [ -77.200401, 41.189388 ], [ -77.214812, 41.190337 ], [ -77.212549, 41.190718 ], [ -77.214527, 41.191971 ], [ -77.215984, 41.191765 ], [ -77.216735, 41.190543 ], [ -77.220598, 41.191448 ], [ -77.220247, 41.190414 ], [ -77.222243, 41.189899 ], [ -77.222659, 41.19056 ], [ -77.224901, 41.190446 ], [ -77.230264, 41.18926 ] ] ] } }
]
}
