{
"type": "FeatureCollection",
"name": "17769",
"crs": { "type": "name", "properties": { "name": "urn:ogc:def:crs:OGC:1.3:CRS84" } },
"features": [
{ "type": "Feature", "properties": { "Name": "", "Description": "" }, "geometry": { "type": "Polygon", "coordinates": [ [ [ -77.599278, 41.542271 ], [ -77.599474, 41.537244 ], [ -77.599151, 41.525226 ], [ -77.595868, 41.524903 ], [ -77.593335, 41.523633 ], [ -77.588285, 41.525527 ], [ -77.586021, 41.525015 ], [ -77.584284, 41.525249 ], [ -77.582761, 41.52658 ], [ -77.579164, 41.528401 ], [ -77.574986, 41.52822 ], [ -77.571044, 41.527664 ], [ -77.567822, 41.527558 ], [ -77.565759, 41.52615 ], [ -77.56107, 41.52375 ], [ -77.560002, 41.521849 ], [ -77.557979, 41.52072 ], [ -77.553689, 41.519044 ], [ -77.548907, 41.517878 ], [ -77.544964, 41.516057 ], [ -77.544561, 41.515352 ], [ -77.541206, 41.513398 ], [ -77.537734, 41.511868 ], [ -77.53957, 41.51061 ], [ -77.544218, 41.508803 ], [ -77.547186, 41.508353 ], [ -77.552141, 41.508622 ], [ -77.559084, 41.507172 ], [ -77.563269, 41.506756 ], [ -77.567274, 41.504967 ], [ -77.568138, 41.502098 ], [ -77.568127, 41.499658 ], [ -77.565367, 41.497123 ], [ -77.566102, 41.493781 ], [ -77.564756, 41.490707 ], [ -77.561993, 41.489937 ], [ -77.560493, 41.488989 ], [ -77.555591, 41.492476 ], [ -77.55249, 41.495388 ], [ -77.550594, 41.495887 ], [ -77.546513, 41.495759 ], [ -77.545716, 41.495513 ], [ -77.549, 41.493587 ], [ -77.547554, 41.487928 ], [ -77.548141, 41.485823 ], [ -77.543358, 41.482297 ], [ -77.540606, 41.481846 ], [ -77.537327, 41.482563 ], [ -77.534306, 41.482161 ], [ -77.528705, 41.479117 ], [ -77.52649, 41.478147 ], [ -77.522933, 41.475886 ], [ -77.516326, 41.469383 ], [ -77.511783, 41.467154 ], [ -77.506911, 41.46533 ], [ -77.505453, 41.463787 ], [ -77.503632, 41.465974 ], [ -77.50295, 41.467975 ], [ -77.502585, 41.466849 ], [ -77.506646, 41.462411 ], [ -77.508395, 41.461698 ], [ -77.51275, 41.458367 ], [ -77.518519, 41.452179 ], [ -77.51884, 41.451529 ], [ -77.518429, 41.449097 ], [ -77.519799, 41.44658 ], [ -77.518653, 41.44285 ], [ -77.517922, 41.442855 ], [ -77.516244, 41.440888 ], [ -77.511025, 41.438112 ], [ -77.510223, 41.439221 ], [ -77.508135, 41.443227 ], [ -77.489927, 41.443892 ], [ -77.490166, 41.456608 ], [ -77.428292, 41.456329 ], [ -77.42807, 41.470972 ], [ -77.429926, 41.471607 ], [ -77.431103, 41.473951 ], [ -77.432479, 41.475261 ], [ -77.436136, 41.476249 ], [ -77.439176, 41.475269 ], [ -77.441154, 41.478228 ], [ -77.442983, 41.47821 ], [ -77.442976, 41.481465 ], [ -77.438507, 41.48159 ], [ -77.434937, 41.483262 ], [ -77.430596, 41.484291 ], [ -77.429458, 41.487068 ], [ -77.426601, 41.490179 ], [ -77.43081, 41.493173 ], [ -77.430843, 41.495331 ], [ -77.428769, 41.496823 ], [ -77.4278, 41.498238 ], [ -77.429113, 41.499735 ], [ -77.428546, 41.500594 ], [ -77.422433, 41.501439 ], [ -77.42385, 41.504821 ], [ -77.423758, 41.506163 ], [ -77.425185, 41.508343 ], [ -77.428273, 41.507262 ], [ -77.427361, 41.510311 ], [ -77.428222, 41.511356 ], [ -77.432724, 41.514448 ], [ -77.43575, 41.517478 ], [ -77.43826, 41.518133 ], [ -77.441237, 41.518077 ], [ -77.443186, 41.517563 ], [ -77.446136, 41.518155 ], [ -77.446711, 41.513978 ], [ -77.451019, 41.509554 ], [ -77.454219, 41.507393 ], [ -77.45963, 41.505092 ], [ -77.462035, 41.504742 ], [ -77.474645, 41.503995 ], [ -77.476828, 41.502218 ], [ -77.477714, 41.500151 ], [ -77.477508, 41.502256 ], [ -77.475027, 41.504325 ], [ -77.472304, 41.505557 ], [ -77.460613, 41.506796 ], [ -77.458633, 41.507401 ], [ -77.456437, 41.508893 ], [ -77.458819, 41.510115 ], [ -77.460369, 41.512112 ], [ -77.462262, 41.513155 ], [ -77.464819, 41.516276 ], [ -77.466889, 41.518171 ], [ -77.470354, 41.52059 ], [ -77.473264, 41.523092 ], [ -77.477231, 41.525336 ], [ -77.478302, 41.526273 ], [ -77.482466, 41.531792 ], [ -77.483815, 41.53625 ], [ -77.481156, 41.539392 ], [ -77.480177, 41.543363 ], [ -77.599278, 41.542271 ] ] ] } }
]
}
