{
"type": "FeatureCollection",
"name": "17858",
"crs": { "type": "name", "properties": { "name": "urn:ogc:def:crs:OGC:1.3:CRS84" } },
"features": [
{ "type": "Feature", "properties": { "Name": "", "Description": "" }, "geometry": { "type": "Polygon", "coordinates": [ [ [ -76.435169, 40.842945 ], [ -76.434583, 40.839748 ], [ -76.421905, 40.840001 ], [ -76.421932, 40.841166 ], [ -76.411567, 40.841389 ], [ -76.411585, 40.842948 ], [ -76.412086, 40.845549 ], [ -76.415757, 40.845403 ], [ -76.417129, 40.844821 ], [ -76.424999, 40.84386 ], [ -76.431389, 40.843586 ], [ -76.435169, 40.842945 ] ] ] } }
]
}
