{
"type": "FeatureCollection",
"name": "18065",
"crs": { "type": "name", "properties": { "name": "urn:ogc:def:crs:OGC:1.3:CRS84" } },
"features": [
{ "type": "Feature", "properties": { "Name": "", "Description": "" }, "geometry": { "type": "Polygon", "coordinates": [ [ [ -75.620475, 40.705975 ], [ -75.61777, 40.704498 ], [ -75.615879, 40.702687 ], [ -75.614853, 40.70071 ], [ -75.614319, 40.697987 ], [ -75.613349, 40.698042 ], [ -75.610762, 40.6984 ], [ -75.610076, 40.698441 ], [ -75.609332, 40.698416 ], [ -75.609353, 40.691864 ], [ -75.608657, 40.690844 ], [ -75.605177, 40.693301 ], [ -75.605805, 40.696092 ], [ -75.607662, 40.697803 ], [ -75.607365, 40.698875 ], [ -75.609001, 40.699141 ], [ -75.609312, 40.698942 ], [ -75.609862, 40.69985 ], [ -75.613707, 40.702443 ], [ -75.615374, 40.704253 ], [ -75.617267, 40.705576 ], [ -75.620475, 40.705975 ] ] ] } }
]
}
