{
"type": "FeatureCollection",
"name": "18440",
"crs": { "type": "name", "properties": { "name": "urn:ogc:def:crs:OGC:1.3:CRS84" } },
"features": [
{ "type": "Feature", "properties": { "Name": "", "Description": "" }, "geometry": { "type": "Polygon", "coordinates": [ [ [ -75.774102, 41.56082 ], [ -75.772124, 41.561008 ], [ -75.772503, 41.558732 ], [ -75.773542, 41.557191 ], [ -75.770294, 41.557957 ], [ -75.768861, 41.555576 ], [ -75.76622, 41.555307 ], [ -75.764975, 41.555998 ], [ -75.763785, 41.554645 ], [ -75.760715, 41.556092 ], [ -75.756882, 41.556838 ], [ -75.755209, 41.556522 ], [ -75.755098, 41.55657 ], [ -75.755067, 41.556584 ], [ -75.759307, 41.561307 ], [ -75.76301, 41.563121 ], [ -75.767998, 41.563537 ], [ -75.770454, 41.563181 ], [ -75.774102, 41.56082 ] ] ] } }
]
}
