{
"type": "FeatureCollection",
"name": "18820",
"crs": { "type": "name", "properties": { "name": "urn:ogc:def:crs:OGC:1.3:CRS84" } },
"features": [
{ "type": "Feature", "properties": { "Name": "", "Description": "" }, "geometry": { "type": "Polygon", "coordinates": [ [ [ -75.657741, 41.794599 ], [ -75.655403, 41.753005 ], [ -75.65416, 41.75528 ], [ -75.65103, 41.75788 ], [ -75.64192, 41.76761 ], [ -75.6417, 41.76889 ], [ -75.64077, 41.76916 ], [ -75.64228, 41.77436 ], [ -75.64148, 41.77504 ], [ -75.64163, 41.77825 ], [ -75.6432, 41.78281 ], [ -75.64478, 41.78621 ], [ -75.64777, 41.79103 ], [ -75.64878, 41.79462 ], [ -75.64697, 41.79861 ], [ -75.6448, 41.80114 ], [ -75.64428, 41.8033 ], [ -75.6408, 41.80466 ], [ -75.64204, 41.80635 ], [ -75.6431, 41.80487 ], [ -75.64581, 41.80288 ], [ -75.645002, 41.803183 ], [ -75.646275, 41.80101 ], [ -75.653124, 41.796801 ], [ -75.654694, 41.797065 ], [ -75.657741, 41.794599 ] ] ] } }
]
}
