{
"type": "FeatureCollection",
"name": "18927",
"crs": { "type": "name", "properties": { "name": "urn:ogc:def:crs:OGC:1.3:CRS84" } },
"features": [
{ "type": "Feature", "properties": { "Name": "", "Description": "" }, "geometry": { "type": "Polygon", "coordinates": [ [ [ -75.255936, 40.316519 ], [ -75.255404, 40.314667 ], [ -75.252088, 40.312698 ], [ -75.252855, 40.311596 ], [ -75.251904, 40.311023 ], [ -75.250809, 40.31213 ], [ -75.245993, 40.317035 ], [ -75.243273, 40.316189 ], [ -75.237883, 40.31854 ], [ -75.237075, 40.319838 ], [ -75.239569, 40.321464 ], [ -75.240077, 40.322922 ], [ -75.235705, 40.327191 ], [ -75.237514, 40.329968 ], [ -75.238945, 40.329102 ], [ -75.237916, 40.328273 ], [ -75.238978, 40.327168 ], [ -75.24606, 40.323232 ], [ -75.244381, 40.322035 ], [ -75.245723, 40.321002 ], [ -75.24472, 40.320415 ], [ -75.246469, 40.318513 ], [ -75.247931, 40.319462 ], [ -75.251657, 40.317284 ], [ -75.252364, 40.318495 ], [ -75.25462, 40.317835 ], [ -75.255936, 40.316519 ] ] ] } }
]
}
