{
"type": "FeatureCollection",
"name": "18921",
"crs": { "type": "name", "properties": { "name": "urn:ogc:def:crs:OGC:1.3:CRS84" } },
"features": [
{ "type": "Feature", "properties": { "Name": "", "Description": "" }, "geometry": { "type": "Polygon", "coordinates": [ [ [ -75.181447, 40.532874 ], [ -75.183627, 40.529906 ], [ -75.179377, 40.527636 ], [ -75.178126, 40.528742 ], [ -75.176201, 40.527483 ], [ -75.174764, 40.524411 ], [ -75.172327, 40.525874 ], [ -75.170581, 40.524035 ], [ -75.16998, 40.524439 ], [ -75.163603, 40.528715 ], [ -75.166043, 40.531421 ], [ -75.169206, 40.530115 ], [ -75.171347, 40.532296 ], [ -75.174698, 40.529604 ], [ -75.176723, 40.532396 ], [ -75.173661, 40.533098 ], [ -75.174989, 40.535261 ], [ -75.176759, 40.535133 ], [ -75.179163, 40.533764 ], [ -75.181447, 40.532874 ] ] ] } }
]
}
