{
"type": "FeatureCollection",
"name": "18933",
"crs": { "type": "name", "properties": { "name": "urn:ogc:def:crs:OGC:1.3:CRS84" } },
"features": [
{ "type": "Feature", "properties": { "Name": "", "Description": "" }, "geometry": { "type": "Polygon", "coordinates": [ [ [ -75.055332, 40.394936 ], [ -75.057728, 40.392778 ], [ -75.055191, 40.393695 ], [ -75.053315, 40.394381 ], [ -75.047307, 40.40177 ], [ -75.047083, 40.400892 ], [ -75.043396, 40.3986 ], [ -75.04149, 40.400509 ], [ -75.038962, 40.40178 ], [ -75.036582, 40.399534 ], [ -75.039375, 40.397315 ], [ -75.037358, 40.396576 ], [ -75.03546, 40.397712 ], [ -75.033639, 40.399991 ], [ -75.030237, 40.40296 ], [ -75.025497, 40.402645 ], [ -75.022411, 40.402773 ], [ -75.0226987100814, 40.403937464573602 ], [ -75.024775, 40.403455 ], [ -75.028315, 40.403883 ], [ -75.034427, 40.406066 ], [ -75.035504, 40.407443 ], [ -75.041160188392993, 40.410552520776399 ], [ -75.043109, 40.408976 ], [ -75.05608, 40.398903 ], [ -75.053466, 40.3983 ], [ -75.056407, 40.396998 ], [ -75.055332, 40.394936 ] ] ] } }
]
}
