{
"type": "FeatureCollection",
"name": "18946",
"crs": { "type": "name", "properties": { "name": "urn:ogc:def:crs:OGC:1.3:CRS84" } },
"features": [
{ "type": "Feature", "properties": { "Name": "", "Description": "" }, "geometry": { "type": "Polygon", "coordinates": [ [ [ -75.021306, 40.290665 ], [ -75.022384, 40.287334 ], [ -75.021248, 40.286023 ], [ -75.019482, 40.281899 ], [ -75.019295, 40.281957 ], [ -75.018259, 40.282967 ], [ -75.015075, 40.281859 ], [ -75.004501, 40.281327 ], [ -75.001285, 40.28012 ], [ -74.997906, 40.280775 ], [ -74.993726, 40.280734 ], [ -74.999368, 40.287249 ], [ -75.001984, 40.289297 ], [ -75.003411, 40.292273 ], [ -75.005226, 40.29484 ], [ -74.998653, 40.295948 ], [ -74.999166, 40.29753 ], [ -75.003676, 40.297489 ], [ -75.005817, 40.295503 ], [ -75.008913, 40.297055 ], [ -75.013852, 40.301109 ], [ -75.016462, 40.299856 ], [ -75.018891, 40.297745 ], [ -75.019832, 40.295382 ], [ -75.019568, 40.293767 ], [ -75.021306, 40.290665 ] ] ] } }
]
}
