{
"type": "FeatureCollection",
"name": "19052",
"crs": { "type": "name", "properties": { "name": "urn:ogc:def:crs:OGC:1.3:CRS84" } },
"features": [
{ "type": "Feature", "properties": { "Name": "", "Description": "" }, "geometry": { "type": "Polygon", "coordinates": [ [ [ -75.449984, 39.901184 ], [ -75.452895, 39.897026 ], [ -75.449925, 39.894778 ], [ -75.448111, 39.894102 ], [ -75.443877, 39.893944 ], [ -75.436342, 39.896675 ], [ -75.437364, 39.899613 ], [ -75.439694, 39.899084 ], [ -75.441936, 39.896734 ], [ -75.443197, 39.899215 ], [ -75.449, 39.900992 ], [ -75.449984, 39.901184 ] ] ] } }
]
}
