{
"type": "FeatureCollection",
"name": "19369",
"crs": { "type": "name", "properties": { "name": "urn:ogc:def:crs:OGC:1.3:CRS84" } },
"features": [
{ "type": "Feature", "properties": { "Name": "", "Description": "" }, "geometry": { "type": "Polygon", "coordinates": [ [ [ -75.897166, 39.979473 ], [ -75.897565, 39.978426 ], [ -75.893301, 39.97913 ], [ -75.892951, 39.979994 ], [ -75.894565, 39.979982 ], [ -75.895242, 39.979838 ], [ -75.895575, 39.980495 ], [ -75.894345, 39.980673 ], [ -75.892967, 39.980606 ], [ -75.892417, 39.980151 ], [ -75.892028, 39.979482 ], [ -75.892637, 39.981413 ], [ -75.892653, 39.982989 ], [ -75.89567, 39.98275 ], [ -75.89699, 39.981695 ], [ -75.897166, 39.979473 ] ] ] } }
]
}
