{
"type": "FeatureCollection",
"name": "19490",
"crs": { "type": "name", "properties": { "name": "urn:ogc:def:crs:OGC:1.3:CRS84" } },
"features": [
{ "type": "Feature", "properties": { "Name": "", "Description": "" }, "geometry": { "type": "Polygon", "coordinates": [ [ [ -75.362107, 40.196067 ], [ -75.364028, 40.194157 ], [ -75.35433, 40.188597 ], [ -75.353782, 40.189354 ], [ -75.351043, 40.187813 ], [ -75.346593, 40.192137 ], [ -75.345315, 40.193197 ], [ -75.349617, 40.195887 ], [ -75.347737, 40.199603 ], [ -75.347263, 40.200209 ], [ -75.34468, 40.198803 ], [ -75.340591, 40.197752 ], [ -75.341957, 40.198758 ], [ -75.3465, 40.201226 ], [ -75.34869, 40.202445 ], [ -75.353758, 40.205939 ], [ -75.356069, 40.204402 ], [ -75.359347, 40.203135 ], [ -75.360421, 40.201193 ], [ -75.360345, 40.198838 ], [ -75.362069, 40.197644 ], [ -75.362107, 40.196067 ] ] ] } }
]
}
