{
"type": "FeatureCollection",
"name": "19516",
"crs": { "type": "name", "properties": { "name": "urn:ogc:def:crs:OGC:1.3:CRS84" } },
"features": [
{ "type": "Feature", "properties": { "Name": "", "Description": "" }, "geometry": { "type": "Polygon", "coordinates": [ [ [ -76.00998, 40.488989 ], [ -76.009795, 40.486373 ], [ -76.009043, 40.48578 ], [ -76.00762, 40.486039 ], [ -76.005427, 40.484506 ], [ -76.004508, 40.485159 ], [ -76.002435, 40.483516 ], [ -76.00207, 40.489393 ], [ -76.004138, 40.489617 ], [ -76.004589, 40.489494 ], [ -76.00545, 40.48713 ], [ -76.007248, 40.487025 ], [ -76.00745, 40.487531 ], [ -76.008138, 40.487376 ], [ -76.008643, 40.488711 ], [ -76.00998, 40.488989 ] ] ] } }
]
}
