{
"type": "FeatureCollection",
"name": "19980",
"crs": { "type": "name", "properties": { "name": "urn:ogc:def:crs:OGC:1.3:CRS84" } },
"features": [
{ "type": "Feature", "properties": { "Name": "", "Description": "" }, "geometry": { "type": "Polygon", "coordinates": [ [ [ -75.575113, 39.077496 ], [ -75.574604, 39.074671 ], [ -75.573524, 39.073912 ], [ -75.572565, 39.071969 ], [ -75.572125, 39.071042 ], [ -75.574705, 39.070557 ], [ -75.571593, 39.068364 ], [ -75.569137, 39.068853 ], [ -75.566602, 39.069332 ], [ -75.564339, 39.0703 ], [ -75.563102, 39.072724 ], [ -75.568892, 39.071644 ], [ -75.568792, 39.072692 ], [ -75.568602, 39.072729 ], [ -75.567775, 39.079555 ], [ -75.570928, 39.079267 ], [ -75.571999, 39.077258 ], [ -75.575113, 39.077496 ] ] ] } }
]
}
