{
"type": "FeatureCollection",
"name": "20059",
"crs": { "type": "name", "properties": { "name": "urn:ogc:def:crs:OGC:1.3:CRS84" } },
"features": [
{ "type": "Feature", "properties": { "Name": "", "Description": "" }, "geometry": { "type": "Polygon", "coordinates": [ [ [ -77.022612, 38.924806 ], [ -77.022523, 38.924183 ], [ -77.021912, 38.919894 ], [ -77.021899, 38.918991 ], [ -77.019093, 38.919254 ], [ -77.017872, 38.91937 ], [ -77.018027, 38.920361 ], [ -77.016816, 38.920477 ], [ -77.0172, 38.922542 ], [ -77.016998, 38.922706 ], [ -77.017731, 38.922962 ], [ -77.018347, 38.922735 ], [ -77.018245, 38.923517 ], [ -77.020412, 38.926995 ], [ -77.02045, 38.927534 ], [ -77.021278, 38.92746 ], [ -77.021207, 38.926919 ], [ -77.021339, 38.924991 ], [ -77.022612, 38.924806 ] ] ] } }
]
}
