{
"type": "FeatureCollection",
"name": "20250",
"crs": { "type": "name", "properties": { "name": "urn:ogc:def:crs:OGC:1.3:CRS84" } },
"features": [
{ "type": "Feature", "properties": { "Name": "", "Description": "" }, "geometry": { "type": "Polygon", "coordinates": [ [ [ -77.033447, 38.887766 ], [ -77.033712, 38.884351 ], [ -77.033247, 38.884021 ], [ -77.032594, 38.882788 ], [ -77.03219, 38.883454 ], [ -77.032083, 38.883798 ], [ -77.031951, 38.884977 ], [ -77.031953, 38.887288 ], [ -77.031986, 38.887582 ], [ -77.033447, 38.887766 ] ] ] } }
]
}
