{
"type": "FeatureCollection",
"name": "20388",
"crs": { "type": "name", "properties": { "name": "urn:ogc:def:crs:OGC:1.3:CRS84" } },
"features": [
{ "type": "Feature", "properties": { "Name": "", "Description": "" }, "geometry": { "type": "Polygon", "coordinates": [ [ [ -76.998981, 38.87275 ], [ -76.999542, 38.870485 ], [ -76.99246, 38.870129 ], [ -76.990102, 38.871349 ], [ -76.990931, 38.87248 ], [ -76.991293, 38.873298 ], [ -76.993777, 38.873763 ], [ -76.997744, 38.872873 ], [ -76.998981, 38.87275 ] ] ] } }
]
}
