{
"type": "FeatureCollection",
"name": "20656",
"crs": { "type": "name", "properties": { "name": "urn:ogc:def:crs:OGC:1.3:CRS84" } },
"features": [
{ "type": "Feature", "properties": { "Name": "", "Description": "" }, "geometry": { "type": "Polygon", "coordinates": [ [ [ -76.693005, 38.337301 ], [ -76.692651, 38.337146 ], [ -76.681299, 38.334423 ], [ -76.676582, 38.331486 ], [ -76.675926, 38.335589 ], [ -76.673847, 38.335913 ], [ -76.671594, 38.338766 ], [ -76.670297, 38.338405 ], [ -76.668397, 38.341892 ], [ -76.668635, 38.344687 ], [ -76.669515, 38.345153 ], [ -76.671938, 38.344667 ], [ -76.673528, 38.343744 ], [ -76.673708, 38.342389 ], [ -76.675707, 38.342169 ], [ -76.675676, 38.34387 ], [ -76.677402, 38.344215 ], [ -76.682041, 38.342726 ], [ -76.685135, 38.343111 ], [ -76.687034, 38.342441 ], [ -76.684928, 38.339151 ], [ -76.693005, 38.337301 ] ] ] } }
]
}
