{
"type": "FeatureCollection",
"name": "20661",
"crs": { "type": "name", "properties": { "name": "urn:ogc:def:crs:OGC:1.3:CRS84" } },
"features": [
{ "type": "Feature", "properties": { "Name": "", "Description": "" }, "geometry": { "type": "Polygon", "coordinates": [ [ [ -76.849564, 38.264233 ], [ -76.849684, 38.263916 ], [ -76.849518, 38.263685 ], [ -76.848613, 38.262804 ], [ -76.847873, 38.262999 ], [ -76.847846, 38.263378 ], [ -76.846229, 38.264143 ], [ -76.842088, 38.26395 ], [ -76.840452835244903, 38.264474981805201 ], [ -76.839557377265606, 38.265986217188399 ], [ -76.840708, 38.266668 ], [ -76.842265, 38.265608 ], [ -76.849448, 38.265165 ], [ -76.849445, 38.26488 ], [ -76.849564, 38.264233 ] ] ] } }
]
}
