{
"type": "FeatureCollection",
"name": "20771",
"crs": { "type": "name", "properties": { "name": "urn:ogc:def:crs:OGC:1.3:CRS84" } },
"features": [
{ "type": "Feature", "properties": { "Name": "", "Description": "" }, "geometry": { "type": "Polygon", "coordinates": [ [ [ -76.863121, 39.007224 ], [ -76.863841, 39.005465 ], [ -76.863053, 39.004703 ], [ -76.86312, 38.991672 ], [ -76.860196, 38.991494 ], [ -76.858382, 38.991406 ], [ -76.855462, 38.99123 ], [ -76.852858, 38.991043 ], [ -76.851247, 38.990803 ], [ -76.850011, 38.990701 ], [ -76.84293, 38.992134 ], [ -76.846127, 38.996941 ], [ -76.847821, 39.000003 ], [ -76.849964, 39.005091 ], [ -76.851422, 39.010483 ], [ -76.851227, 39.013489 ], [ -76.849925, 39.016366 ], [ -76.858523, 39.019895 ], [ -76.860493, 39.014601 ], [ -76.863121, 39.007224 ] ] ] } }
]
}
