{
"type": "FeatureCollection",
"name": "20889",
"crs": { "type": "name", "properties": { "name": "urn:ogc:def:crs:OGC:1.3:CRS84" } },
"features": [
{ "type": "Feature", "properties": { "Name": "", "Description": "" }, "geometry": { "type": "Polygon", "coordinates": [ [ [ -77.097372, 39.004544 ], [ -77.096584, 38.996895 ], [ -77.091033, 38.997203 ], [ -77.088108, 38.998873 ], [ -77.087959, 38.998928 ], [ -77.083322, 39.000136 ], [ -77.083466, 39.005483 ], [ -77.08542, 39.006537 ], [ -77.08746, 39.00766 ], [ -77.090406, 39.005243 ], [ -77.097372, 39.004544 ] ] ] } }
]
}
