{
"type": "FeatureCollection",
"name": "20894",
"crs": { "type": "name", "properties": { "name": "urn:ogc:def:crs:OGC:1.3:CRS84" } },
"features": [
{ "type": "Feature", "properties": { "Name": "", "Description": "" }, "geometry": { "type": "Polygon", "coordinates": [ [ [ -77.108757, 38.998218 ], [ -77.108598, 38.996968 ], [ -77.105155, 38.99673 ], [ -77.105178, 38.993587 ], [ -77.09931, 38.993758 ], [ -77.097402, 38.993889 ], [ -77.096738, 38.996887 ], [ -77.0998, 38.996845 ], [ -77.10086, 38.997817 ], [ -77.103668, 38.997619 ], [ -77.103744, 38.998424 ], [ -77.106613, 38.998168 ], [ -77.108757, 38.998218 ] ] ] } }
]
}
