{
"type": "FeatureCollection",
"name": "20892",
"crs": { "type": "name", "properties": { "name": "urn:ogc:def:crs:OGC:1.3:CRS84" } },
"features": [
{ "type": "Feature", "properties": { "Name": "", "Description": "" }, "geometry": { "type": "Polygon", "coordinates": [ [ [ -77.106887, 39.002635 ], [ -77.10691, 39.000225 ], [ -77.106613, 38.998168 ], [ -77.103744, 38.998424 ], [ -77.103668, 38.997619 ], [ -77.10086, 38.997817 ], [ -77.101007, 38.999647 ], [ -77.10041, 39.000991 ], [ -77.100631, 39.002792 ], [ -77.102696, 39.00295 ], [ -77.10391, 39.003436 ], [ -77.105036, 39.003421 ], [ -77.106887, 39.002635 ] ] ] } }
]
}
