{
"type": "FeatureCollection",
"name": "21023",
"crs": { "type": "name", "properties": { "name": "urn:ogc:def:crs:OGC:1.3:CRS84" } },
"features": [
{ "type": "Feature", "properties": { "Name": "", "Description": "" }, "geometry": { "type": "Polygon", "coordinates": [ [ [ -76.754851, 39.522703 ], [ -76.754012, 39.521138 ], [ -76.751955, 39.513333 ], [ -76.749503, 39.513554 ], [ -76.743884, 39.512285 ], [ -76.741986, 39.513329 ], [ -76.741425, 39.513793 ], [ -76.741321, 39.517256 ], [ -76.740772, 39.518535 ], [ -76.739683, 39.518641 ], [ -76.737992, 39.520269 ], [ -76.736318, 39.520489 ], [ -76.733559, 39.522769 ], [ -76.733904, 39.523855 ], [ -76.732674, 39.524701 ], [ -76.729724, 39.524354 ], [ -76.728403, 39.525072 ], [ -76.727219, 39.526748 ], [ -76.724516, 39.528688 ], [ -76.727228, 39.533939 ], [ -76.7251, 39.53404 ], [ -76.726584, 39.53529 ], [ -76.72648, 39.536778 ], [ -76.727688, 39.537923 ], [ -76.730243, 39.538372 ], [ -76.732307, 39.541297 ], [ -76.734422, 39.542329 ], [ -76.735569, 39.541988 ], [ -76.733048, 39.541565 ], [ -76.730682, 39.538327 ], [ -76.729085, 39.537442 ], [ -76.728103, 39.535529 ], [ -76.730048, 39.534665 ], [ -76.734356, 39.531195 ], [ -76.740569, 39.527965 ], [ -76.750637, 39.523162 ], [ -76.754851, 39.522703 ] ] ] } }
]
}
