{
"type": "FeatureCollection",
"name": "21285",
"crs": { "type": "name", "properties": { "name": "urn:ogc:def:crs:OGC:1.3:CRS84" } },
"features": [
{ "type": "Feature", "properties": { "Name": "", "Description": "" }, "geometry": { "type": "Polygon", "coordinates": [ [ [ -76.624251, 39.386351 ], [ -76.620557, 39.386147 ], [ -76.620636, 39.382975 ], [ -76.61709, 39.386205 ], [ -76.614063, 39.384974 ], [ -76.61279, 39.384805 ], [ -76.611055, 39.383471 ], [ -76.613257, 39.388087 ], [ -76.613572, 39.391337 ], [ -76.619722, 39.390096 ], [ -76.619279, 39.389237 ], [ -76.624251, 39.386351 ] ] ] } }
]
}
