{
"type": "FeatureCollection",
"name": "21560",
"crs": { "type": "name", "properties": { "name": "urn:ogc:def:crs:OGC:1.3:CRS84" } },
"features": [
{ "type": "Feature", "properties": { "Name": "", "Description": "" }, "geometry": { "type": "Polygon", "coordinates": [ [ [ -78.716001, 39.567476 ], [ -78.719064, 39.564959 ], [ -78.712948, 39.564531 ], [ -78.710438, 39.562387 ], [ -78.69787, 39.557288 ], [ -78.696807, 39.559146 ], [ -78.697141, 39.561387 ], [ -78.696042, 39.562151 ], [ -78.696914, 39.564147 ], [ -78.697794, 39.564403 ], [ -78.701993, 39.566496 ], [ -78.705396, 39.567743 ], [ -78.70686, 39.567997 ], [ -78.7076, 39.567853 ], [ -78.70664, 39.568508 ], [ -78.705228, 39.571549 ], [ -78.705651, 39.572485 ], [ -78.707946, 39.573841 ], [ -78.709975, 39.572455 ], [ -78.710903, 39.570933 ], [ -78.716001, 39.567476 ] ] ] } }
]
}
