{
"type": "FeatureCollection",
"name": "21715",
"crs": { "type": "name", "properties": { "name": "urn:ogc:def:crs:OGC:1.3:CRS84" } },
"features": [
{ "type": "Feature", "properties": { "Name": "", "Description": "" }, "geometry": { "type": "Polygon", "coordinates": [ [ [ -77.66497, 39.37664 ], [ -77.66692, 39.3724 ], [ -77.664486, 39.376493 ], [ -77.658358, 39.373658 ], [ -77.655486, 39.379817 ], [ -77.657815, 39.380685 ], [ -77.656913, 39.382357 ], [ -77.658855, 39.383108 ], [ -77.659206, 39.384659 ], [ -77.66352, 39.38145 ], [ -77.66646, 39.37749 ], [ -77.66497, 39.37664 ] ] ] } }
]
}
