{
"type": "FeatureCollection",
"name": "22472",
"crs": { "type": "name", "properties": { "name": "urn:ogc:def:crs:OGC:1.3:CRS84" } },
"features": [
{ "type": "Feature", "properties": { "Name": "", "Description": "" }, "geometry": { "type": "Polygon", "coordinates": [ [ [ -76.678336, 37.959632 ], [ -76.676254, 37.958174 ], [ -76.67495, 37.955435 ], [ -76.670639, 37.954356 ], [ -76.668554, 37.954749 ], [ -76.665886, 37.957587 ], [ -76.670636, 37.96021 ], [ -76.670561, 37.9624 ], [ -76.674053, 37.964526 ], [ -76.676138, 37.963338 ], [ -76.678336, 37.959632 ] ] ] } }
]
}
