{
"type": "FeatureCollection",
"name": "22725",
"crs": { "type": "name", "properties": { "name": "urn:ogc:def:crs:OGC:1.3:CRS84" } },
"features": [
{ "type": "Feature", "properties": { "Name": "", "Description": "" }, "geometry": { "type": "Polygon", "coordinates": [ [ [ -78.16142, 38.436998 ], [ -78.162118, 38.433624 ], [ -78.160958, 38.432827 ], [ -78.153949, 38.435532 ], [ -78.151293, 38.436059 ], [ -78.142067, 38.436869 ], [ -78.140064, 38.437363 ], [ -78.141454, 38.441048 ], [ -78.143487, 38.444645 ], [ -78.145032, 38.446188 ], [ -78.146816, 38.442373 ], [ -78.149273, 38.442083 ], [ -78.151177, 38.445169 ], [ -78.152957, 38.445598 ], [ -78.154254, 38.447563 ], [ -78.155475, 38.447932 ], [ -78.159104, 38.446628 ], [ -78.160393, 38.44557 ], [ -78.160221, 38.444752 ], [ -78.161554, 38.441078 ], [ -78.16142, 38.436998 ] ] ] } }
]
}
