{
"type": "FeatureCollection",
"name": "22746",
"crs": { "type": "name", "properties": { "name": "urn:ogc:def:crs:OGC:1.3:CRS84" } },
"features": [
{ "type": "Feature", "properties": { "Name": "", "Description": "" }, "geometry": { "type": "Polygon", "coordinates": [ [ [ -78.047467, 38.624093 ], [ -78.047551, 38.624039 ], [ -78.044458, 38.619374 ], [ -78.040379, 38.618226 ], [ -78.039338, 38.616096 ], [ -78.036491, 38.613855 ], [ -78.033413, 38.613377 ], [ -78.032496, 38.613942 ], [ -78.032852, 38.616912 ], [ -78.032389, 38.618262 ], [ -78.033333, 38.619113 ], [ -78.033633, 38.621452 ], [ -78.0265, 38.627019 ], [ -78.024856, 38.626629 ], [ -78.022737, 38.623435 ], [ -78.019598, 38.620617 ], [ -78.016004, 38.617789 ], [ -78.011645, 38.616837 ], [ -78.007663, 38.61829 ], [ -78.005467, 38.617833 ], [ -78.001495, 38.622447 ], [ -78.002402, 38.625412 ], [ -78.00191, 38.626462 ], [ -78.004531, 38.628492 ], [ -78.004583, 38.629176 ], [ -78.002077, 38.631566 ], [ -77.996594, 38.634774 ], [ -77.997352, 38.636517 ], [ -78.001538, 38.641502 ], [ -78.005021, 38.64139 ], [ -78.011403, 38.643691 ], [ -78.012435, 38.642538 ], [ -78.015524, 38.644344 ], [ -78.04053, 38.628355 ], [ -78.047467, 38.624093 ] ] ] } }
]
}
