{
"type": "FeatureCollection",
"name": "22957",
"crs": { "type": "name", "properties": { "name": "urn:ogc:def:crs:OGC:1.3:CRS84" } },
"features": [
{ "type": "Feature", "properties": { "Name": "", "Description": "" }, "geometry": { "type": "Polygon", "coordinates": [ [ [ -78.207079, 38.229061 ], [ -78.208958, 38.226272 ], [ -78.20593, 38.224911 ], [ -78.202478, 38.224461 ], [ -78.199952, 38.223747 ], [ -78.198008, 38.220672 ], [ -78.189414, 38.222062 ], [ -78.187275, 38.22254 ], [ -78.176659, 38.228791 ], [ -78.17749, 38.232196 ], [ -78.175679, 38.236132 ], [ -78.180781, 38.237179 ], [ -78.18699, 38.238075 ], [ -78.189013, 38.237463 ], [ -78.197918, 38.237675 ], [ -78.198815, 38.237393 ], [ -78.197113, 38.236649 ], [ -78.197155, 38.235578 ], [ -78.200712, 38.235627 ], [ -78.204345, 38.232218 ], [ -78.207031, 38.231487 ], [ -78.208325, 38.22967 ], [ -78.207079, 38.229061 ] ] ] } }
]
}
