{
"type": "FeatureCollection",
"name": "23081",
"crs": { "type": "name", "properties": { "name": "urn:ogc:def:crs:OGC:1.3:CRS84" } },
"features": [
{ "type": "Feature", "properties": { "Name": "", "Description": "" }, "geometry": { "type": "Polygon", "coordinates": [ [ [ -76.788879560098593, 37.222601906498198 ], [ -76.787783, 37.220859 ], [ -76.786288, 37.220839 ], [ -76.785268, 37.217595 ], [ -76.780532, 37.209336 ], [ -76.773752, 37.206061 ], [ -76.766255, 37.199307 ], [ -76.764422, 37.198881 ], [ -76.760352, 37.193989 ], [ -76.757765, 37.191658 ], [ -76.75047, 37.190098 ], [ -76.74304, 37.192611 ], [ -76.74, 37.195379 ], [ -76.740654, 37.198313 ], [ -76.73792, 37.201058 ], [ -76.735674, 37.202106 ], [ -76.734995, 37.203161 ], [ -76.738158, 37.206358 ], [ -76.743506, 37.206642 ], [ -76.745883, 37.207778 ], [ -76.751349, 37.209198 ], [ -76.751587, 37.210807 ], [ -76.755627, 37.210996 ], [ -76.758361, 37.211564 ], [ -76.759787, 37.212416 ], [ -76.759668, 37.214403 ], [ -76.758242, 37.215539 ], [ -76.753369, 37.215066 ], [ -76.74814, 37.215066 ], [ -76.744255076809907, 37.213799758776602 ], [ -76.744230039186803, 37.213791598082302 ], [ -76.743888, 37.214841 ], [ -76.750284, 37.21654 ], [ -76.757887, 37.217238 ], [ -76.767308, 37.220143 ], [ -76.772803, 37.221358 ], [ -76.777972, 37.223728 ], [ -76.7826, 37.224355 ], [ -76.781315, 37.226214 ], [ -76.782697, 37.227786 ], [ -76.784217, 37.226816 ], [ -76.788879560098593, 37.222601906498198 ] ] ] } }
]
}
