{
"type": "FeatureCollection",
"name": "23147",
"crs": { "type": "name", "properties": { "name": "urn:ogc:def:crs:OGC:1.3:CRS84" } },
"features": [
{ "type": "Feature", "properties": { "Name": "", "Description": "" }, "geometry": { "type": "Polygon", "coordinates": [ [ [ -77.042918, 37.369957 ], [ -77.042101, 37.369307 ], [ -77.041107, 37.367415 ], [ -77.037781, 37.368722 ], [ -77.035748, 37.369989 ], [ -77.036425, 37.370767 ], [ -77.036788, 37.372141 ], [ -77.038798, 37.370943 ], [ -77.039881, 37.370492 ], [ -77.041429, 37.370089 ], [ -77.042918, 37.369957 ] ] ] } }
]
}
