{
"type": "FeatureCollection",
"name": "23284",
"crs": { "type": "name", "properties": { "name": "urn:ogc:def:crs:OGC:1.3:CRS84" } },
"features": [
{ "type": "Feature", "properties": { "Name": "", "Description": "" }, "geometry": { "type": "MultiPolygon", "coordinates": [ [ [ [ -77.454569, 37.554544 ], [ -77.455433, 37.553626 ], [ -77.452365, 37.551784 ], [ -77.450713, 37.550806 ], [ -77.450484, 37.552091 ], [ -77.453549, 37.55392 ], [ -77.454569, 37.554544 ] ] ], [ [ [ -77.45528, 37.545595 ], [ -77.456398, 37.543551 ], [ -77.452841, 37.543631 ], [ -77.452839, 37.544502 ], [ -77.44892, 37.544404 ], [ -77.447817, 37.543755 ], [ -77.446994, 37.544617 ], [ -77.448885, 37.545741 ], [ -77.451565, 37.545828 ], [ -77.452827, 37.545838 ], [ -77.452826, 37.547172 ], [ -77.449855, 37.54903 ], [ -77.453925, 37.550127 ], [ -77.455099, 37.548887 ], [ -77.455306, 37.547192 ], [ -77.45528, 37.545595 ] ] ] ] } }
]
}
