{
"type": "FeatureCollection",
"name": "23298",
"crs": { "type": "name", "properties": { "name": "urn:ogc:def:crs:OGC:1.3:CRS84" } },
"features": [
{ "type": "Feature", "properties": { "Name": "", "Description": "" }, "geometry": { "type": "Polygon", "coordinates": [ [ [ -77.43024, 37.543122 ], [ -77.432921, 37.540305 ], [ -77.42852, 37.537573 ], [ -77.428473, 37.537546 ], [ -77.427193, 37.5392 ], [ -77.427107, 37.541511 ], [ -77.427176, 37.54169 ], [ -77.428303, 37.544446 ], [ -77.429625, 37.546225 ], [ -77.432144, 37.544078 ], [ -77.43024, 37.543122 ] ] ] } }
]
}
