{
"type": "FeatureCollection",
"name": "23667",
"crs": { "type": "name", "properties": { "name": "urn:ogc:def:crs:OGC:1.3:CRS84" } },
"features": [
{ "type": "Feature", "properties": { "Name": "", "Description": "" }, "geometry": { "type": "Polygon", "coordinates": [ [ [ -76.335617, 37.023798 ], [ -76.336353, 37.022445 ], [ -76.334994, 37.021075 ], [ -76.330844, 37.022498 ], [ -76.32989, 37.019474 ], [ -76.332863, 37.018652 ], [ -76.330758, 37.018461 ], [ -76.328519, 37.015616 ], [ -76.327345, 37.016443 ], [ -76.327982, 37.017981 ], [ -76.328199, 37.021166 ], [ -76.328805, 37.022536 ], [ -76.329529, 37.023559 ], [ -76.331366, 37.024141 ], [ -76.33378, 37.023258 ], [ -76.335617, 37.023798 ] ] ] } }
]
}
