{
"type": "FeatureCollection",
"name": "23668",
"crs": { "type": "name", "properties": { "name": "urn:ogc:def:crs:OGC:1.3:CRS84" } },
"features": [
{ "type": "Feature", "properties": { "Name": "", "Description": "" }, "geometry": { "type": "Polygon", "coordinates": [ [ [ -76.341788, 37.020799 ], [ -76.340843, 37.020617 ], [ -76.339169, 37.018965 ], [ -76.338059, 37.01943 ], [ -76.337016, 37.017957 ], [ -76.335875, 37.018113 ], [ -76.336715, 37.020041 ], [ -76.335903, 37.020533 ], [ -76.337738, 37.022034 ], [ -76.340592, 37.021761 ], [ -76.341788, 37.020799 ] ] ] } }
]
}
