{
"type": "FeatureCollection",
"name": "23681",
"crs": { "type": "name", "properties": { "name": "urn:ogc:def:crs:OGC:1.3:CRS84" } },
"features": [
{ "type": "Feature", "properties": { "Name": "", "Description": "" }, "geometry": { "type": "Polygon", "coordinates": [ [ [ -76.393401, 37.108321 ], [ -76.393948, 37.106154 ], [ -76.392796, 37.094165 ], [ -76.392259, 37.09354 ], [ -76.38801, 37.092034 ], [ -76.385745, 37.090578 ], [ -76.382416, 37.086598 ], [ -76.3819, 37.085075 ], [ -76.381205, 37.085352 ], [ -76.379625, 37.080267 ], [ -76.379614, 37.080195 ], [ -76.379583, 37.079997 ], [ -76.375675, 37.080442 ], [ -76.374155, 37.083874 ], [ -76.376276, 37.08636 ], [ -76.375331, 37.086848 ], [ -76.376498, 37.088204 ], [ -76.377422, 37.087722 ], [ -76.378961, 37.08947 ], [ -76.374423, 37.089593 ], [ -76.374096, 37.093758 ], [ -76.381207, 37.095712 ], [ -76.382935, 37.096424 ], [ -76.382402, 37.100798 ], [ -76.377971, 37.1015 ], [ -76.377478, 37.106926 ], [ -76.379193, 37.106987 ], [ -76.380365, 37.108141 ], [ -76.381383, 37.111939 ], [ -76.383452, 37.111979 ], [ -76.384355, 37.110259 ], [ -76.386476, 37.110105 ], [ -76.387853, 37.108564 ], [ -76.384523, 37.107755 ], [ -76.384553, 37.105167 ], [ -76.386829, 37.105155 ], [ -76.387167, 37.106518 ], [ -76.390541, 37.107062 ], [ -76.393401, 37.108321 ] ] ] } }
]
}
