{
"type": "FeatureCollection",
"name": "23870",
"crs": { "type": "name", "properties": { "name": "urn:ogc:def:crs:OGC:1.3:CRS84" } },
"features": [
{ "type": "Feature", "properties": { "Name": "", "Description": "" }, "geometry": { "type": "Polygon", "coordinates": [ [ [ -77.51625, 36.743085 ], [ -77.515848, 36.741724 ], [ -77.513449, 36.739629 ], [ -77.512932, 36.737133 ], [ -77.504886, 36.743551 ], [ -77.502138, 36.74479 ], [ -77.502707, 36.746551 ], [ -77.500797, 36.745037 ], [ -77.498803, 36.745495 ], [ -77.498362, 36.747247 ], [ -77.496328, 36.746442 ], [ -77.490082, 36.754023 ], [ -77.489153, 36.754657 ], [ -77.480944, 36.765119 ], [ -77.480211, 36.765267 ], [ -77.48011, 36.765736 ], [ -77.487981, 36.764225 ], [ -77.493728, 36.762688 ], [ -77.49968, 36.760146 ], [ -77.504485, 36.757198 ], [ -77.508266, 36.754082 ], [ -77.511182, 36.750932 ], [ -77.513624, 36.747469 ], [ -77.51625, 36.743085 ] ] ] } }
]
}
