{
"type": "FeatureCollection",
"name": "23955",
"crs": { "type": "name", "properties": { "name": "urn:ogc:def:crs:OGC:1.3:CRS84" } },
"features": [
{ "type": "Feature", "properties": { "Name": "", "Description": "" }, "geometry": { "type": "Polygon", "coordinates": [ [ [ -78.080279, 37.12069 ], [ -78.081093, 37.119407 ], [ -78.079445, 37.11913 ], [ -78.077731, 37.11746 ], [ -78.077931, 37.116384 ], [ -78.076102, 37.113159 ], [ -78.07256, 37.111466 ], [ -78.071817, 37.108972 ], [ -78.067647, 37.109293 ], [ -78.066733, 37.107737 ], [ -78.066819, 37.105014 ], [ -78.064734, 37.105105 ], [ -78.062963, 37.104373 ], [ -78.062793, 37.100827 ], [ -78.061765, 37.096503 ], [ -78.062422, 37.094307 ], [ -78.058783, 37.090739 ], [ -78.058816, 37.089861 ], [ -78.055897, 37.088176 ], [ -78.053194, 37.09242 ], [ -78.053578, 37.095781 ], [ -78.050916, 37.0978 ], [ -78.052589, 37.102839 ], [ -78.057889, 37.10554 ], [ -78.068797, 37.115058 ], [ -78.074137, 37.119717 ], [ -78.072968, 37.121713 ], [ -78.073065, 37.123452 ], [ -78.071961, 37.125969 ], [ -78.078237, 37.129111 ], [ -78.079304, 37.130031 ], [ -78.07956, 37.129835 ], [ -78.080015, 37.124846 ], [ -78.080279, 37.12069 ] ] ] } }
]
}
