{
"type": "FeatureCollection",
"name": "24061",
"crs": { "type": "name", "properties": { "name": "urn:ogc:def:crs:OGC:1.3:CRS84" } },
"features": [
{ "type": "Feature", "properties": { "Name": "", "Description": "" }, "geometry": { "type": "Polygon", "coordinates": [ [ [ -80.44053, 37.226792 ], [ -80.439342, 37.222407 ], [ -80.437959, 37.219945 ], [ -80.435195, 37.216654 ], [ -80.434709, 37.217057 ], [ -80.433645, 37.219177 ], [ -80.432844, 37.219896 ], [ -80.429845, 37.224214 ], [ -80.428981, 37.223826 ], [ -80.426327, 37.223561 ], [ -80.426372, 37.223981 ], [ -80.424881, 37.224897 ], [ -80.424052, 37.223569 ], [ -80.422832, 37.220957 ], [ -80.426469, 37.220307 ], [ -80.423704, 37.216269 ], [ -80.423522, 37.216327 ], [ -80.41916, 37.217342 ], [ -80.415703, 37.217021 ], [ -80.415108, 37.217183 ], [ -80.414944, 37.21884 ], [ -80.416099, 37.223916 ], [ -80.417043, 37.224833 ], [ -80.415718, 37.225747 ], [ -80.416803, 37.226779 ], [ -80.41626, 37.227791 ], [ -80.414761, 37.228784 ], [ -80.415522, 37.229448 ], [ -80.416794, 37.229725 ], [ -80.415354, 37.230662 ], [ -80.415981, 37.231448 ], [ -80.416351, 37.231865 ], [ -80.417716, 37.232925 ], [ -80.419532, 37.23233 ], [ -80.419921, 37.232491 ], [ -80.423658, 37.233611 ], [ -80.425026, 37.233312 ], [ -80.428459, 37.231622 ], [ -80.428839, 37.2315 ], [ -80.430249, 37.231315 ], [ -80.433751, 37.231565 ], [ -80.43777, 37.229497 ], [ -80.44053, 37.226792 ] ] ] } }
]
}
