{
"type": "FeatureCollection",
"name": "24327",
"crs": { "type": "name", "properties": { "name": "urn:ogc:def:crs:OGC:1.3:CRS84" } },
"features": [
{ "type": "Feature", "properties": { "Name": "", "Description": "" }, "geometry": { "type": "Polygon", "coordinates": [ [ [ -81.836291, 36.772738 ], [ -81.836296, 36.772132 ], [ -81.834736, 36.769676 ], [ -81.83396, 36.768035 ], [ -81.828531, 36.769539 ], [ -81.827095, 36.771411 ], [ -81.828127, 36.772529 ], [ -81.826706, 36.77304 ], [ -81.822424, 36.772954 ], [ -81.822482, 36.774995 ], [ -81.826507, 36.775148 ], [ -81.825863, 36.779939 ], [ -81.826582, 36.78105 ], [ -81.828622, 36.781262 ], [ -81.828757, 36.78036 ], [ -81.828759, 36.775343 ], [ -81.8319, 36.775135 ], [ -81.835135, 36.773598 ], [ -81.836291, 36.772738 ] ] ] } }
]
}
