{
"type": "FeatureCollection",
"name": "24469",
"crs": { "type": "name", "properties": { "name": "urn:ogc:def:crs:OGC:1.3:CRS84" } },
"features": [
{ "type": "Feature", "properties": { "Name": "", "Description": "" }, "geometry": { "type": "Polygon", "coordinates": [ [ [ -78.911495, 38.203521 ], [ -78.912972, 38.201499 ], [ -78.91126, 38.199948 ], [ -78.90641, 38.197501 ], [ -78.905637, 38.198159 ], [ -78.904367, 38.200458 ], [ -78.904631, 38.201905 ], [ -78.908479, 38.204172 ], [ -78.909947, 38.202998 ], [ -78.911495, 38.203521 ] ] ] } }
]
}
