{
"type": "FeatureCollection",
"name": "24515",
"crs": { "type": "name", "properties": { "name": "urn:ogc:def:crs:OGC:1.3:CRS84" } },
"features": [
{ "type": "Feature", "properties": { "Name": "", "Description": "" }, "geometry": { "type": "Polygon", "coordinates": [ [ [ -79.187511, 37.342726 ], [ -79.18714, 37.342624 ], [ -79.186757, 37.343108 ], [ -79.184888, 37.342093 ], [ -79.184298, 37.342122 ], [ -79.181949, 37.342218 ], [ -79.179978, 37.342702 ], [ -79.177886, 37.345803 ], [ -79.174297, 37.349329 ], [ -79.172261, 37.350503 ], [ -79.174075, 37.352293 ], [ -79.174599, 37.352698 ], [ -79.170637, 37.357939 ], [ -79.171914, 37.358988 ], [ -79.171448, 37.363773 ], [ -79.17266, 37.363664 ], [ -79.173758, 37.36543 ], [ -79.177467, 37.361614 ], [ -79.178914, 37.359784 ], [ -79.184048, 37.349704 ], [ -79.187511, 37.342726 ] ] ] } }
]
}
