{
"type": "FeatureCollection",
"name": "24739",
"crs": { "type": "name", "properties": { "name": "urn:ogc:def:crs:OGC:1.3:CRS84" } },
"features": [
{ "type": "Feature", "properties": { "Name": "", "Description": "" }, "geometry": { "type": "Polygon", "coordinates": [ [ [ -81.192437, 37.359431 ], [ -81.198466, 37.355719 ], [ -81.183625, 37.354757 ], [ -81.186032, 37.347064 ], [ -81.184623, 37.3459 ], [ -81.177251, 37.348599 ], [ -81.175629, 37.347191 ], [ -81.172635, 37.343623 ], [ -81.17242, 37.341099 ], [ -81.171067, 37.341556 ], [ -81.171018, 37.340212 ], [ -81.173823, 37.338504 ], [ -81.169314, 37.339539 ], [ -81.167361, 37.338534 ], [ -81.171713, 37.335227 ], [ -81.173716, 37.334336 ], [ -81.172921, 37.333359 ], [ -81.171388, 37.334209 ], [ -81.168464, 37.334033 ], [ -81.166825, 37.333188 ], [ -81.16577, 37.331044 ], [ -81.162024, 37.331243 ], [ -81.148498, 37.318449 ], [ -81.147005, 37.317593 ], [ -81.144782, 37.317789 ], [ -81.142357, 37.316116 ], [ -81.141143, 37.317217 ], [ -81.138472, 37.315261 ], [ -81.13734, 37.31644 ], [ -81.135831, 37.315799 ], [ -81.135965, 37.315518 ], [ -81.137338, 37.313141 ], [ -81.119465, 37.30905 ], [ -81.097777, 37.312367 ], [ -81.0972, 37.307498 ], [ -81.093965, 37.307915 ], [ -81.091511, 37.306808 ], [ -81.088133, 37.307292 ], [ -81.083364, 37.308342 ], [ -81.080592, 37.308511 ], [ -81.070444, 37.310143 ], [ -81.062595, 37.312761 ], [ -81.060237, 37.313375 ], [ -81.063062, 37.311612 ], [ -81.070123, 37.309718 ], [ -81.074763, 37.308786 ], [ -81.088747, 37.306826 ], [ -81.090978, 37.306087 ], [ -81.092115, 37.305027 ], [ -81.093071, 37.302738 ], [ -81.092001, 37.302176 ], [ -81.085872, 37.30124 ], [ -81.076367, 37.300823 ], [ -81.071317, 37.302774 ], [ -81.069971, 37.302728 ], [ -81.065415, 37.305087 ], [ -81.06446, 37.306932 ], [ -81.061197, 37.308646 ], [ -81.055948, 37.310144 ], [ -81.054996, 37.311106 ], [ -81.054008, 37.314041 ], [ -81.050824, 37.312747 ], [ -81.050909, 37.309731 ], [ -81.04971, 37.309589 ], [ -81.049705, 37.306686 ], [ -81.048899, 37.302802 ], [ -81.049869, 37.301517 ], [ -81.05189, 37.300921 ], [ -81.053613, 37.297343 ], [ -81.05355, 37.29298 ], [ -81.052847002183299, 37.288294877474399 ], [ -81.037191, 37.290251 ], [ -81.021937, 37.294143 ], [ -81.008457, 37.296073 ], [ -81.000576, 37.297868 ], [ -80.996013, 37.299545 ], [ -80.979589, 37.302279 ], [ -80.979106, 37.300581 ], [ -80.982173, 37.296023 ], [ -80.981322, 37.293465 ], [ -80.980146, 37.292743 ], [ -80.974416863612603, 37.291553588434198 ], [ -80.973889, 37.291444 ], [ -80.966556, 37.292158 ], [ -80.947896, 37.295872 ], [ -80.938135, 37.300278 ], [ -80.931118, 37.302872 ], [ -80.92704, 37.303683 ], [ -80.919259, 37.306163 ], [ -80.900535, 37.315 ], [ -80.880103, 37.328903 ], [ -80.868986, 37.338573 ], [ -80.865321, 37.340523 ], [ -80.849451, 37.346909 ], [ -80.855690621170197, 37.353744391727197 ], [ -80.858828615235097, 37.3571820072629 ], [ -80.866934780317806, 37.366062163963903 ], [ -80.868941682589707, 37.368260688972498 ], [ -80.876558219407002, 37.3766044667966 ], [ -80.883248, 37.383933 ], [ -80.862761, 37.411829 ], [ -80.864455, 37.41418 ], [ -80.865174, 37.416996 ], [ -80.865148, 37.419927 ], [ -80.863142, 37.424644 ], [ -80.859563112819998, 37.429558233260998 ], [ -80.861644, 37.430664 ], [ -80.862385, 37.431475 ], [ -80.881143, 37.444385 ], [ -80.883492, 37.446279 ], [ -80.902635, 37.458941 ], [ -80.904896, 37.459029 ], [ -80.903941, 37.459884 ], [ -80.904895, 37.460414 ], [ -80.907866, 37.460064 ], [ -80.908494, 37.457987 ], [ -80.909949, 37.457207 ], [ -80.911232, 37.455229 ], [ -80.911142, 37.45413 ], [ -80.909227, 37.45291 ], [ -80.908442, 37.450887 ], [ -80.909193, 37.449843 ], [ -80.909002, 37.446497 ], [ -80.909505, 37.445195 ], [ -80.91169, 37.444519 ], [ -80.914813, 37.441404 ], [ -80.920583, 37.437639 ], [ -80.921068, 37.434652 ], [ -80.921859, 37.432981 ], [ -80.922492, 37.428082 ], [ -80.923792, 37.426576 ], [ -80.923047, 37.428738 ], [ -80.923409, 37.429733 ], [ -80.927676, 37.425471 ], [ -80.929428, 37.430113 ], [ -80.930464, 37.430981 ], [ -80.931587, 37.430738 ], [ -80.932543, 37.432263 ], [ -80.935255, 37.434928 ], [ -80.936677, 37.435503 ], [ -80.937658, 37.437001 ], [ -80.938934, 37.437493 ], [ -80.93869, 37.438461 ], [ -80.94145, 37.438379 ], [ -80.942086, 37.438863 ], [ -80.94068, 37.441279 ], [ -80.94319, 37.443226 ], [ -80.944614, 37.445266 ], [ -80.945003, 37.446879 ], [ -80.946296, 37.444973 ], [ -80.951609, 37.441422 ], [ -80.954984, 37.441018 ], [ -80.960023, 37.43707 ], [ -80.963446, 37.436368 ], [ -80.9664, 37.437204 ], [ -80.971855, 37.44115 ], [ -80.974124, 37.441618 ], [ -80.974712, 37.442384 ], [ -80.978999, 37.44078 ], [ -80.990282, 37.440981 ], [ -80.994904, 37.442417 ], [ -80.997605, 37.439818 ], [ -80.998434, 37.43665 ], [ -81.000651, 37.435546 ], [ -80.998257, 37.43434 ], [ -80.996932, 37.428261 ], [ -80.995648, 37.427172 ], [ -80.994476, 37.427504 ], [ -80.996348, 37.425635 ], [ -80.99921, 37.424442 ], [ -81.003339, 37.424457 ], [ -81.003576, 37.423151 ], [ -81.006952, 37.42265 ], [ -81.006732, 37.422411 ], [ -81.00554, 37.420079 ], [ -81.006702, 37.419489 ], [ -81.007931, 37.42119 ], [ -81.01155, 37.418585 ], [ -81.014148, 37.41836 ], [ -81.013973, 37.416848 ], [ -81.015253, 37.416605 ], [ -81.016389, 37.416858 ], [ -81.0171, 37.41978 ], [ -81.021161, 37.422211 ], [ -81.020222, 37.423678 ], [ -81.021947, 37.423611 ], [ -81.023007, 37.424884 ], [ -81.023529, 37.426962 ], [ -81.018594, 37.426394 ], [ -81.020871, 37.427716 ], [ -81.019991, 37.428438 ], [ -81.018769, 37.428379 ], [ -81.01747, 37.429899 ], [ -81.01619, 37.429095 ], [ -81.016629, 37.4278 ], [ -81.014593, 37.427529 ], [ -81.013619, 37.426141 ], [ -81.011455, 37.427833 ], [ -81.009086, 37.432202 ], [ -81.004596, 37.43649 ], [ -81.006268, 37.436985 ], [ -81.006639, 37.438315 ], [ -81.007789, 37.438854 ], [ -81.00754, 37.440701 ], [ -81.009276, 37.442059 ], [ -81.010763, 37.444625 ], [ -81.012954, 37.445538 ], [ -81.014145, 37.446808 ], [ -81.01746, 37.447853 ], [ -81.018403, 37.4487 ], [ -81.02218, 37.449493 ], [ -81.0236, 37.448383 ], [ -81.025027, 37.448329 ], [ -81.02615, 37.449532 ], [ -81.031987, 37.449221 ], [ -81.034895, 37.451507 ], [ -81.037417, 37.452524 ], [ -81.039148, 37.452123 ], [ -81.040436, 37.453173 ], [ -81.042056, 37.452619 ], [ -81.042745, 37.453542 ], [ -81.046688, 37.454465 ], [ -81.051271, 37.457307 ], [ -81.051801, 37.458213 ], [ -81.054297, 37.459488 ], [ -81.057984, 37.459642 ], [ -81.059811, 37.458609 ], [ -81.061472, 37.460038 ], [ -81.061017, 37.461148 ], [ -81.064636, 37.462703 ], [ -81.064768, 37.464379 ], [ -81.064032, 37.464913 ], [ -81.062155, 37.464939 ], [ -81.059887, 37.467148 ], [ -81.058301, 37.469704 ], [ -81.059114, 37.474759 ], [ -81.061438, 37.477622 ], [ -81.064623, 37.476407 ], [ -81.067602, 37.477446 ], [ -81.067064, 37.479644 ], [ -81.070649, 37.478583 ], [ -81.073347, 37.479596 ], [ -81.067867, 37.473233 ], [ -81.067049, 37.47031 ], [ -81.066653, 37.463159 ], [ -81.06447, 37.460263 ], [ -81.064122, 37.459195 ], [ -81.064319, 37.454229 ], [ -81.066252, 37.446627 ], [ -81.066092, 37.444154 ], [ -81.064551, 37.441494 ], [ -81.064282, 37.439341 ], [ -81.065663, 37.43058 ], [ -81.065974, 37.425029 ], [ -81.067006, 37.424982 ], [ -81.06615, 37.418823 ], [ -81.065736, 37.416541 ], [ -81.062852, 37.410849 ], [ -81.062545, 37.407715 ], [ -81.063361, 37.403939 ], [ -81.068591, 37.405251 ], [ -81.070041, 37.403592 ], [ -81.072342, 37.403895 ], [ -81.074717, 37.398009 ], [ -81.073261, 37.396708 ], [ -81.074801, 37.394797 ], [ -81.073327, 37.392176 ], [ -81.073913, 37.390819 ], [ -81.078745, 37.391433 ], [ -81.079495, 37.385791 ], [ -81.074647, 37.383614 ], [ -81.074333, 37.382272 ], [ -81.072552, 37.38114 ], [ -81.071143, 37.381541 ], [ -81.06678, 37.383978 ], [ -81.066521, 37.385339 ], [ -81.064583, 37.386068 ], [ -81.062611, 37.388293 ], [ -81.061469, 37.393523 ], [ -81.060697, 37.393999 ], [ -81.057078, 37.388713 ], [ -81.054587, 37.386557 ], [ -81.05573, 37.385932 ], [ -81.051571, 37.382521 ], [ -81.052877, 37.381946 ], [ -81.052665, 37.379724 ], [ -81.048944, 37.380257 ], [ -81.046927, 37.378991 ], [ -81.044161, 37.378976 ], [ -81.043277, 37.375416 ], [ -81.045842, 37.369084 ], [ -81.045649, 37.368954 ], [ -81.046639, 37.365201 ], [ -81.047913, 37.363266 ], [ -81.056512, 37.362034 ], [ -81.060539, 37.361338 ], [ -81.062769, 37.361365 ], [ -81.069822, 37.36257 ], [ -81.072291, 37.362716 ], [ -81.075466, 37.36218 ], [ -81.079577, 37.360974 ], [ -81.085099, 37.360276 ], [ -81.088688, 37.359913 ], [ -81.091382, 37.360475 ], [ -81.095129, 37.358904 ], [ -81.097188, 37.358277 ], [ -81.097256, 37.358341 ], [ -81.099742, 37.357533 ], [ -81.100909, 37.357646 ], [ -81.105598, 37.359416 ], [ -81.104953, 37.356699 ], [ -81.106685, 37.355351 ], [ -81.103255, 37.355227 ], [ -81.103542, 37.354064 ], [ -81.105913, 37.354291 ], [ -81.109458, 37.353957 ], [ -81.111648, 37.352279 ], [ -81.113858, 37.35247 ], [ -81.114082, 37.350801 ], [ -81.115712, 37.349755 ], [ -81.114623, 37.348674 ], [ -81.115913, 37.347193 ], [ -81.117231, 37.349811 ], [ -81.119832, 37.348632 ], [ -81.119178, 37.34556 ], [ -81.126344, 37.343336 ], [ -81.123521, 37.346502 ], [ -81.125443, 37.34925 ], [ -81.122944, 37.351275 ], [ -81.125177, 37.353067 ], [ -81.128221, 37.353186 ], [ -81.129434, 37.357628 ], [ -81.127188, 37.359258 ], [ -81.127086, 37.36105 ], [ -81.127841, 37.361199 ], [ -81.126956, 37.361547 ], [ -81.128244, 37.361721 ], [ -81.128278, 37.361008 ], [ -81.12979, 37.360361 ], [ -81.135944, 37.360062 ], [ -81.13806, 37.358616 ], [ -81.138982, 37.358505 ], [ -81.138901, 37.362052 ], [ -81.139777, 37.363393 ], [ -81.138657, 37.365616 ], [ -81.141384, 37.367818 ], [ -81.14289, 37.372087 ], [ -81.141647, 37.374056 ], [ -81.145011, 37.372731 ], [ -81.145102, 37.373694 ], [ -81.1554, 37.371183 ], [ -81.157107, 37.371056 ], [ -81.158967, 37.374127 ], [ -81.159524, 37.374535 ], [ -81.161189, 37.374887 ], [ -81.163768, 37.374919 ], [ -81.166208, 37.371543 ], [ -81.166062, 37.370345 ], [ -81.17202, 37.367937 ], [ -81.173314, 37.366898 ], [ -81.176588, 37.365955 ], [ -81.177891, 37.366818 ], [ -81.179877, 37.366277 ], [ -81.181922, 37.364015 ], [ -81.184856, 37.363916 ], [ -81.185987, 37.362534 ], [ -81.189856, 37.361903 ], [ -81.192775, 37.360641 ], [ -81.192437, 37.359431 ] ] ] } }
]
}
