{
"type": "FeatureCollection",
"name": "24855",
"crs": { "type": "name", "properties": { "name": "urn:ogc:def:crs:OGC:1.3:CRS84" } },
"features": [
{ "type": "Feature", "properties": { "Name": "", "Description": "" }, "geometry": { "type": "Polygon", "coordinates": [ [ [ -81.426271, 37.412887 ], [ -81.426674, 37.41052 ], [ -81.425133, 37.406138 ], [ -81.421866, 37.405111 ], [ -81.42106, 37.405285 ], [ -81.423467, 37.406499 ], [ -81.424112, 37.407238 ], [ -81.425, 37.409321 ], [ -81.425434, 37.413125 ], [ -81.426518, 37.4133 ], [ -81.426271, 37.412887 ] ] ] } }
]
}
