{
"type": "FeatureCollection",
"name": "24895",
"crs": { "type": "name", "properties": { "name": "urn:ogc:def:crs:OGC:1.3:CRS84" } },
"features": [
{ "type": "Feature", "properties": { "Name": "", "Description": "" }, "geometry": { "type": "Polygon", "coordinates": [ [ [ -81.611105, 37.380748 ], [ -81.609427, 37.378624 ], [ -81.60625, 37.377477 ], [ -81.604958, 37.375714 ], [ -81.602856, 37.375585 ], [ -81.600706, 37.374595 ], [ -81.601839, 37.373552 ], [ -81.604477, 37.373562 ], [ -81.610276, 37.368114 ], [ -81.608397, 37.369263 ], [ -81.604698, 37.370684 ], [ -81.598502, 37.370251 ], [ -81.597669, 37.369656 ], [ -81.593672, 37.369377 ], [ -81.590804, 37.368702 ], [ -81.58891, 37.369196 ], [ -81.585992, 37.369009 ], [ -81.584626, 37.368433 ], [ -81.580644, 37.364802 ], [ -81.576765, 37.363275 ], [ -81.571374, 37.365493 ], [ -81.571504, 37.36811 ], [ -81.570158, 37.371582 ], [ -81.566774, 37.376288 ], [ -81.564366, 37.377144 ], [ -81.564459, 37.378594 ], [ -81.565761, 37.379933 ], [ -81.565716, 37.3799 ], [ -81.565702, 37.379929 ], [ -81.563891, 37.378622 ], [ -81.562109, 37.375689 ], [ -81.56114, 37.37829 ], [ -81.564624, 37.380865 ], [ -81.561553, 37.383306 ], [ -81.561282, 37.384307 ], [ -81.561948, 37.385669 ], [ -81.564674, 37.38786 ], [ -81.566247, 37.392319 ], [ -81.566998, 37.391912 ], [ -81.57183, 37.389092 ], [ -81.597872, 37.38061 ], [ -81.598877, 37.380199 ], [ -81.60209, 37.379928 ], [ -81.611105, 37.380748 ] ] ] } }
]
}
