{
"type": "FeatureCollection",
"name": "24943",
"crs": { "type": "name", "properties": { "name": "urn:ogc:def:crs:OGC:1.3:CRS84" } },
"features": [
{ "type": "Feature", "properties": { "Name": "", "Description": "" }, "geometry": { "type": "Polygon", "coordinates": [ [ [ -80.755647, 37.838465 ], [ -80.751409, 37.835849 ], [ -80.732028, 37.819861 ], [ -80.731677, 37.820738 ], [ -80.730487, 37.824381 ], [ -80.728212, 37.827426 ], [ -80.726974, 37.828803 ], [ -80.726361, 37.82874 ], [ -80.722464, 37.827047 ], [ -80.715795, 37.825601 ], [ -80.711959, 37.829612 ], [ -80.711305, 37.832075 ], [ -80.707776, 37.831233 ], [ -80.70572, 37.832944 ], [ -80.70263, 37.836515 ], [ -80.705383, 37.837811 ], [ -80.708007, 37.838487 ], [ -80.707271, 37.840211 ], [ -80.712961, 37.840064 ], [ -80.715803, 37.839176 ], [ -80.716911, 37.839814 ], [ -80.717493, 37.841753 ], [ -80.71457, 37.84459 ], [ -80.714156, 37.84844 ], [ -80.713346, 37.848248 ], [ -80.712827, 37.851634 ], [ -80.713624, 37.852226 ], [ -80.712758, 37.853524 ], [ -80.714484, 37.853605 ], [ -80.712697, 37.855847 ], [ -80.714402, 37.856852 ], [ -80.715725, 37.8556 ], [ -80.721037, 37.848587 ], [ -80.72519, 37.849073 ], [ -80.731466, 37.8427 ], [ -80.740632, 37.84112 ], [ -80.74334, 37.840293 ], [ -80.745324, 37.840292 ], [ -80.750412, 37.839517 ], [ -80.755647, 37.838465 ] ] ] } }
]
}
