{
"type": "FeatureCollection",
"name": "24985",
"crs": { "type": "name", "properties": { "name": "urn:ogc:def:crs:OGC:1.3:CRS84" } },
"features": [
{ "type": "Feature", "properties": { "Name": "", "Description": "" }, "geometry": { "type": "Polygon", "coordinates": [ [ [ -80.788334, 37.579775 ], [ -80.786733, 37.579071 ], [ -80.78346, 37.579751 ], [ -80.781455, 37.580921 ], [ -80.779725, 37.581003 ], [ -80.775836, 37.58002 ], [ -80.773966, 37.578047 ], [ -80.77395, 37.577251 ], [ -80.771709, 37.57693 ], [ -80.771733, 37.578325 ], [ -80.770465, 37.580162 ], [ -80.769139, 37.581045 ], [ -80.761369, 37.583587 ], [ -80.761061, 37.582056 ], [ -80.760889, 37.580964 ], [ -80.756889, 37.577873 ], [ -80.755694, 37.577914 ], [ -80.748147, 37.587601 ], [ -80.742097, 37.596782 ], [ -80.739724, 37.596339 ], [ -80.738179, 37.59679 ], [ -80.736586, 37.599364 ], [ -80.731596, 37.599973 ], [ -80.723068, 37.599807 ], [ -80.722096, 37.598758 ], [ -80.723611, 37.598404 ], [ -80.724217, 37.59649 ], [ -80.723208, 37.595423 ], [ -80.721498, 37.59649 ], [ -80.721093, 37.598459 ], [ -80.717334, 37.598812 ], [ -80.715131, 37.600615 ], [ -80.713491, 37.600876 ], [ -80.710659, 37.597836 ], [ -80.709474, 37.594728 ], [ -80.705988, 37.59305 ], [ -80.702731, 37.592801 ], [ -80.702093, 37.591763 ], [ -80.699693, 37.591197 ], [ -80.701013, 37.586281 ], [ -80.699563, 37.583506 ], [ -80.691831, 37.579433 ], [ -80.688607, 37.577083 ], [ -80.688812, 37.579352 ], [ -80.689806, 37.582322 ], [ -80.688542, 37.582702 ], [ -80.684698, 37.582796 ], [ -80.681866, 37.581168 ], [ -80.679229, 37.580771 ], [ -80.675088, 37.581324 ], [ -80.672436, 37.581025 ], [ -80.672008, 37.579971 ], [ -80.670278, 37.579037 ], [ -80.667646, 37.579176 ], [ -80.666516, 37.578711 ], [ -80.664062, 37.57735 ], [ -80.662194, 37.57458 ], [ -80.659828, 37.572912 ], [ -80.65976, 37.571571 ], [ -80.658387, 37.569924 ], [ -80.656979, 37.569628 ], [ -80.654162, 37.569991 ], [ -80.652446, 37.56662 ], [ -80.650839, 37.564857 ], [ -80.651236, 37.563879 ], [ -80.648951, 37.563361 ], [ -80.646879, 37.564969 ], [ -80.647093, 37.565994 ], [ -80.645908, 37.569572 ], [ -80.644234, 37.571181 ], [ -80.644984, 37.572855 ], [ -80.644831, 37.577582 ], [ -80.644103, 37.57946 ], [ -80.650272, 37.579933 ], [ -80.650354, 37.580967 ], [ -80.652539, 37.581268 ], [ -80.653315, 37.582286 ], [ -80.656377, 37.582512 ], [ -80.657387, 37.583058 ], [ -80.660624, 37.583327 ], [ -80.663404, 37.586048 ], [ -80.666134, 37.585473 ], [ -80.668004, 37.586913 ], [ -80.66928, 37.587055 ], [ -80.673477, 37.591611 ], [ -80.67367, 37.593047 ], [ -80.672936, 37.591806 ], [ -80.669503, 37.590573 ], [ -80.666438, 37.588347 ], [ -80.663647, 37.58765 ], [ -80.659405, 37.58828 ], [ -80.65657, 37.588217 ], [ -80.655421, 37.589639 ], [ -80.652742, 37.587552 ], [ -80.649007, 37.586079 ], [ -80.645833, 37.585901 ], [ -80.646558, 37.588689 ], [ -80.645922, 37.589551 ], [ -80.641844, 37.591202 ], [ -80.64033, 37.592624 ], [ -80.63289, 37.598215 ], [ -80.628027, 37.601167 ], [ -80.627049, 37.602603 ], [ -80.624788, 37.60359 ], [ -80.624388, 37.605494 ], [ -80.621373, 37.60626 ], [ -80.621516, 37.608544 ], [ -80.622467, 37.607089 ], [ -80.624357, 37.607854 ], [ -80.625252, 37.610415 ], [ -80.627278, 37.613149 ], [ -80.630357, 37.614395 ], [ -80.631577, 37.616222 ], [ -80.633238, 37.616579 ], [ -80.635019, 37.618664 ], [ -80.635699, 37.620726 ], [ -80.632288, 37.623444 ], [ -80.634346, 37.626794 ], [ -80.633624, 37.629282 ], [ -80.632292, 37.6291 ], [ -80.632059, 37.631211 ], [ -80.629904, 37.631924 ], [ -80.630401, 37.633154 ], [ -80.629324, 37.633933 ], [ -80.628786, 37.63552 ], [ -80.626433, 37.637018 ], [ -80.627523, 37.64172 ], [ -80.626611, 37.64186 ], [ -80.626111, 37.64209 ], [ -80.628048, 37.642297 ], [ -80.626829, 37.637577 ], [ -80.629739, 37.635508 ], [ -80.629596, 37.634304 ], [ -80.631621, 37.63347 ], [ -80.630854, 37.632535 ], [ -80.634399, 37.631153 ], [ -80.63733, 37.629116 ], [ -80.637904, 37.627955 ], [ -80.640944, 37.628145 ], [ -80.640434, 37.62632 ], [ -80.642873, 37.623297 ], [ -80.644456, 37.622506 ], [ -80.646543, 37.620403 ], [ -80.649486, 37.621173 ], [ -80.651213, 37.621074 ], [ -80.651756, 37.622948 ], [ -80.65456, 37.624482 ], [ -80.656875, 37.627054 ], [ -80.658347, 37.628072 ], [ -80.65988, 37.630171 ], [ -80.663716, 37.63139 ], [ -80.665007, 37.632885 ], [ -80.668336, 37.633911 ], [ -80.669496, 37.633892 ], [ -80.672901, 37.636193 ], [ -80.669531, 37.631983 ], [ -80.669925, 37.629826 ], [ -80.671349, 37.629045 ], [ -80.671221, 37.627208 ], [ -80.669253, 37.625591 ], [ -80.669157, 37.624841 ], [ -80.672274, 37.621686 ], [ -80.671905, 37.620203 ], [ -80.67453, 37.619444 ], [ -80.676691, 37.618278 ], [ -80.676461, 37.61709 ], [ -80.6748, 37.61656 ], [ -80.673779, 37.614945 ], [ -80.673623, 37.613154 ], [ -80.677106, 37.612056 ], [ -80.677394, 37.610412 ], [ -80.679276, 37.608901 ], [ -80.679108, 37.608074 ], [ -80.681149, 37.605045 ], [ -80.681364, 37.603003 ], [ -80.682479, 37.60052 ], [ -80.684535, 37.597784 ], [ -80.685827, 37.596735 ], [ -80.687775, 37.594054 ], [ -80.688361, 37.592113 ], [ -80.689293, 37.592534 ], [ -80.691519, 37.595192 ], [ -80.694458, 37.595862 ], [ -80.69816, 37.5979 ], [ -80.700686, 37.601571 ], [ -80.700346, 37.604995 ], [ -80.699334, 37.607087 ], [ -80.700674, 37.610825 ], [ -80.70252, 37.613534 ], [ -80.70296, 37.615656 ], [ -80.704597, 37.617815 ], [ -80.709257, 37.618361 ], [ -80.716263, 37.616195 ], [ -80.717837, 37.615515 ], [ -80.717678, 37.614055 ], [ -80.719591, 37.612921 ], [ -80.719838, 37.611883 ], [ -80.721585, 37.610679 ], [ -80.723422, 37.608717 ], [ -80.726081, 37.607952 ], [ -80.72909, 37.606232 ], [ -80.730382, 37.605897 ], [ -80.732601, 37.606577 ], [ -80.733518, 37.605561 ], [ -80.736337, 37.604988 ], [ -80.73851, 37.60398 ], [ -80.741079, 37.603765 ], [ -80.742909, 37.604583 ], [ -80.746267, 37.603988 ], [ -80.74762, 37.60414 ], [ -80.7498, 37.606451 ], [ -80.751215, 37.607196 ], [ -80.753308, 37.607009 ], [ -80.757292, 37.608495 ], [ -80.759238, 37.610129 ], [ -80.762177, 37.611382 ], [ -80.764652, 37.610507 ], [ -80.770577, 37.612411 ], [ -80.771202, 37.61053 ], [ -80.770264, 37.609694 ], [ -80.768242, 37.60944 ], [ -80.765069, 37.608015 ], [ -80.764145, 37.606532 ], [ -80.765878, 37.604089 ], [ -80.765817, 37.602653 ], [ -80.762813, 37.601593 ], [ -80.764233, 37.599813 ], [ -80.762259, 37.597448 ], [ -80.76202, 37.596086 ], [ -80.762567, 37.593799 ], [ -80.760739, 37.591554 ], [ -80.76058, 37.590212 ], [ -80.7647, 37.590443 ], [ -80.767144, 37.591157 ], [ -80.770679, 37.59134 ], [ -80.771742, 37.593264 ], [ -80.780338, 37.599063 ], [ -80.780256, 37.596554 ], [ -80.78225, 37.59639 ], [ -80.784323, 37.595021 ], [ -80.783769, 37.583025 ], [ -80.788334, 37.579775 ] ] ] } }
]
}
