{
"type": "FeatureCollection",
"name": "24993",
"crs": { "type": "name", "properties": { "name": "urn:ogc:def:crs:OGC:1.3:CRS84" } },
"features": [
{ "type": "Feature", "properties": { "Name": "", "Description": "" }, "geometry": { "type": "Polygon", "coordinates": [ [ [ -80.648909, 37.672763 ], [ -80.648073, 37.671361 ], [ -80.647721, 37.66924 ], [ -80.648351, 37.667027 ], [ -80.648091, 37.663202 ], [ -80.647089, 37.662471 ], [ -80.646856, 37.659131 ], [ -80.6458, 37.655455 ], [ -80.645877, 37.65379 ], [ -80.647164, 37.649942 ], [ -80.648291, 37.649119 ], [ -80.646821, 37.648785 ], [ -80.645606, 37.650936 ], [ -80.640868, 37.651696 ], [ -80.634812, 37.649438 ], [ -80.630674, 37.648465 ], [ -80.628403, 37.64846 ], [ -80.627674, 37.65005 ], [ -80.624702, 37.650673 ], [ -80.624365, 37.651373 ], [ -80.619977, 37.659382 ], [ -80.620526, 37.661886 ], [ -80.621766, 37.661845 ], [ -80.624167, 37.664912 ], [ -80.61909, 37.663162 ], [ -80.61829, 37.664301 ], [ -80.614405, 37.663695 ], [ -80.617333, 37.664627 ], [ -80.621086, 37.664541 ], [ -80.623809, 37.66562 ], [ -80.628053, 37.667833 ], [ -80.629246, 37.669631 ], [ -80.630281, 37.669628 ], [ -80.632908, 37.669668 ], [ -80.631254, 37.6722 ], [ -80.634183, 37.674532 ], [ -80.636555, 37.674254 ], [ -80.638538, 37.675582 ], [ -80.639548, 37.675117 ], [ -80.638256, 37.673033 ], [ -80.638983, 37.671836 ], [ -80.642812, 37.671057 ], [ -80.645315, 37.671047 ], [ -80.646289, 37.673401 ], [ -80.648035, 37.672415 ], [ -80.648909, 37.672763 ] ] ] } }
]
}
