{
"type": "FeatureCollection",
"name": "25231",
"crs": { "type": "name", "properties": { "name": "urn:ogc:def:crs:OGC:1.3:CRS84" } },
"features": [
{ "type": "Feature", "properties": { "Name": "", "Description": "" }, "geometry": { "type": "Polygon", "coordinates": [ [ [ -81.616025, 38.625964 ], [ -81.616581, 38.624431 ], [ -81.61344, 38.621964 ], [ -81.610306, 38.620094 ], [ -81.608412, 38.616943 ], [ -81.604275, 38.613968 ], [ -81.602143, 38.609936 ], [ -81.60212, 38.608441 ], [ -81.60085, 38.605791 ], [ -81.599834, 38.605268 ], [ -81.599309, 38.602786 ], [ -81.598023, 38.60121 ], [ -81.597826, 38.598477 ], [ -81.598394, 38.596975 ], [ -81.597477, 38.59509 ], [ -81.598031, 38.592756 ], [ -81.594789, 38.589452 ], [ -81.592031, 38.588086 ], [ -81.592275, 38.585926 ], [ -81.591442, 38.585021 ], [ -81.593531, 38.583977 ], [ -81.593996183034307, 38.583352136260899 ], [ -81.594303, 38.58294 ], [ -81.59517, 38.580963 ], [ -81.597494, 38.579811 ], [ -81.598641, 38.579084 ], [ -81.593685, 38.577055 ], [ -81.590733, 38.575331 ], [ -81.58801, 38.572861 ], [ -81.578202, 38.577068 ], [ -81.565838, 38.584922 ], [ -81.569949, 38.586198 ], [ -81.57002, 38.587315 ], [ -81.572517, 38.589989 ], [ -81.573523, 38.592121 ], [ -81.575842, 38.593855 ], [ -81.578495, 38.59356 ], [ -81.578333, 38.595477 ], [ -81.579249, 38.596818 ], [ -81.580106, 38.599623 ], [ -81.581105, 38.600962 ], [ -81.585395, 38.60233 ], [ -81.585467, 38.603069 ], [ -81.583784, 38.604625 ], [ -81.584922, 38.607236 ], [ -81.583883, 38.610006 ], [ -81.581043, 38.609834 ], [ -81.579973, 38.612788 ], [ -81.578382, 38.614222 ], [ -81.579794, 38.615506 ], [ -81.579007, 38.618024 ], [ -81.580379, 38.619901 ], [ -81.585079, 38.622995 ], [ -81.585571, 38.624449 ], [ -81.592629, 38.629128 ], [ -81.593864, 38.633559 ], [ -81.594116, 38.632229 ], [ -81.597479, 38.633541 ], [ -81.601352, 38.633294 ], [ -81.605284, 38.632231 ], [ -81.607387, 38.630532 ], [ -81.608475, 38.630756 ], [ -81.612024, 38.627225 ], [ -81.616025, 38.625964 ] ] ] } }
]
}
