{
"type": "FeatureCollection",
"name": "25387",
"crs": { "type": "name", "properties": { "name": "urn:ogc:def:crs:OGC:1.3:CRS84" } },
"features": [
{ "type": "Feature", "properties": { "Name": "", "Description": "" }, "geometry": { "type": "Polygon", "coordinates": [ [ [ -81.711202, 38.376491 ], [ -81.710366, 38.375606 ], [ -81.70998, 38.375363 ], [ -81.70918, 38.374869 ], [ -81.708788, 38.374477 ], [ -81.708487, 38.374095 ], [ -81.707557, 38.372958 ], [ -81.707081, 38.37276 ], [ -81.707156, 38.372489 ], [ -81.706989, 38.371478 ], [ -81.700964, 38.37383 ], [ -81.695297, 38.374643 ], [ -81.690503, 38.374248 ], [ -81.688493, 38.373453 ], [ -81.683441, 38.372739 ], [ -81.680552, 38.372635 ], [ -81.676323, 38.370947 ], [ -81.66827, 38.366935 ], [ -81.668967, 38.366013 ], [ -81.662123, 38.36248 ], [ -81.661045, 38.36204 ], [ -81.660271, 38.363048 ], [ -81.662416, 38.364064 ], [ -81.659972, 38.367284 ], [ -81.657716, 38.3703 ], [ -81.658611, 38.370688 ], [ -81.657162, 38.372544 ], [ -81.656182, 38.373362 ], [ -81.656048, 38.3752 ], [ -81.658683, 38.376041 ], [ -81.66053, 38.37585 ], [ -81.65973, 38.376628 ], [ -81.655393, 38.377288 ], [ -81.652524, 38.375612 ], [ -81.652484, 38.378432 ], [ -81.650741, 38.379272 ], [ -81.649425, 38.377518 ], [ -81.646455, 38.377935 ], [ -81.646914, 38.378744 ], [ -81.646649, 38.379207 ], [ -81.645329, 38.382175 ], [ -81.646971, 38.383959 ], [ -81.63938, 38.385684 ], [ -81.639611, 38.387058 ], [ -81.62511, 38.3936 ], [ -81.62495, 38.394736 ], [ -81.621542, 38.397184 ], [ -81.621926, 38.398736 ], [ -81.621062, 38.400768 ], [ -81.624822, 38.401264 ], [ -81.629286, 38.405759 ], [ -81.632358, 38.405391 ], [ -81.633206, 38.404351 ], [ -81.639943, 38.402623 ], [ -81.642967, 38.400527 ], [ -81.646903, 38.400767 ], [ -81.648567, 38.402975 ], [ -81.651403, 38.401904 ], [ -81.652773, 38.402031 ], [ -81.655328, 38.399552 ], [ -81.656569, 38.399296 ], [ -81.655195, 38.396089 ], [ -81.655792, 38.393962 ], [ -81.656105, 38.3936 ], [ -81.657794, 38.392893 ], [ -81.658421, 38.392107 ], [ -81.661431, 38.392916 ], [ -81.660769, 38.390788 ], [ -81.659861, 38.389915 ], [ -81.659698, 38.390472 ], [ -81.657299, 38.387678 ], [ -81.656723, 38.385522 ], [ -81.65723, 38.384876 ], [ -81.659271, 38.383126 ], [ -81.65955, 38.382775 ], [ -81.660351, 38.381307 ], [ -81.661302, 38.37936 ], [ -81.661338, 38.379282 ], [ -81.66282, 38.376654 ], [ -81.665428, 38.375361 ], [ -81.666113, 38.375919 ], [ -81.665984, 38.376755 ], [ -81.665189, 38.376892 ], [ -81.664527, 38.377136 ], [ -81.664011, 38.377533 ], [ -81.663724, 38.377995 ], [ -81.664581, 38.378279 ], [ -81.665334, 38.378248 ], [ -81.665831, 38.378046 ], [ -81.66606, 38.378502 ], [ -81.6619, 38.37938 ], [ -81.66093, 38.383611 ], [ -81.660287, 38.383962 ], [ -81.660482, 38.385069 ], [ -81.661739, 38.387473 ], [ -81.662316, 38.3887 ], [ -81.668988, 38.393529 ], [ -81.67135, 38.394578 ], [ -81.673801, 38.396879 ], [ -81.677735, 38.394191 ], [ -81.678975, 38.3944 ], [ -81.682739, 38.393941 ], [ -81.688201, 38.390049 ], [ -81.688157, 38.388802 ], [ -81.688164, 38.385215 ], [ -81.686115, 38.383644 ], [ -81.687121, 38.382705 ], [ -81.690339, 38.383821 ], [ -81.691544, 38.387402 ], [ -81.691211, 38.388111 ], [ -81.691716, 38.38792 ], [ -81.693576, 38.386697 ], [ -81.699506, 38.384554 ], [ -81.700503, 38.382646 ], [ -81.702946, 38.381271 ], [ -81.705011, 38.378708 ], [ -81.709661, 38.378435 ], [ -81.711202, 38.376491 ] ] ] } }
]
}
