{
"type": "FeatureCollection",
"name": "25421",
"crs": { "type": "name", "properties": { "name": "urn:ogc:def:crs:OGC:1.3:CRS84" } },
"features": [
{ "type": "Feature", "properties": { "Name": "", "Description": "" }, "geometry": { "type": "Polygon", "coordinates": [ [ [ -78.180289, 39.380283 ], [ -78.181018, 39.375158 ], [ -78.173098, 39.373522 ], [ -78.173653, 39.372639 ], [ -78.172101, 39.371555 ], [ -78.169606, 39.373329 ], [ -78.162305, 39.372295 ], [ -78.16115, 39.371615 ], [ -78.159535, 39.372189 ], [ -78.15986, 39.373519 ], [ -78.156302, 39.375912 ], [ -78.154799, 39.378851 ], [ -78.153125, 39.379537 ], [ -78.151975, 39.378698 ], [ -78.147243, 39.376906 ], [ -78.143511, 39.379122 ], [ -78.143906, 39.381878 ], [ -78.144988, 39.382477 ], [ -78.146715, 39.382245 ], [ -78.149147, 39.382907 ], [ -78.155133, 39.383727 ], [ -78.157957, 39.38454 ], [ -78.157853, 39.38242 ], [ -78.15685, 39.381289 ], [ -78.159466, 39.382613 ], [ -78.160329, 39.383617 ], [ -78.16197, 39.382844 ], [ -78.162027, 39.381938 ], [ -78.164556, 39.379149 ], [ -78.170597, 39.382528 ], [ -78.173992, 39.380477 ], [ -78.176081, 39.380578 ], [ -78.17802, 39.382409 ], [ -78.179848, 39.383346 ], [ -78.180289, 39.380283 ] ] ] } }
]
}
