{
"type": "FeatureCollection",
"name": "25544",
"crs": { "type": "name", "properties": { "name": "urn:ogc:def:crs:OGC:1.3:CRS84" } },
"features": [
{ "type": "Feature", "properties": { "Name": "", "Description": "" }, "geometry": { "type": "Polygon", "coordinates": [ [ [ -82.128537, 38.238644 ], [ -82.130028, 38.23785 ], [ -82.128226, 38.235777 ], [ -82.125899, 38.235826 ], [ -82.121663, 38.233389 ], [ -82.119364, 38.233881 ], [ -82.118263, 38.231569 ], [ -82.120406, 38.22839 ], [ -82.121666, 38.227828 ], [ -82.124104, 38.229409 ], [ -82.126169, 38.228848 ], [ -82.126574, 38.227357 ], [ -82.125691, 38.226019 ], [ -82.120674, 38.224116 ], [ -82.117603, 38.224483 ], [ -82.116205, 38.226889 ], [ -82.112915, 38.222793 ], [ -82.115092, 38.220285 ], [ -82.11498, 38.218208 ], [ -82.113787, 38.216458 ], [ -82.111949, 38.216638 ], [ -82.112155, 38.212134 ], [ -82.113162, 38.209083 ], [ -82.112119, 38.208565 ], [ -82.11181, 38.209568 ], [ -82.109666, 38.212492 ], [ -82.100819, 38.214569 ], [ -82.097512, 38.213175 ], [ -82.095846, 38.213271 ], [ -82.094165, 38.216815 ], [ -82.097268, 38.219332 ], [ -82.099263, 38.222256 ], [ -82.098462, 38.224358 ], [ -82.096827, 38.225414 ], [ -82.096904, 38.227159 ], [ -82.094265, 38.227827 ], [ -82.093215, 38.229999 ], [ -82.094351, 38.229041 ], [ -82.096128, 38.22938 ], [ -82.097793, 38.233889 ], [ -82.100499, 38.234359 ], [ -82.102576, 38.235782 ], [ -82.105087, 38.236262 ], [ -82.105188, 38.239163 ], [ -82.10606, 38.240011 ], [ -82.106455, 38.242402 ], [ -82.105397, 38.244239 ], [ -82.105479, 38.245886 ], [ -82.103756, 38.247346 ], [ -82.103892, 38.249912 ], [ -82.105611, 38.25149 ], [ -82.107218, 38.249652 ], [ -82.110704, 38.249347 ], [ -82.113691, 38.249788 ], [ -82.118539, 38.25009 ], [ -82.120904, 38.249028 ], [ -82.121455, 38.247677 ], [ -82.118843, 38.247702 ], [ -82.1162, 38.245758 ], [ -82.115763, 38.243779 ], [ -82.114363, 38.24069 ], [ -82.115818, 38.239938 ], [ -82.117504, 38.240638 ], [ -82.11928, 38.240608 ], [ -82.119755, 38.241928 ], [ -82.121086, 38.242523 ], [ -82.124781, 38.241836 ], [ -82.127184, 38.240739 ], [ -82.128537, 38.238644 ] ] ] } }
]
}
