{
"type": "FeatureCollection",
"name": "25612",
"crs": { "type": "name", "properties": { "name": "urn:ogc:def:crs:OGC:1.3:CRS84" } },
"features": [
{ "type": "Feature", "properties": { "Name": "", "Description": "" }, "geometry": { "type": "Polygon", "coordinates": [ [ [ -81.990867, 37.773744 ], [ -81.99106, 37.772212 ], [ -81.988199, 37.769269 ], [ -81.988646, 37.765081 ], [ -81.988618, 37.764643 ], [ -81.990695, 37.763029 ], [ -81.984854, 37.754617 ], [ -81.979379, 37.753662 ], [ -81.970966, 37.755627 ], [ -81.973854, 37.772881 ], [ -81.990867, 37.773744 ] ] ] } }
]
}
