{
"type": "FeatureCollection",
"name": "25667",
"crs": { "type": "name", "properties": { "name": "urn:ogc:def:crs:OGC:1.3:CRS84" } },
"features": [
{ "type": "Feature", "properties": { "Name": "", "Description": "" }, "geometry": { "type": "Polygon", "coordinates": [ [ [ -82.297536921665497, 37.703494030345801 ], [ -82.296634, 37.702403 ], [ -82.296971618848204, 37.701139494440902 ], [ -82.295247, 37.700696 ], [ -82.295991, 37.699768 ], [ -82.297367, 37.698755 ], [ -82.297294, 37.698687 ], [ -82.295478, 37.696995 ], [ -82.275478, 37.699601 ], [ -82.263978, 37.693851 ], [ -82.256825, 37.694552 ], [ -82.256825, 37.700162 ], [ -82.264959, 37.701845 ], [ -82.26215, 37.708785 ], [ -82.266712, 37.707157 ], [ -82.267342, 37.7063 ], [ -82.268975, 37.704773 ], [ -82.270219, 37.703314 ], [ -82.272328, 37.703204 ], [ -82.275242, 37.704165 ], [ -82.274592, 37.704227 ], [ -82.271533, 37.704069 ], [ -82.268801, 37.705014 ], [ -82.268906, 37.705151 ], [ -82.268892, 37.7054 ], [ -82.268526, 37.705684 ], [ -82.267591, 37.706529 ], [ -82.267337, 37.706433 ], [ -82.266771, 37.70727 ], [ -82.26325, 37.708815 ], [ -82.263445, 37.711758 ], [ -82.259826, 37.716322 ], [ -82.259875, 37.71885 ], [ -82.261031, 37.718755 ], [ -82.264098, 37.71716 ], [ -82.266114, 37.719129 ], [ -82.269917, 37.720962 ], [ -82.272047, 37.720827 ], [ -82.273656, 37.720192 ], [ -82.278254, 37.716946 ], [ -82.279863, 37.714874 ], [ -82.280298, 37.713218 ], [ -82.281763, 37.711769 ], [ -82.28179, 37.705351 ], [ -82.297536921665497, 37.703494030345801 ] ] ] } }
]
}
