{
"type": "FeatureCollection",
"name": "25685",
"crs": { "type": "name", "properties": { "name": "urn:ogc:def:crs:OGC:1.3:CRS84" } },
"features": [
{ "type": "Feature", "properties": { "Name": "", "Description": "" }, "geometry": { "type": "Polygon", "coordinates": [ [ [ -82.378479140959101, 37.807958914662201 ], [ -82.378129, 37.804332 ], [ -82.376352758925293, 37.802245822982698 ], [ -82.376169, 37.80203 ], [ -82.369973, 37.801749 ], [ -82.36778, 37.800628 ], [ -82.365557, 37.798318 ], [ -82.365286, 37.796795 ], [ -82.363889, 37.795002 ], [ -82.361105, 37.794194 ], [ -82.356122, 37.793859 ], [ -82.354275, 37.793104 ], [ -82.351412698177199, 37.789968838608999 ], [ -82.348495, 37.786773 ], [ -82.340455, 37.786058 ], [ -82.339705, 37.785509 ], [ -82.338377, 37.780428 ], [ -82.339097, 37.778276 ], [ -82.338895, 37.776857 ], [ -82.337596, 37.775369 ], [ -82.335981, 37.7745 ], [ -82.332607, 37.774249 ], [ -82.32972, 37.775697 ], [ -82.32624, 37.775906 ], [ -82.323696, 37.775028 ], [ -82.323004, 37.773907 ], [ -82.323506, 37.772231 ], [ -82.331654, 37.768161 ], [ -82.334057, 37.766571 ], [ -82.333994, 37.76508 ], [ -82.331162, 37.763125 ], [ -82.32946, 37.762393 ], [ -82.327356, 37.762233 ], [ -82.319654, 37.764812 ], [ -82.315197, 37.765524 ], [ -82.312363, 37.764774 ], [ -82.310777, 37.762692 ], [ -82.311268, 37.761331 ], [ -82.303986, 37.764659 ], [ -82.299451, 37.766639 ], [ -82.29439, 37.767177 ], [ -82.29088, 37.768683 ], [ -82.289003, 37.769124 ], [ -82.286905, 37.768761 ], [ -82.283763, 37.76742 ], [ -82.28156, 37.76702 ], [ -82.275437, 37.76679 ], [ -82.271105, 37.767173 ], [ -82.264706, 37.767031 ], [ -82.263692, 37.767296 ], [ -82.259269, 37.770547 ], [ -82.255758, 37.771708 ], [ -82.253994, 37.773503 ], [ -82.253192, 37.775695 ], [ -82.251682, 37.777459 ], [ -82.249726, 37.778072 ], [ -82.247871, 37.777931 ], [ -82.248859, 37.779651 ], [ -82.252253, 37.779555 ], [ -82.253317, 37.780356 ], [ -82.253155, 37.783145 ], [ -82.254443, 37.78399 ], [ -82.257123, 37.783724 ], [ -82.261461, 37.78547 ], [ -82.262424, 37.786348 ], [ -82.26674, 37.788034 ], [ -82.268222, 37.790859 ], [ -82.270777, 37.791406 ], [ -82.275072, 37.791289 ], [ -82.279842, 37.794032 ], [ -82.285236, 37.794698 ], [ -82.286862, 37.795642 ], [ -82.288064, 37.798799 ], [ -82.291355, 37.79896 ], [ -82.295049, 37.800452 ], [ -82.297177, 37.800642 ], [ -82.301617, 37.798984 ], [ -82.303423, 37.800061 ], [ -82.304633, 37.802405 ], [ -82.307749, 37.803416 ], [ -82.312049, 37.801691 ], [ -82.314459, 37.802637 ], [ -82.315481, 37.804422 ], [ -82.318377, 37.80546 ], [ -82.324212, 37.805121 ], [ -82.327058, 37.805981 ], [ -82.33037, 37.805315 ], [ -82.334877, 37.803403 ], [ -82.335471, 37.80704 ], [ -82.334963, 37.809381 ], [ -82.331372, 37.811625 ], [ -82.329104, 37.814231 ], [ -82.326823, 37.815534 ], [ -82.325401, 37.81856 ], [ -82.321919, 37.8204 ], [ -82.318483, 37.82185 ], [ -82.316046, 37.822182 ], [ -82.3148, 37.822886 ], [ -82.313288, 37.825449 ], [ -82.311869, 37.826616 ], [ -82.310104, 37.826835 ], [ -82.305772, 37.829091 ], [ -82.302493, 37.828645 ], [ -82.301541, 37.83027 ], [ -82.303601, 37.831186 ], [ -82.303171, 37.832433 ], [ -82.301147, 37.832939 ], [ -82.300074, 37.834544 ], [ -82.298001, 37.834782 ], [ -82.295278, 37.835691 ], [ -82.29671, 37.837611 ], [ -82.296519, 37.838462 ], [ -82.294222, 37.838032 ], [ -82.293146, 37.839899 ], [ -82.291051, 37.838239 ], [ -82.290142, 37.83848 ], [ -82.290096, 37.840746 ], [ -82.28795, 37.842054 ], [ -82.291178, 37.844361 ], [ -82.292362, 37.84372 ], [ -82.294221, 37.844612 ], [ -82.296575, 37.843412 ], [ -82.296434, 37.842009 ], [ -82.301965, 37.840457 ], [ -82.311491, 37.840918 ], [ -82.313267, 37.839225 ], [ -82.314798, 37.841861 ], [ -82.317313, 37.841866 ], [ -82.31948, 37.844212 ], [ -82.321143, 37.844583 ], [ -82.322674, 37.843909 ], [ -82.322636, 37.843832 ], [ -82.325214, 37.842163 ], [ -82.324163, 37.841164 ], [ -82.324595, 37.839569 ], [ -82.327991, 37.839161 ], [ -82.327999, 37.836986 ], [ -82.327158, 37.833764 ], [ -82.32909, 37.833039 ], [ -82.331023, 37.834338 ], [ -82.332714, 37.83638 ], [ -82.335625, 37.834843 ], [ -82.338217, 37.83457 ], [ -82.337759, 37.832323 ], [ -82.34016, 37.830703 ], [ -82.340069, 37.827513 ], [ -82.341615, 37.827071 ], [ -82.346058, 37.827316 ], [ -82.345442, 37.825391 ], [ -82.34282, 37.822451 ], [ -82.346513, 37.820833 ], [ -82.34806, 37.81981 ], [ -82.348371, 37.81757 ], [ -82.350395, 37.817056 ], [ -82.350257, 37.813105 ], [ -82.351559, 37.812232 ], [ -82.3585, 37.810501 ], [ -82.362169, 37.810677 ], [ -82.363947, 37.806491 ], [ -82.364893, 37.805726 ], [ -82.368736, 37.806235 ], [ -82.371238, 37.806106 ], [ -82.372369, 37.807518 ], [ -82.374128, 37.80672 ], [ -82.378479140959101, 37.807958914662201 ] ] ] } }
]
}
