{
"type": "FeatureCollection",
"name": "25755",
"crs": { "type": "name", "properties": { "name": "urn:ogc:def:crs:OGC:1.3:CRS84" } },
"features": [
{ "type": "Feature", "properties": { "Name": "", "Description": "" }, "geometry": { "type": "Polygon", "coordinates": [ [ [ -82.432157, 38.423989 ], [ -82.431997, 38.423434 ], [ -82.431646, 38.422148 ], [ -82.431446, 38.421487 ], [ -82.425944, 38.422434 ], [ -82.423738, 38.422824 ], [ -82.425075, 38.425784 ], [ -82.426799, 38.425496 ], [ -82.429865, 38.424967 ], [ -82.429695, 38.424418 ], [ -82.432157, 38.423989 ] ] ] } }
]
}
