{
"type": "FeatureCollection",
"name": "25851",
"crs": { "type": "name", "properties": { "name": "urn:ogc:def:crs:OGC:1.3:CRS84" } },
"features": [
{ "type": "Feature", "properties": { "Name": "", "Description": "" }, "geometry": { "type": "Polygon", "coordinates": [ [ [ -81.266263, 37.804665 ], [ -81.266356, 37.802181 ], [ -81.265281, 37.799839 ], [ -81.263864, 37.798346 ], [ -81.261125, 37.798658 ], [ -81.261338, 37.79724 ], [ -81.257558, 37.80097 ], [ -81.256571, 37.803383 ], [ -81.256732, 37.804496 ], [ -81.25711, 37.805407 ], [ -81.259497, 37.804255 ], [ -81.263945, 37.804406 ], [ -81.26546, 37.80381 ], [ -81.266263, 37.804665 ] ] ] } }
]
}
