{
"type": "FeatureCollection",
"name": "25866",
"crs": { "type": "name", "properties": { "name": "urn:ogc:def:crs:OGC:1.3:CRS84" } },
"features": [
{ "type": "Feature", "properties": { "Name": "", "Description": "" }, "geometry": { "type": "Polygon", "coordinates": [ [ [ -81.175882, 38.004907 ], [ -81.175878, 38.003278 ], [ -81.174799, 38.000366 ], [ -81.174362, 37.999393 ], [ -81.171642, 37.996571 ], [ -81.168976, 37.995295 ], [ -81.168686, 37.994261 ], [ -81.166985, 37.996497 ], [ -81.164877, 38.001045 ], [ -81.162766, 38.001832 ], [ -81.163401, 38.003625 ], [ -81.162919, 38.004989 ], [ -81.160861, 38.002598 ], [ -81.160011, 38.00301 ], [ -81.156358, 37.999296 ], [ -81.152041, 37.998236 ], [ -81.145508, 37.999259 ], [ -81.146312, 38.001188 ], [ -81.146973, 38.000601 ], [ -81.147918, 38.00122 ], [ -81.148375, 38.002063 ], [ -81.154062, 38.002648 ], [ -81.144918, 38.003051 ], [ -81.144641, 38.003624 ], [ -81.144179, 38.002453 ], [ -81.143707, 38.002282 ], [ -81.140977, 38.004559 ], [ -81.138592, 38.005452 ], [ -81.139206, 38.007047 ], [ -81.143788, 38.008577 ], [ -81.144932, 38.009576 ], [ -81.145123, 38.010812 ], [ -81.138657, 38.012062 ], [ -81.137696, 38.012002 ], [ -81.13776, 38.013237 ], [ -81.135541, 38.014055 ], [ -81.139517, 38.016704 ], [ -81.143353, 38.017715 ], [ -81.146344, 38.018081 ], [ -81.1634, 38.020835 ], [ -81.165704, 38.017605 ], [ -81.172296, 38.010676 ], [ -81.174251, 38.008241 ], [ -81.175882, 38.004907 ] ] ] } }
]
}
