{
"type": "FeatureCollection",
"name": "25909",
"crs": { "type": "name", "properties": { "name": "urn:ogc:def:crs:OGC:1.3:CRS84" } },
"features": [
{ "type": "Feature", "properties": { "Name": "", "Description": "" }, "geometry": { "type": "Polygon", "coordinates": [ [ [ -81.210924, 37.832739 ], [ -81.211436, 37.83165 ], [ -81.208755, 37.829694 ], [ -81.204318, 37.831344 ], [ -81.203658, 37.832837 ], [ -81.202935, 37.831726 ], [ -81.203561, 37.830652 ], [ -81.207321, 37.827969 ], [ -81.207283, 37.827946 ], [ -81.201916, 37.831126 ], [ -81.201471, 37.831549 ], [ -81.202736, 37.832288 ], [ -81.203155, 37.833064 ], [ -81.201617, 37.833747 ], [ -81.201539, 37.83486 ], [ -81.198657, 37.834261 ], [ -81.195195, 37.832689 ], [ -81.193461, 37.841335 ], [ -81.19377, 37.842772 ], [ -81.197252, 37.841646 ], [ -81.20058, 37.838945 ], [ -81.201593, 37.839921 ], [ -81.203681, 37.840483 ], [ -81.202733, 37.842951 ], [ -81.20455, 37.845098 ], [ -81.206242, 37.844463 ], [ -81.207833, 37.839767 ], [ -81.202431, 37.838463 ], [ -81.202918, 37.836817 ], [ -81.206451, 37.837674 ], [ -81.208956, 37.832577 ], [ -81.210924, 37.832739 ] ] ] } }
]
}
