{
"type": "FeatureCollection",
"name": "25943",
"crs": { "type": "name", "properties": { "name": "urn:ogc:def:crs:OGC:1.3:CRS84" } },
"features": [
{ "type": "Feature", "properties": { "Name": "", "Description": "" }, "geometry": { "type": "Polygon", "coordinates": [ [ [ -81.356126, 37.590052 ], [ -81.356603, 37.588038 ], [ -81.355257, 37.587492 ], [ -81.353862, 37.586751 ], [ -81.352889, 37.588452 ], [ -81.351378, 37.589852 ], [ -81.349473, 37.590007 ], [ -81.347306, 37.588897 ], [ -81.348474, 37.591419 ], [ -81.347452, 37.592722 ], [ -81.345023, 37.593516 ], [ -81.341769, 37.597117 ], [ -81.341508, 37.598403 ], [ -81.343566, 37.600134 ], [ -81.342876, 37.602067 ], [ -81.343257, 37.603871 ], [ -81.344225, 37.602765 ], [ -81.348582, 37.605154 ], [ -81.349856, 37.606457 ], [ -81.356126, 37.590052 ] ] ] } }
]
}
