{
"type": "FeatureCollection",
"name": "25966",
"crs": { "type": "name", "properties": { "name": "urn:ogc:def:crs:OGC:1.3:CRS84" } },
"features": [
{ "type": "Feature", "properties": { "Name": "", "Description": "" }, "geometry": { "type": "Polygon", "coordinates": [ [ [ -80.815212, 37.808268 ], [ -80.816186, 37.806328 ], [ -80.81189, 37.805417 ], [ -80.811023, 37.803405 ], [ -80.811688, 37.801258 ], [ -80.811634, 37.798948 ], [ -80.810199, 37.796004 ], [ -80.808546, 37.794493 ], [ -80.805462, 37.789849 ], [ -80.804729, 37.789305 ], [ -80.800329, 37.788065 ], [ -80.797179, 37.7877 ], [ -80.794776, 37.787822 ], [ -80.793228, 37.78902 ], [ -80.790363, 37.789819 ], [ -80.789676, 37.789448 ], [ -80.787355, 37.785778 ], [ -80.785992, 37.782171 ], [ -80.782636, 37.780348 ], [ -80.785515, 37.776194 ], [ -80.785413, 37.773335 ], [ -80.783994, 37.77083 ], [ -80.782474, 37.771161 ], [ -80.782141, 37.769797 ], [ -80.780442, 37.769452 ], [ -80.780602, 37.767752 ], [ -80.779885, 37.765874 ], [ -80.778703, 37.765472 ], [ -80.778498, 37.763861 ], [ -80.776912, 37.76232 ], [ -80.774722, 37.761903 ], [ -80.773798, 37.760969 ], [ -80.76998, 37.758522 ], [ -80.765121, 37.759238 ], [ -80.763292, 37.757256 ], [ -80.754817, 37.753869 ], [ -80.75399, 37.755181 ], [ -80.751483, 37.753604 ], [ -80.748305, 37.753117 ], [ -80.745777, 37.75379 ], [ -80.742643, 37.757349 ], [ -80.740336, 37.75824 ], [ -80.737407, 37.760043 ], [ -80.735186, 37.759982 ], [ -80.732778, 37.76092 ], [ -80.731704, 37.762592 ], [ -80.732687, 37.76604 ], [ -80.729865, 37.765979 ], [ -80.725706, 37.76947 ], [ -80.723732, 37.770121 ], [ -80.721606, 37.772373 ], [ -80.721513, 37.773224 ], [ -80.726244, 37.774127 ], [ -80.727931, 37.774942 ], [ -80.728908, 37.777786 ], [ -80.727779, 37.780539 ], [ -80.726298, 37.782783 ], [ -80.730214, 37.783469 ], [ -80.731395, 37.784324 ], [ -80.731565, 37.786468 ], [ -80.733466, 37.786275 ], [ -80.734991, 37.787683 ], [ -80.738073, 37.788525 ], [ -80.738303, 37.789446 ], [ -80.734414, 37.789694 ], [ -80.733819, 37.790605 ], [ -80.734108, 37.793772 ], [ -80.731202, 37.796045 ], [ -80.733584, 37.797856 ], [ -80.733669, 37.799616 ], [ -80.736263, 37.801347 ], [ -80.73742, 37.801269 ], [ -80.738819, 37.802416 ], [ -80.742077, 37.802097 ], [ -80.743295, 37.804677 ], [ -80.745025, 37.806329 ], [ -80.744563, 37.807579 ], [ -80.746098, 37.810524 ], [ -80.745572, 37.811431 ], [ -80.746497, 37.813805 ], [ -80.745735, 37.813449 ], [ -80.742708, 37.81366 ], [ -80.742492, 37.81301 ], [ -80.740305, 37.8145 ], [ -80.737302, 37.815704 ], [ -80.735519, 37.8157 ], [ -80.732558, 37.814711 ], [ -80.732959, 37.816122 ], [ -80.731725, 37.819636 ], [ -80.732028, 37.819861 ], [ -80.751409, 37.835849 ], [ -80.755647, 37.838465 ], [ -80.760039, 37.836935 ], [ -80.762503, 37.837038 ], [ -80.765031, 37.834731 ], [ -80.770132, 37.833661 ], [ -80.775042, 37.831205 ], [ -80.777126, 37.831929 ], [ -80.785466, 37.830358 ], [ -80.794141, 37.829957 ], [ -80.798031, 37.829306 ], [ -80.800198, 37.828469 ], [ -80.809009, 37.823483 ], [ -80.811669, 37.820696 ], [ -80.812737, 37.818456 ], [ -80.815212, 37.808268 ] ] ] } }
]
}
