{
"type": "FeatureCollection",
"name": "25986",
"crs": { "type": "name", "properties": { "name": "urn:ogc:def:crs:OGC:1.3:CRS84" } },
"features": [
{ "type": "Feature", "properties": { "Name": "", "Description": "" }, "geometry": { "type": "Polygon", "coordinates": [ [ [ -80.867475, 37.878347 ], [ -80.86645, 37.875733 ], [ -80.863888, 37.873008 ], [ -80.857993, 37.868742 ], [ -80.857531, 37.869165 ], [ -80.852923, 37.866185 ], [ -80.84933, 37.86789 ], [ -80.846664, 37.869884 ], [ -80.847589, 37.870498 ], [ -80.844927, 37.872512 ], [ -80.844017, 37.871862 ], [ -80.839753, 37.874731 ], [ -80.829092, 37.878759 ], [ -80.82838, 37.879201 ], [ -80.829869, 37.881827 ], [ -80.829104, 37.883896 ], [ -80.825875, 37.88601 ], [ -80.825713, 37.884392 ], [ -80.823928, 37.883678 ], [ -80.823753, 37.882852 ], [ -80.82152, 37.88082 ], [ -80.822217, 37.879565 ], [ -80.8217, 37.87656 ], [ -80.820546, 37.876208 ], [ -80.816685, 37.876877 ], [ -80.815358, 37.876557 ], [ -80.819737, 37.875204 ], [ -80.824967, 37.877191 ], [ -80.827344, 37.877284 ], [ -80.829007, 37.875256 ], [ -80.831713, 37.876192 ], [ -80.834143, 37.875777 ], [ -80.837621, 37.873926 ], [ -80.839515, 37.874116 ], [ -80.841204, 37.873429 ], [ -80.84255, 37.871559 ], [ -80.847059, 37.868948 ], [ -80.851376, 37.864961 ], [ -80.851658, 37.863409 ], [ -80.850824, 37.861348 ], [ -80.852185, 37.857508 ], [ -80.847471, 37.855666 ], [ -80.846615, 37.854467 ], [ -80.837902, 37.857593 ], [ -80.837882, 37.859873 ], [ -80.831427, 37.86147 ], [ -80.830092, 37.864133 ], [ -80.82656, 37.865458 ], [ -80.826705, 37.866971 ], [ -80.825627, 37.867481 ], [ -80.826068, 37.86851 ], [ -80.824919, 37.869822 ], [ -80.823265, 37.870094 ], [ -80.820188, 37.869855 ], [ -80.8177, 37.86817 ], [ -80.818107, 37.865334 ], [ -80.817443, 37.864928 ], [ -80.806316, 37.868915 ], [ -80.789423, 37.867786 ], [ -80.789354, 37.87011 ], [ -80.788505, 37.872562 ], [ -80.787318, 37.872219 ], [ -80.783637, 37.869702 ], [ -80.782092, 37.869976 ], [ -80.777607, 37.868933 ], [ -80.775038, 37.868635 ], [ -80.770793, 37.868861 ], [ -80.767326, 37.869539 ], [ -80.766637, 37.871178 ], [ -80.769747, 37.874374 ], [ -80.77005, 37.877772 ], [ -80.769281, 37.878343 ], [ -80.768718, 37.881084 ], [ -80.767831, 37.88305 ], [ -80.766821, 37.883756 ], [ -80.766304, 37.885492 ], [ -80.765358, 37.884673 ], [ -80.765603, 37.886929 ], [ -80.767227, 37.890033 ], [ -80.768303, 37.887408 ], [ -80.772383, 37.886766 ], [ -80.773912, 37.885725 ], [ -80.777064, 37.881965 ], [ -80.777066, 37.880927 ], [ -80.778553, 37.879833 ], [ -80.780824, 37.880313 ], [ -80.783577, 37.879431 ], [ -80.784088, 37.878811 ], [ -80.787035, 37.878907 ], [ -80.788115, 37.8795 ], [ -80.792672, 37.879353 ], [ -80.793002, 37.880276 ], [ -80.785591, 37.885281 ], [ -80.783086, 37.8867 ], [ -80.781954, 37.88811 ], [ -80.779026, 37.888633 ], [ -80.775569, 37.888522 ], [ -80.774409, 37.887859 ], [ -80.772086, 37.887803 ], [ -80.771413, 37.888851 ], [ -80.768885, 37.889716 ], [ -80.769782, 37.890765 ], [ -80.772883, 37.892259 ], [ -80.774295, 37.894766 ], [ -80.776065, 37.89548 ], [ -80.776309, 37.896671 ], [ -80.778279, 37.897303 ], [ -80.777989, 37.900495 ], [ -80.778555, 37.901668 ], [ -80.779721, 37.901906 ], [ -80.782727, 37.90362 ], [ -80.782522, 37.905117 ], [ -80.78012, 37.907623 ], [ -80.790031, 37.921025 ], [ -80.790344, 37.921366 ], [ -80.800241, 37.934911 ], [ -80.803801, 37.93973 ], [ -80.804627, 37.94083 ], [ -80.807675, 37.939262 ], [ -80.81132, 37.938243 ], [ -80.816707, 37.938114 ], [ -80.817729, 37.937566 ], [ -80.818877, 37.935268 ], [ -80.823217, 37.932711 ], [ -80.82575, 37.930707 ], [ -80.828055, 37.929591 ], [ -80.829656, 37.927089 ], [ -80.82931, 37.923498 ], [ -80.830108, 37.921767 ], [ -80.829389, 37.920473 ], [ -80.825762, 37.917086 ], [ -80.824621, 37.915676 ], [ -80.822845, 37.912092 ], [ -80.81995, 37.908387 ], [ -80.819246, 37.906931 ], [ -80.819187, 37.904451 ], [ -80.81662, 37.902311 ], [ -80.81555, 37.900785 ], [ -80.815092, 37.898412 ], [ -80.812987, 37.895329 ], [ -80.813456, 37.894936 ], [ -80.813421, 37.895875 ], [ -80.815897, 37.898811 ], [ -80.816147, 37.901515 ], [ -80.818976, 37.903196 ], [ -80.819933, 37.905162 ], [ -80.820148, 37.907916 ], [ -80.822023, 37.909619 ], [ -80.838486, 37.910031 ], [ -80.838672, 37.907688 ], [ -80.836947, 37.905234 ], [ -80.837197, 37.904446 ], [ -80.839895, 37.90456 ], [ -80.841999, 37.905653 ], [ -80.843409, 37.905107 ], [ -80.844686, 37.906075 ], [ -80.846298, 37.905608 ], [ -80.846449, 37.906797 ], [ -80.84997, 37.906509 ], [ -80.851736, 37.908098 ], [ -80.85781, 37.903454 ], [ -80.863946, 37.897607 ], [ -80.862918, 37.894343 ], [ -80.863791, 37.892363 ], [ -80.866499, 37.88889 ], [ -80.866324, 37.886776 ], [ -80.865471, 37.886721 ], [ -80.865442, 37.885162 ], [ -80.863945, 37.884689 ], [ -80.864128, 37.883454 ], [ -80.865889, 37.881525 ], [ -80.867475, 37.878347 ] ] ] } }
]
}
