{
"type": "FeatureCollection",
"name": "26058",
"crs": { "type": "name", "properties": { "name": "urn:ogc:def:crs:OGC:1.3:CRS84" } },
"features": [
{ "type": "Feature", "properties": { "Name": "", "Description": "" }, "geometry": { "type": "Polygon", "coordinates": [ [ [ -80.674638, 40.185332 ], [ -80.67663, 40.183124 ], [ -80.672992, 40.183067 ], [ -80.671997, 40.184294 ], [ -80.669215, 40.183738 ], [ -80.666853, 40.185778 ], [ -80.663734, 40.185897 ], [ -80.664856, 40.183411 ], [ -80.664913, 40.183095 ], [ -80.664555, 40.182848 ], [ -80.663991, 40.182683 ], [ -80.663359, 40.184969 ], [ -80.663333, 40.185394 ], [ -80.653143, 40.186072 ], [ -80.662187, 40.189424 ], [ -80.662223, 40.188923 ], [ -80.663505, 40.189445 ], [ -80.664719, 40.189264 ], [ -80.665563, 40.188025 ], [ -80.666522, 40.187412 ], [ -80.667323, 40.18665 ], [ -80.66788, 40.18649 ], [ -80.66843, 40.185882 ], [ -80.671042, 40.185653 ], [ -80.671988, 40.184649 ], [ -80.674638, 40.185332 ] ] ] } }
]
}
