{
"type": "FeatureCollection",
"name": "26162",
"crs": { "type": "name", "properties": { "name": "urn:ogc:def:crs:OGC:1.3:CRS84" } },
"features": [
{ "type": "Feature", "properties": { "Name": "", "Description": "" }, "geometry": { "type": "Polygon", "coordinates": [ [ [ -80.778785, 39.580769 ], [ -80.779646, 39.576494 ], [ -80.778229, 39.575668 ], [ -80.776242, 39.57569 ], [ -80.773968, 39.576575 ], [ -80.770121, 39.575419 ], [ -80.769886, 39.573569 ], [ -80.773891, 39.570525 ], [ -80.7744, 39.568537 ], [ -80.774227, 39.566062 ], [ -80.773338, 39.564872 ], [ -80.772422, 39.562156 ], [ -80.769825, 39.559958 ], [ -80.766271, 39.557973 ], [ -80.763836, 39.556167 ], [ -80.763298, 39.567004 ], [ -80.764731, 39.567519 ], [ -80.759591, 39.569901 ], [ -80.753616, 39.569618 ], [ -80.750945, 39.571374 ], [ -80.751655, 39.571985 ], [ -80.757181, 39.574635 ], [ -80.757115, 39.576538 ], [ -80.755524, 39.578265 ], [ -80.754536, 39.580214 ], [ -80.751787, 39.581751 ], [ -80.749821, 39.582206 ], [ -80.74872, 39.581949 ], [ -80.747298, 39.578802 ], [ -80.745579, 39.577089 ], [ -80.745247, 39.577178 ], [ -80.747257, 39.579153 ], [ -80.748309, 39.581708 ], [ -80.748711, 39.582159 ], [ -80.750215, 39.582614 ], [ -80.751941, 39.582244 ], [ -80.757578, 39.579388 ], [ -80.76165, 39.576706 ], [ -80.759928, 39.581466 ], [ -80.760725, 39.583393 ], [ -80.763885, 39.583481 ], [ -80.768013, 39.582767 ], [ -80.77575, 39.577945 ], [ -80.776805, 39.577904 ], [ -80.776073, 39.579835 ], [ -80.776979, 39.58003 ], [ -80.778785, 39.580769 ] ] ] } }
]
}
