{
"type": "FeatureCollection",
"name": "26210",
"crs": { "type": "name", "properties": { "name": "urn:ogc:def:crs:OGC:1.3:CRS84" } },
"features": [
{ "type": "Feature", "properties": { "Name": "", "Description": "" }, "geometry": { "type": "Polygon", "coordinates": [ [ [ -80.287759, 38.904856 ], [ -80.28719, 38.903698 ], [ -80.284491, 38.904845 ], [ -80.281865, 38.898519 ], [ -80.272036, 38.90167 ], [ -80.270481, 38.902604 ], [ -80.273575, 38.903842 ], [ -80.270808, 38.904442 ], [ -80.267401, 38.903413 ], [ -80.264221, 38.904381 ], [ -80.262537, 38.906496 ], [ -80.260058, 38.906612 ], [ -80.263648, 38.906524 ], [ -80.266299, 38.90433 ], [ -80.26774, 38.904193 ], [ -80.271798, 38.904674 ], [ -80.274474, 38.904562 ], [ -80.2769, 38.905325 ], [ -80.286055, 38.90659 ], [ -80.286845, 38.906081 ], [ -80.287759, 38.904856 ] ] ] } }
]
}
