{
"type": "FeatureCollection",
"name": "26289",
"crs": { "type": "name", "properties": { "name": "urn:ogc:def:crs:OGC:1.3:CRS84" } },
"features": [
{ "type": "Feature", "properties": { "Name": "", "Description": "" }, "geometry": { "type": "Polygon", "coordinates": [ [ [ -79.536566, 38.98498 ], [ -79.543936, 38.983063 ], [ -79.508339, 38.974979 ], [ -79.507781, 38.974738 ], [ -79.508195, 38.972409 ], [ -79.50443, 38.97008 ], [ -79.502694, 38.969938 ], [ -79.505205, 38.972277 ], [ -79.505079, 38.972862 ], [ -79.499706, 38.975501 ], [ -79.497313, 38.977844 ], [ -79.495821, 38.978542 ], [ -79.494374, 38.980876 ], [ -79.494498, 38.984818 ], [ -79.490844, 38.988197 ], [ -79.494663, 38.988594 ], [ -79.496685, 38.989997 ], [ -79.495499, 38.993163 ], [ -79.496486, 38.995613 ], [ -79.495523, 38.998567 ], [ -79.496845, 38.999141 ], [ -79.497383, 39.001345 ], [ -79.49549, 39.001926 ], [ -79.497856, 39.003896 ], [ -79.501611, 39.004469 ], [ -79.504991, 39.006291 ], [ -79.507562, 39.007064 ], [ -79.51003, 39.008476 ], [ -79.509399, 39.010638 ], [ -79.511665, 39.009202 ], [ -79.512019, 39.006233 ], [ -79.513462, 39.005512 ], [ -79.515335, 39.006027 ], [ -79.516996, 39.005449 ], [ -79.518546, 39.004 ], [ -79.521826, 39.002992 ], [ -79.52218, 39.00046 ], [ -79.525267, 38.999278 ], [ -79.526247, 38.998132 ], [ -79.529605, 38.996296 ], [ -79.530647, 38.994822 ], [ -79.532184, 38.994359 ], [ -79.530573, 38.990137 ], [ -79.53067, 38.98893 ], [ -79.532063, 38.987086 ], [ -79.536566, 38.98498 ] ] ] } }
]
}
