{
"type": "FeatureCollection",
"name": "26463",
"crs": { "type": "name", "properties": { "name": "urn:ogc:def:crs:OGC:1.3:CRS84" } },
"features": [
{ "type": "Feature", "properties": { "Name": "", "Description": "" }, "geometry": { "type": "Polygon", "coordinates": [ [ [ -80.401715, 39.438964 ], [ -80.402737, 39.437493 ], [ -80.400277, 39.435482 ], [ -80.399718, 39.431453 ], [ -80.399615, 39.431439 ], [ -80.398337, 39.431644 ], [ -80.39563, 39.430975 ], [ -80.390822, 39.431223 ], [ -80.385415, 39.432769 ], [ -80.378318, 39.432519 ], [ -80.375484, 39.431496 ], [ -80.373511, 39.429782 ], [ -80.372432, 39.427261 ], [ -80.368491, 39.425103 ], [ -80.365628, 39.425069 ], [ -80.363386, 39.422825 ], [ -80.363493, 39.421339 ], [ -80.362597, 39.42033 ], [ -80.359013, 39.419648 ], [ -80.353107, 39.420678 ], [ -80.347668, 39.420471 ], [ -80.346346, 39.420413 ], [ -80.345348, 39.421516 ], [ -80.346246, 39.423225 ], [ -80.346066, 39.425733 ], [ -80.349928, 39.426664 ], [ -80.349986, 39.427832 ], [ -80.348465, 39.42853 ], [ -80.347615, 39.426742 ], [ -80.344862, 39.426319 ], [ -80.344327, 39.422215 ], [ -80.344949, 39.421489 ], [ -80.341531, 39.418117 ], [ -80.338743, 39.41885 ], [ -80.33711, 39.420316 ], [ -80.334651, 39.420761 ], [ -80.33324, 39.419691 ], [ -80.328975, 39.41938 ], [ -80.326904, 39.418301 ], [ -80.325598, 39.417639 ], [ -80.32492, 39.416968 ], [ -80.324539, 39.41594 ], [ -80.319173, 39.415539 ], [ -80.314604, 39.415764 ], [ -80.31575, 39.418761 ], [ -80.314069, 39.420969 ], [ -80.312803, 39.42087 ], [ -80.309655, 39.419234 ], [ -80.307025, 39.419416 ], [ -80.305587, 39.419032 ], [ -80.300441, 39.420427 ], [ -80.297347, 39.423802 ], [ -80.294444, 39.423838 ], [ -80.294152, 39.424597 ], [ -80.297441, 39.424193 ], [ -80.298897, 39.425503 ], [ -80.303757, 39.426938 ], [ -80.305618, 39.427211 ], [ -80.306531, 39.426212 ], [ -80.309824, 39.427155 ], [ -80.312753, 39.427518 ], [ -80.315784, 39.42922 ], [ -80.316294, 39.431035 ], [ -80.31606, 39.433131 ], [ -80.319548, 39.43334 ], [ -80.321419, 39.434601 ], [ -80.325009, 39.438849 ], [ -80.327937, 39.439313 ], [ -80.331675, 39.43869 ], [ -80.333009, 39.439687 ], [ -80.333372, 39.441059 ], [ -80.348146, 39.443828 ], [ -80.362911, 39.446379 ], [ -80.36252, 39.441869 ], [ -80.361044, 39.441029 ], [ -80.359796, 39.439221 ], [ -80.359772, 39.436894 ], [ -80.359165, 39.435052 ], [ -80.36454, 39.433964 ], [ -80.365744, 39.434205 ], [ -80.366822, 39.435806 ], [ -80.368579, 39.43646 ], [ -80.371026, 39.438918 ], [ -80.371656, 39.44009 ], [ -80.370921, 39.442811 ], [ -80.371617, 39.444179 ], [ -80.369471, 39.447661 ], [ -80.377272, 39.449204 ], [ -80.378591, 39.444704 ], [ -80.381998, 39.444431 ], [ -80.38726, 39.444891 ], [ -80.388757, 39.445554 ], [ -80.392286, 39.443786 ], [ -80.397014, 39.442562 ], [ -80.399182, 39.440061 ], [ -80.401715, 39.438964 ] ] ] } }
]
}
