{
"type": "FeatureCollection",
"name": "26506",
"crs": { "type": "name", "properties": { "name": "urn:ogc:def:crs:OGC:1.3:CRS84" } },
"features": [
{ "type": "Feature", "properties": { "Name": "", "Description": "" }, "geometry": { "type": "Polygon", "coordinates": [ [ [ -79.975496, 39.646862 ], [ -79.975483, 39.645227 ], [ -79.973479, 39.643516 ], [ -79.972083, 39.643001 ], [ -79.971405, 39.642895 ], [ -79.966043, 39.643154 ], [ -79.965875, 39.645365 ], [ -79.965928, 39.647386 ], [ -79.964749, 39.64871 ], [ -79.967959, 39.651166 ], [ -79.972614, 39.650241 ], [ -79.975496, 39.646862 ] ] ] } }
]
}
