{
"type": "FeatureCollection",
"name": "26524",
"crs": { "type": "name", "properties": { "name": "urn:ogc:def:crs:OGC:1.3:CRS84" } },
"features": [
{ "type": "Feature", "properties": { "Name": "", "Description": "" }, "geometry": { "type": "Polygon", "coordinates": [ [ [ -79.812651, 39.541884 ], [ -79.811545, 39.540626 ], [ -79.811491, 39.53761 ], [ -79.806471, 39.537303 ], [ -79.8057, 39.53905 ], [ -79.80376, 39.538581 ], [ -79.801005, 39.542371 ], [ -79.801429, 39.543371 ], [ -79.81142, 39.543218 ], [ -79.812651, 39.541884 ] ] ] } }
]
}
