{
"type": "FeatureCollection",
"name": "26544",
"crs": { "type": "name", "properties": { "name": "urn:ogc:def:crs:OGC:1.3:CRS84" } },
"features": [
{ "type": "Feature", "properties": { "Name": "", "Description": "" }, "geometry": { "type": "Polygon", "coordinates": [ [ [ -80.185157035286295, 39.721318556310301 ], [ -80.181595, 39.719398 ], [ -80.179852, 39.716064 ], [ -80.178576, 39.711051 ], [ -80.174072, 39.706601 ], [ -80.173633, 39.706807 ], [ -80.172076, 39.705976 ], [ -80.166979, 39.705548 ], [ -80.162897, 39.703565 ], [ -80.161905, 39.703771 ], [ -80.15843, 39.706569 ], [ -80.157398, 39.708934 ], [ -80.16022, 39.711243 ], [ -80.161642, 39.712089 ], [ -80.161702, 39.71203 ], [ -80.166825, 39.714613 ], [ -80.167085, 39.715297 ], [ -80.170312, 39.716661 ], [ -80.173360049220705, 39.7213219528916 ], [ -80.174365860623993, 39.721321663299001 ], [ -80.185157035286295, 39.721318556310301 ] ] ] } }
]
}
