{
"type": "FeatureCollection",
"name": "26546",
"crs": { "type": "name", "properties": { "name": "urn:ogc:def:crs:OGC:1.3:CRS84" } },
"features": [
{ "type": "Feature", "properties": { "Name": "", "Description": "" }, "geometry": { "type": "Polygon", "coordinates": [ [ [ -80.049505, 39.655823 ], [ -80.050916, 39.654427 ], [ -80.048567, 39.65388 ], [ -80.047143, 39.652502 ], [ -80.045073, 39.652513 ], [ -80.040422, 39.655408 ], [ -80.035083, 39.656652 ], [ -80.030446, 39.657074 ], [ -80.029451, 39.658134 ], [ -80.025975, 39.658643 ], [ -80.021586, 39.658167 ], [ -80.021023, 39.657124 ], [ -80.020198, 39.657827 ], [ -80.01215, 39.662951 ], [ -80.013844, 39.664124 ], [ -80.021546, 39.666961 ], [ -80.021945, 39.66691 ], [ -80.020937, 39.666531 ], [ -80.026259, 39.667045 ], [ -80.029726, 39.668403 ], [ -80.034993, 39.667174 ], [ -80.036387, 39.666448 ], [ -80.036316, 39.664476 ], [ -80.038122, 39.662099 ], [ -80.042581, 39.659415 ], [ -80.045653, 39.659279 ], [ -80.047513, 39.658783 ], [ -80.049505, 39.655823 ] ] ] } }
]
}
