{
"type": "FeatureCollection",
"name": "26667",
"crs": { "type": "name", "properties": { "name": "urn:ogc:def:crs:OGC:1.3:CRS84" } },
"features": [
{ "type": "Feature", "properties": { "Name": "", "Description": "" }, "geometry": { "type": "Polygon", "coordinates": [ [ [ -81.046572, 38.225666 ], [ -81.046961, 38.22419 ], [ -81.046108, 38.223879 ], [ -81.041037, 38.226624 ], [ -81.038336, 38.228493 ], [ -81.036914, 38.230875 ], [ -81.036572, 38.232546 ], [ -81.036946, 38.234772 ], [ -81.038742, 38.236932 ], [ -81.038984, 38.239086 ], [ -81.037442, 38.240146 ], [ -81.034307, 38.239924 ], [ -81.029602, 38.238222 ], [ -81.027696, 38.236088 ], [ -81.027004, 38.23362 ], [ -81.027048, 38.230894 ], [ -81.029199, 38.227508 ], [ -81.031832, 38.225506 ], [ -81.034159, 38.221937 ], [ -81.034522, 38.219855 ], [ -81.031163, 38.217814 ], [ -81.025088, 38.217147 ], [ -81.023185, 38.216456 ], [ -81.021067, 38.21499 ], [ -81.019433, 38.212549 ], [ -81.019038, 38.210136 ], [ -81.019632, 38.207261 ], [ -81.019107, 38.205364 ], [ -81.016304, 38.203782 ], [ -81.013444, 38.203781 ], [ -81.010277, 38.205411 ], [ -81.007497, 38.205634 ], [ -81.007462, 38.207837 ], [ -81.00995, 38.209988 ], [ -81.011303, 38.211946 ], [ -81.011181, 38.215836 ], [ -81.009873, 38.219081 ], [ -81.007667, 38.221364 ], [ -81.004958, 38.221912 ], [ -80.99456, 38.222758 ], [ -80.991685, 38.222163 ], [ -80.990117, 38.222547 ], [ -80.988832, 38.22518 ], [ -80.989871, 38.227181 ], [ -80.989994, 38.230529 ], [ -80.988975, 38.22969 ], [ -80.984762, 38.229484 ], [ -80.984214, 38.230457 ], [ -80.9809, 38.231761 ], [ -80.979815, 38.230941 ], [ -80.977623, 38.233452 ], [ -80.973182, 38.23705 ], [ -80.970429, 38.238885 ], [ -80.969579, 38.24179 ], [ -80.977758, 38.254382 ], [ -80.979092, 38.254172 ], [ -80.983399, 38.256827 ], [ -80.986507, 38.257034 ], [ -80.989197, 38.258103 ], [ -80.99094, 38.259392 ], [ -80.993651, 38.259184 ], [ -80.996384, 38.261379 ], [ -80.998572, 38.261203 ], [ -81.000774, 38.264231 ], [ -81.000417, 38.266214 ], [ -81.000827, 38.267683 ], [ -81.001764, 38.267725 ], [ -81.002286, 38.266905 ], [ -81.002258, 38.264147 ], [ -81.003852, 38.263493 ], [ -81.006574, 38.264126 ], [ -81.010168, 38.263071 ], [ -81.013986, 38.264443 ], [ -81.016733, 38.264599 ], [ -81.016735, 38.262878 ], [ -81.014975, 38.263286 ], [ -81.013039, 38.262269 ], [ -81.014201, 38.260524 ], [ -81.012396, 38.255577 ], [ -81.011634, 38.255291 ], [ -81.011149, 38.253147 ], [ -81.00967, 38.252535 ], [ -81.008161, 38.2509 ], [ -81.007205, 38.248114 ], [ -81.003841, 38.246465 ], [ -81.00505, 38.244468 ], [ -81.00231, 38.242359 ], [ -81.003843, 38.240241 ], [ -81.006038, 38.239384 ], [ -81.007458, 38.23981 ], [ -81.009793, 38.239083 ], [ -81.010768, 38.238076 ], [ -81.010576, 38.23546 ], [ -81.011753, 38.233439 ], [ -81.011596, 38.231322 ], [ -81.009456, 38.227813 ], [ -81.008363, 38.224845 ], [ -81.008899, 38.223214 ], [ -81.010395, 38.222692 ], [ -81.013255, 38.220788 ], [ -81.013542, 38.219657 ], [ -81.01711, 38.21593 ], [ -81.01871, 38.215967 ], [ -81.02097, 38.219085 ], [ -81.023832, 38.219594 ], [ -81.021918, 38.220273 ], [ -81.024103, 38.221781 ], [ -81.027646, 38.224783 ], [ -81.027819, 38.225977 ], [ -81.026269, 38.226654 ], [ -81.026694, 38.227538 ], [ -81.025411, 38.230563 ], [ -81.023623, 38.230889 ], [ -81.025344, 38.233022 ], [ -81.024118, 38.234543 ], [ -81.025499, 38.235408 ], [ -81.024483, 38.237979 ], [ -81.023072, 38.239895 ], [ -81.024981, 38.238678 ], [ -81.026376, 38.236627 ], [ -81.027532, 38.236014 ], [ -81.029837, 38.238731 ], [ -81.034127, 38.240217 ], [ -81.038049, 38.240576 ], [ -81.038948, 38.240008 ], [ -81.039485, 38.236916 ], [ -81.037535, 38.235178 ], [ -81.03709, 38.233975 ], [ -81.037474, 38.230559 ], [ -81.038331, 38.229053 ], [ -81.040268, 38.22757 ], [ -81.044029, 38.225847 ], [ -81.045785, 38.224553 ], [ -81.046572, 38.225666 ] ] ] } }
]
}
