{
"type": "FeatureCollection",
"name": "26671",
"crs": { "type": "name", "properties": { "name": "urn:ogc:def:crs:OGC:1.3:CRS84" } },
"features": [
{ "type": "Feature", "properties": { "Name": "", "Description": "" }, "geometry": { "type": "Polygon", "coordinates": [ [ [ -80.971783, 38.289254 ], [ -80.971697, 38.284703 ], [ -80.970196, 38.285363 ], [ -80.968366, 38.285002 ], [ -80.967936, 38.28329 ], [ -80.96616, 38.280925 ], [ -80.964777, 38.279996 ], [ -80.961105, 38.281067 ], [ -80.960513, 38.28248 ], [ -80.958051, 38.284115 ], [ -80.957239, 38.28603 ], [ -80.953983, 38.286308 ], [ -80.953071, 38.284072 ], [ -80.950644, 38.283974 ], [ -80.949588, 38.285954 ], [ -80.948888, 38.284805 ], [ -80.946532, 38.283561 ], [ -80.945515, 38.282191 ], [ -80.940485, 38.28125 ], [ -80.937422, 38.279445 ], [ -80.936568, 38.278245 ], [ -80.934428, 38.277434 ], [ -80.933373, 38.275532 ], [ -80.93196, 38.275094 ], [ -80.92507, 38.275019 ], [ -80.920695, 38.269803 ], [ -80.918283, 38.268816 ], [ -80.915153, 38.26667 ], [ -80.913576, 38.265187 ], [ -80.910815, 38.264241 ], [ -80.911737, 38.266758 ], [ -80.911579, 38.269756 ], [ -80.912085, 38.272578 ], [ -80.929207, 38.301902 ], [ -80.921043, 38.3004 ], [ -80.916824, 38.29995 ], [ -80.913386, 38.294193 ], [ -80.910465, 38.283543 ], [ -80.912582, 38.292175 ], [ -80.913565, 38.294992 ], [ -80.916157, 38.299779 ], [ -80.915874, 38.300063 ], [ -80.915917, 38.301609 ], [ -80.916382, 38.303271 ], [ -80.91423, 38.3041 ], [ -80.903197, 38.308979 ], [ -80.901325, 38.309589 ], [ -80.891595, 38.309542 ], [ -80.888677, 38.30982 ], [ -80.888107, 38.309625 ], [ -80.887011, 38.310631 ], [ -80.883156, 38.312577 ], [ -80.880053, 38.315783 ], [ -80.87565, 38.318503 ], [ -80.874821, 38.319396 ], [ -80.868815, 38.322292 ], [ -80.863763, 38.325371 ], [ -80.854894, 38.332046 ], [ -80.849246, 38.338398 ], [ -80.84655, 38.339211 ], [ -80.846789, 38.341571 ], [ -80.843912, 38.34243 ], [ -80.842106, 38.342177 ], [ -80.851573, 38.35219 ], [ -80.858156, 38.359138 ], [ -80.859153, 38.358062 ], [ -80.864013, 38.358597 ], [ -80.870128, 38.361219 ], [ -80.872252, 38.362464 ], [ -80.876666, 38.363185 ], [ -80.878721, 38.362987 ], [ -80.881983, 38.365763 ], [ -80.883435, 38.365441 ], [ -80.884972, 38.36383 ], [ -80.886392, 38.363139 ], [ -80.889157, 38.364195 ], [ -80.890395, 38.363729 ], [ -80.8913, 38.361306 ], [ -80.89214, 38.360946 ], [ -80.895021, 38.362058 ], [ -80.898248, 38.361922 ], [ -80.89897, 38.36109 ], [ -80.898651, 38.358762 ], [ -80.902341, 38.358711 ], [ -80.90456, 38.359971 ], [ -80.902856, 38.357926 ], [ -80.897792, 38.3575 ], [ -80.898642, 38.357129 ], [ -80.902619, 38.356907 ], [ -80.911824, 38.354555 ], [ -80.913978, 38.355005 ], [ -80.916574, 38.354606 ], [ -80.918339, 38.353715 ], [ -80.920154, 38.353545 ], [ -80.916429, 38.350708 ], [ -80.915448, 38.350328 ], [ -80.911462, 38.349272 ], [ -80.909299, 38.347981 ], [ -80.904018, 38.348293 ], [ -80.900761, 38.346681 ], [ -80.896101, 38.346371 ], [ -80.892616, 38.348124 ], [ -80.887512, 38.348337 ], [ -80.876908, 38.348104 ], [ -80.879071, 38.347229 ], [ -80.880706, 38.344536 ], [ -80.882764, 38.344101 ], [ -80.886044, 38.342202 ], [ -80.889435, 38.340813 ], [ -80.896023, 38.336827 ], [ -80.897761, 38.334282 ], [ -80.901854, 38.331035 ], [ -80.903998, 38.330656 ], [ -80.910972, 38.328902 ], [ -80.917543, 38.328344 ], [ -80.922404, 38.326892 ], [ -80.924523, 38.327728 ], [ -80.924131, 38.325642 ], [ -80.925579, 38.324605 ], [ -80.927267, 38.320317 ], [ -80.928843, 38.31943 ], [ -80.928557, 38.318407 ], [ -80.930015, 38.315889 ], [ -80.929799, 38.313415 ], [ -80.928916, 38.312333 ], [ -80.931082, 38.311336 ], [ -80.930685, 38.30869 ], [ -80.930625, 38.305177 ], [ -80.929093, 38.304218 ], [ -80.928944, 38.304281 ], [ -80.927788, 38.304033 ], [ -80.927546, 38.304257 ], [ -80.927112, 38.304354 ], [ -80.926827, 38.304336 ], [ -80.926285, 38.304139 ], [ -80.925756, 38.304138 ], [ -80.925165, 38.304316 ], [ -80.92201, 38.302324 ], [ -80.919709, 38.302289 ], [ -80.921341, 38.301876 ], [ -80.92597, 38.30283 ], [ -80.92988, 38.30309 ], [ -80.929602, 38.302677 ], [ -80.934158, 38.302377 ], [ -80.937707, 38.302631 ], [ -80.937999, 38.301275 ], [ -80.941277, 38.300597 ], [ -80.941684, 38.300941 ], [ -80.938606, 38.301755 ], [ -80.937814, 38.302717 ], [ -80.937539, 38.30396 ], [ -80.94083, 38.308225 ], [ -80.939959, 38.310158 ], [ -80.940906, 38.311716 ], [ -80.943994, 38.313533 ], [ -80.944024, 38.314242 ], [ -80.942456, 38.31649 ], [ -80.942651, 38.319635 ], [ -80.94134, 38.32109 ], [ -80.941459, 38.322896 ], [ -80.946078, 38.3309 ], [ -80.949848, 38.328669 ], [ -80.9504, 38.327159 ], [ -80.951562, 38.327364 ], [ -80.95191, 38.324274 ], [ -80.953896, 38.32234 ], [ -80.954666, 38.319976 ], [ -80.956454, 38.317908 ], [ -80.958452, 38.31708 ], [ -80.959906, 38.315619 ], [ -80.960244, 38.316948 ], [ -80.962576, 38.318738 ], [ -80.965033, 38.317841 ], [ -80.965545, 38.315003 ], [ -80.967926, 38.311723 ], [ -80.966955, 38.310278 ], [ -80.966518, 38.306794 ], [ -80.964589, 38.30521 ], [ -80.965091, 38.303692 ], [ -80.967419, 38.30202 ], [ -80.969854, 38.297432 ], [ -80.970819, 38.296813 ], [ -80.97078, 38.291109 ], [ -80.971783, 38.289254 ] ] ] } }
]
}
