{
"type": "FeatureCollection",
"name": "26838",
"crs": { "type": "name", "properties": { "name": "urn:ogc:def:crs:OGC:1.3:CRS84" } },
"features": [
{ "type": "Feature", "properties": { "Name": "", "Description": "" }, "geometry": { "type": "Polygon", "coordinates": [ [ [ -79.132257, 38.816012 ], [ -79.134296, 38.81334 ], [ -79.057253, 38.761413 ], [ -79.056754, 38.766513 ], [ -79.055654, 38.770913 ], [ -79.053754, 38.772313 ], [ -79.051554, 38.772613 ], [ -79.051322848314598, 38.773614657303398 ], [ -79.051254, 38.773913 ], [ -79.051654, 38.778013 ], [ -79.052454, 38.779213 ], [ -79.054354, 38.780613 ], [ -79.055654, 38.783013 ], [ -79.054954, 38.785713 ], [ -79.048954, 38.790713 ], [ -79.046554, 38.792113 ], [ -79.033153, 38.791013 ], [ -79.029253, 38.791013 ], [ -79.027253, 38.792113 ], [ -79.023053, 38.798613 ], [ -79.023453, 38.802612 ], [ -79.024453, 38.803712 ], [ -79.024053, 38.809212 ], [ -79.021882960520202, 38.813407409660897 ], [ -79.021474, 38.814537 ], [ -79.022598, 38.815718 ], [ -79.022375, 38.81749 ], [ -79.024507, 38.8176 ], [ -79.025902, 38.818808 ], [ -79.028746, 38.818005 ], [ -79.028906, 38.819965 ], [ -79.034787, 38.820148 ], [ -79.026835, 38.824481 ], [ -79.028429, 38.824703 ], [ -79.032635, 38.823379 ], [ -79.035379, 38.822929 ], [ -79.039309, 38.823565 ], [ -79.040772, 38.824329 ], [ -79.045348, 38.824727 ], [ -79.049897, 38.826355 ], [ -79.050854, 38.827584 ], [ -79.052374, 38.827403 ], [ -79.053421, 38.828931 ], [ -79.056485, 38.830152 ], [ -79.05782, 38.831404 ], [ -79.059658, 38.831866 ], [ -79.060505, 38.830537 ], [ -79.063242, 38.831939 ], [ -79.064106, 38.831684 ], [ -79.066474, 38.833745 ], [ -79.069242, 38.834394 ], [ -79.071272, 38.836113 ], [ -79.07133, 38.839155 ], [ -79.073259, 38.839879 ], [ -79.07387, 38.841167 ], [ -79.077563, 38.838838 ], [ -79.077801, 38.836582 ], [ -79.079256, 38.834628 ], [ -79.079801, 38.83262 ], [ -79.081928, 38.831027 ], [ -79.090323, 38.822896 ], [ -79.093868, 38.818924 ], [ -79.097031, 38.816261 ], [ -79.101659, 38.810933 ], [ -79.109537, 38.816724 ], [ -79.115794, 38.832943 ], [ -79.119773, 38.830189 ], [ -79.124404, 38.826241 ], [ -79.124451, 38.825557 ], [ -79.124193, 38.824644 ], [ -79.132257, 38.816012 ] ] ] } }
]
}
