{
"type": "FeatureCollection",
"name": "26886",
"crs": { "type": "name", "properties": { "name": "urn:ogc:def:crs:OGC:1.3:CRS84" } },
"features": [
{ "type": "Feature", "properties": { "Name": "", "Description": "" }, "geometry": { "type": "Polygon", "coordinates": [ [ [ -79.460786, 38.894003 ], [ -79.459396, 38.893408 ], [ -79.453054, 38.885794 ], [ -79.452211, 38.884549 ], [ -79.436915, 38.865941 ], [ -79.425597, 38.856069 ], [ -79.420581, 38.8502 ], [ -79.422045, 38.848096 ], [ -79.424866, 38.851324 ], [ -79.426935, 38.852237 ], [ -79.429551, 38.852863 ], [ -79.431554, 38.854444 ], [ -79.434463, 38.857132 ], [ -79.434611, 38.85552 ], [ -79.436482, 38.857577 ], [ -79.435951, 38.855226 ], [ -79.437862, 38.855891 ], [ -79.437739, 38.854114 ], [ -79.43907, 38.853378 ], [ -79.438819, 38.852355 ], [ -79.440304, 38.849771 ], [ -79.439426, 38.848161 ], [ -79.437655, 38.84625 ], [ -79.433312, 38.844974 ], [ -79.434559, 38.843451 ], [ -79.437585, 38.8411 ], [ -79.436391, 38.838483 ], [ -79.433018, 38.835826 ], [ -79.431075, 38.835605 ], [ -79.43125, 38.834714 ], [ -79.427603, 38.833233 ], [ -79.425485, 38.83401 ], [ -79.424331, 38.833716 ], [ -79.419778, 38.834514 ], [ -79.419196, 38.833631 ], [ -79.419885, 38.831122 ], [ -79.422529, 38.83051 ], [ -79.421222, 38.829186 ], [ -79.42272, 38.82778 ], [ -79.420534, 38.825816 ], [ -79.41713, 38.825388 ], [ -79.410685, 38.827948 ], [ -79.411526, 38.82356 ], [ -79.411121, 38.822204 ], [ -79.412489, 38.819943 ], [ -79.414559, 38.814771 ], [ -79.415759, 38.810239 ], [ -79.41908, 38.805963 ], [ -79.419255, 38.805159 ], [ -79.416094, 38.802952 ], [ -79.414563, 38.802657 ], [ -79.41083, 38.801019 ], [ -79.40833, 38.799156 ], [ -79.404109, 38.797055 ], [ -79.401957, 38.795037 ], [ -79.39907, 38.802102 ], [ -79.396696, 38.804918 ], [ -79.394409, 38.8085 ], [ -79.39361, 38.811357 ], [ -79.391309, 38.815319 ], [ -79.387371, 38.819227 ], [ -79.384903, 38.824182 ], [ -79.383921, 38.825634 ], [ -79.379857, 38.828815 ], [ -79.377007, 38.830527 ], [ -79.376619, 38.831305 ], [ -79.376034, 38.832561 ], [ -79.376201, 38.834521 ], [ -79.38261, 38.834988 ], [ -79.387485, 38.835792 ], [ -79.390807, 38.837022 ], [ -79.393396, 38.837325 ], [ -79.401822, 38.840787 ], [ -79.409604, 38.84257 ], [ -79.411841, 38.842661 ], [ -79.413193, 38.842248 ], [ -79.414513, 38.843986 ], [ -79.412285, 38.844544 ], [ -79.410104, 38.84619 ], [ -79.408026, 38.845827 ], [ -79.40674, 38.846744 ], [ -79.406067, 38.846269 ], [ -79.404464, 38.847571 ], [ -79.400947, 38.846645 ], [ -79.399333, 38.84844 ], [ -79.396519, 38.849619 ], [ -79.395455, 38.849506 ], [ -79.390874, 38.852488 ], [ -79.389278, 38.854112 ], [ -79.386429, 38.855369 ], [ -79.386275, 38.856797 ], [ -79.387229, 38.857753 ], [ -79.388386, 38.860445 ], [ -79.386654, 38.860572 ], [ -79.385513, 38.86184 ], [ -79.386073, 38.86286 ], [ -79.384471, 38.863668 ], [ -79.385168, 38.864736 ], [ -79.382591, 38.865742 ], [ -79.3818, 38.867031 ], [ -79.382674, 38.868762 ], [ -79.387072, 38.868711 ], [ -79.387772, 38.869137 ], [ -79.386591, 38.874304 ], [ -79.384383, 38.877468 ], [ -79.384422, 38.879255 ], [ -79.382184, 38.885326 ], [ -79.382344, 38.888378 ], [ -79.382019, 38.89459 ], [ -79.381022, 38.899078 ], [ -79.379381, 38.901632 ], [ -79.376284, 38.902525 ], [ -79.372805, 38.904193 ], [ -79.369489, 38.904608 ], [ -79.370644, 38.903799 ], [ -79.368596, 38.902246 ], [ -79.366955, 38.904807 ], [ -79.365334, 38.905453 ], [ -79.365007, 38.907471 ], [ -79.35822, 38.905036 ], [ -79.353113, 38.901658 ], [ -79.349362, 38.900464 ], [ -79.344558, 38.900649 ], [ -79.340181, 38.899814 ], [ -79.337934, 38.899871 ], [ -79.334462, 38.89918 ], [ -79.344207, 38.905665 ], [ -79.321934, 38.937723 ], [ -79.349867, 38.957509 ], [ -79.350567, 38.95641 ], [ -79.354467, 38.95351 ], [ -79.355067, 38.95231 ], [ -79.354867, 38.94891 ], [ -79.356467, 38.94551 ], [ -79.356567, 38.94371 ], [ -79.358367, 38.94101 ], [ -79.359367, 38.93861 ], [ -79.361567, 38.93791 ], [ -79.361567, 38.93571 ], [ -79.364267, 38.93231 ], [ -79.366468, 38.93151 ], [ -79.367968, 38.92481 ], [ -79.371068, 38.92411 ], [ -79.373768, 38.92281 ], [ -79.374768, 38.92101 ], [ -79.376068, 38.92081 ], [ -79.380568, 38.92171 ], [ -79.383568, 38.92261 ], [ -79.390069, 38.92331 ], [ -79.395969, 38.92251 ], [ -79.403569, 38.92311 ], [ -79.406569, 38.92281 ], [ -79.41567, 38.92301 ], [ -79.42187, 38.92761 ], [ -79.42427, 38.92911 ], [ -79.428571, 38.92941 ], [ -79.433971, 38.93071 ], [ -79.434971, 38.93121 ], [ -79.437971, 38.93091 ], [ -79.443371, 38.93261 ], [ -79.445571, 38.93131 ], [ -79.449572, 38.93041 ], [ -79.452072, 38.93051 ], [ -79.455472, 38.92991 ], [ -79.456272, 38.92871 ], [ -79.456972, 38.92461 ], [ -79.455672, 38.91861 ], [ -79.454571, 38.916509 ], [ -79.451564, 38.914186 ], [ -79.450361, 38.912774 ], [ -79.449866, 38.910862 ], [ -79.450167, 38.909162 ], [ -79.447072, 38.906497 ], [ -79.445871, 38.90461 ], [ -79.447971, 38.90291 ], [ -79.448271, 38.90201 ], [ -79.446171, 38.89931 ], [ -79.444471, 38.89861 ], [ -79.451571, 38.89791 ], [ -79.454471, 38.89691 ], [ -79.458972, 38.89581 ], [ -79.460786, 38.894003 ] ] ] } }
]
}
