{
"type": "FeatureCollection",
"name": "27213",
"crs": { "type": "name", "properties": { "name": "urn:ogc:def:crs:OGC:1.3:CRS84" } },
"features": [
{ "type": "Feature", "properties": { "Name": "", "Description": "" }, "geometry": { "type": "Polygon", "coordinates": [ [ [ -79.414999, 35.651764 ], [ -79.414501, 35.64489 ], [ -79.414055, 35.6438 ], [ -79.409926, 35.639407 ], [ -79.408772, 35.638569 ], [ -79.407545, 35.640207 ], [ -79.40578, 35.640334 ], [ -79.405956, 35.643107 ], [ -79.405282, 35.645401 ], [ -79.405393, 35.647485 ], [ -79.400575, 35.647924 ], [ -79.397806, 35.647786 ], [ -79.391, 35.646045 ], [ -79.38845, 35.646135 ], [ -79.388705, 35.647531 ], [ -79.387559, 35.648697 ], [ -79.390078, 35.650712 ], [ -79.400607, 35.651125 ], [ -79.414999, 35.651764 ] ] ] } }
]
}
