{
"type": "FeatureCollection",
"name": "27247",
"crs": { "type": "name", "properties": { "name": "urn:ogc:def:crs:OGC:1.3:CRS84" } },
"features": [
{ "type": "Feature", "properties": { "Name": "", "Description": "" }, "geometry": { "type": "Polygon", "coordinates": [ [ [ -79.797142, 35.472139 ], [ -79.796724, 35.470217 ], [ -79.797076, 35.468637 ], [ -79.793593, 35.442384 ], [ -79.792176, 35.441881 ], [ -79.786832, 35.443103 ], [ -79.784488, 35.439906 ], [ -79.781735, 35.440549 ], [ -79.778492, 35.439789 ], [ -79.775999, 35.439684 ], [ -79.776931, 35.442441 ], [ -79.784483, 35.460391 ], [ -79.785233, 35.463264 ], [ -79.78509, 35.465958 ], [ -79.780447, 35.489316 ], [ -79.784306, 35.4892 ], [ -79.786456, 35.490052 ], [ -79.787115, 35.489541 ], [ -79.785548, 35.487984 ], [ -79.785409, 35.486289 ], [ -79.786724, 35.484825 ], [ -79.788741, 35.481 ], [ -79.789331, 35.478573 ], [ -79.78922, 35.475436 ], [ -79.791767, 35.475254 ], [ -79.79619, 35.47317 ], [ -79.797142, 35.472139 ] ] ] } }
]
}
