{
"type": "FeatureCollection",
"name": "27259",
"crs": { "type": "name", "properties": { "name": "urn:ogc:def:crs:OGC:1.3:CRS84" } },
"features": [
{ "type": "Feature", "properties": { "Name": "", "Description": "" }, "geometry": { "type": "Polygon", "coordinates": [ [ [ -79.541469, 35.498957 ], [ -79.540695, 35.494544 ], [ -79.534443, 35.491121 ], [ -79.530035, 35.489194 ], [ -79.527281, 35.487149 ], [ -79.526094, 35.48518 ], [ -79.526855, 35.483287 ], [ -79.528506, 35.481634 ], [ -79.528855, 35.479277 ], [ -79.527059, 35.477771 ], [ -79.524444, 35.47901 ], [ -79.521343, 35.479176 ], [ -79.52031, 35.47868 ], [ -79.520348, 35.479497 ], [ -79.518046, 35.480819 ], [ -79.51733, 35.482767 ], [ -79.516071, 35.483746 ], [ -79.517792, 35.48573 ], [ -79.514057, 35.487445 ], [ -79.513224, 35.488875 ], [ -79.516329, 35.489326 ], [ -79.512395, 35.495167 ], [ -79.514855, 35.49578 ], [ -79.516483, 35.497932 ], [ -79.520783, 35.496719 ], [ -79.52605, 35.495547 ], [ -79.527277, 35.497885 ], [ -79.527944, 35.501372 ], [ -79.530101, 35.500638 ], [ -79.532336, 35.500744 ], [ -79.53455, 35.501749 ], [ -79.537657, 35.504182 ], [ -79.539285, 35.504591 ], [ -79.537864, 35.500887 ], [ -79.53814, 35.499729 ], [ -79.541469, 35.498957 ] ] ] } }
]
}
