{
"type": "FeatureCollection",
"name": "27256",
"crs": { "type": "name", "properties": { "name": "urn:ogc:def:crs:OGC:1.3:CRS84" } },
"features": [
{ "type": "Feature", "properties": { "Name": "", "Description": "" }, "geometry": { "type": "Polygon", "coordinates": [ [ [ -79.287837, 35.561063 ], [ -79.285937, 35.556505 ], [ -79.273124, 35.554508 ], [ -79.269449, 35.553214 ], [ -79.266827, 35.551882 ], [ -79.265603, 35.554481 ], [ -79.263422, 35.556587 ], [ -79.262658, 35.557089 ], [ -79.262177, 35.557342 ], [ -79.262217, 35.55945 ], [ -79.259469, 35.559439 ], [ -79.259122, 35.561469 ], [ -79.252644, 35.565982 ], [ -79.253466, 35.566821 ], [ -79.258592, 35.564141 ], [ -79.261753, 35.564683 ], [ -79.265712, 35.566086 ], [ -79.268007, 35.564789 ], [ -79.270225, 35.566921 ], [ -79.27391, 35.56706 ], [ -79.281301, 35.565475 ], [ -79.283991, 35.566243 ], [ -79.284487, 35.563823 ], [ -79.285033, 35.563058 ], [ -79.287837, 35.561063 ] ] ] } }
]
}
