{
"type": "FeatureCollection",
"name": "27342",
"crs": { "type": "name", "properties": { "name": "urn:ogc:def:crs:OGC:1.3:CRS84" } },
"features": [
{ "type": "Feature", "properties": { "Name": "", "Description": "" }, "geometry": { "type": "Polygon", "coordinates": [ [ [ -79.621562, 36.074523 ], [ -79.621543, 36.067608 ], [ -79.621535, 36.064609 ], [ -79.62152, 36.059043 ], [ -79.619925, 36.059182 ], [ -79.619981, 36.059535 ], [ -79.617851, 36.060269 ], [ -79.619196, 36.061131 ], [ -79.619132, 36.065407 ], [ -79.616771, 36.06529 ], [ -79.61147, 36.061884 ], [ -79.610855, 36.062741 ], [ -79.610592, 36.063634 ], [ -79.615463, 36.066293 ], [ -79.619622, 36.067209 ], [ -79.619206, 36.068355 ], [ -79.616023, 36.071445 ], [ -79.617916, 36.071844 ], [ -79.621562, 36.074523 ] ] ] } }
]
}
