{
"type": "FeatureCollection",
"name": "27351",
"crs": { "type": "name", "properties": { "name": "urn:ogc:def:crs:OGC:1.3:CRS84" } },
"features": [
{ "type": "Feature", "properties": { "Name": "", "Description": "" }, "geometry": { "type": "Polygon", "coordinates": [ [ [ -80.270857, 35.659077 ], [ -80.271694, 35.656913 ], [ -80.268087, 35.655893 ], [ -80.266454, 35.655781 ], [ -80.264487, 35.653821 ], [ -80.264305, 35.657265 ], [ -80.265177, 35.659462 ], [ -80.265547, 35.663251 ], [ -80.26584, 35.663518 ], [ -80.266222, 35.663987 ], [ -80.26699, 35.665014 ], [ -80.270007, 35.664207 ], [ -80.271338, 35.661713 ], [ -80.270857, 35.659077 ] ] ] } }
]
}
