{
"type": "FeatureCollection",
"name": "27374",
"crs": { "type": "name", "properties": { "name": "urn:ogc:def:crs:OGC:1.3:CRS84" } },
"features": [
{ "type": "Feature", "properties": { "Name": "", "Description": "" }, "geometry": { "type": "Polygon", "coordinates": [ [ [ -80.266246, 35.918092 ], [ -80.266533, 35.914062 ], [ -80.262756, 35.912667 ], [ -80.258007, 35.911576 ], [ -80.256765, 35.912321 ], [ -80.254319, 35.910809 ], [ -80.248955, 35.917228 ], [ -80.247689, 35.921329 ], [ -80.252409, 35.922012 ], [ -80.253582, 35.922276 ], [ -80.253649, 35.92125 ], [ -80.254678, 35.921095 ], [ -80.254823, 35.920293 ], [ -80.255074, 35.920152 ], [ -80.255968, 35.920186 ], [ -80.256055, 35.921294 ], [ -80.255794, 35.92309 ], [ -80.257054, 35.923615 ], [ -80.259848, 35.923728 ], [ -80.266052, 35.920946 ], [ -80.265495, 35.919509 ], [ -80.266246, 35.918092 ] ] ] } }
]
}
