{
"type": "FeatureCollection",
"name": "27411",
"crs": { "type": "name", "properties": { "name": "urn:ogc:def:crs:OGC:1.3:CRS84" } },
"features": [
{ "type": "Feature", "properties": { "Name": "", "Description": "" }, "geometry": { "type": "Polygon", "coordinates": [ [ [ -79.773996, 36.072555 ], [ -79.773769, 36.071882 ], [ -79.770405, 36.072862 ], [ -79.770264, 36.075009 ], [ -79.768138, 36.076664 ], [ -79.768632, 36.078573 ], [ -79.768956, 36.07999 ], [ -79.771488, 36.080135 ], [ -79.772922, 36.081121 ], [ -79.773641, 36.080396 ], [ -79.773996, 36.072555 ] ] ] } }
]
}
