{
"type": "FeatureCollection",
"name": "27412",
"crs": { "type": "name", "properties": { "name": "urn:ogc:def:crs:OGC:1.3:CRS84" } },
"features": [
{ "type": "Feature", "properties": { "Name": "", "Description": "" }, "geometry": { "type": "Polygon", "coordinates": [ [ [ -79.815159, 36.06851 ], [ -79.815334, 36.064709 ], [ -79.810202, 36.065974 ], [ -79.810227, 36.063895 ], [ -79.805199, 36.064547 ], [ -79.805523, 36.066509 ], [ -79.806934, 36.068135 ], [ -79.806775, 36.070402 ], [ -79.806574, 36.073355 ], [ -79.80687, 36.073385 ], [ -79.810474, 36.073683 ], [ -79.814738, 36.073883 ], [ -79.815159, 36.06851 ] ] ] } }
]
}
