{
"type": "FeatureCollection",
"name": "27506",
"crs": { "type": "name", "properties": { "name": "urn:ogc:def:crs:OGC:1.3:CRS84" } },
"features": [
{ "type": "Feature", "properties": { "Name": "", "Description": "" }, "geometry": { "type": "Polygon", "coordinates": [ [ [ -78.745157, 35.406346 ], [ -78.741405, 35.40519 ], [ -78.744443, 35.402238 ], [ -78.739833, 35.40223 ], [ -78.739472, 35.405506 ], [ -78.737162, 35.406547 ], [ -78.73688, 35.407141 ], [ -78.73171, 35.408744 ], [ -78.735125, 35.412668 ], [ -78.739588, 35.413109 ], [ -78.744387, 35.412503 ], [ -78.743536, 35.409848 ], [ -78.741396, 35.409901 ], [ -78.74059, 35.407178 ], [ -78.745157, 35.406346 ] ] ] } }
]
}
