{
"type": "FeatureCollection",
"name": "27533",
"crs": { "type": "name", "properties": { "name": "urn:ogc:def:crs:OGC:1.3:CRS84" } },
"features": [
{ "type": "Feature", "properties": { "Name": "", "Description": "" }, "geometry": { "type": "Polygon", "coordinates": [ [ [ -78.043006, 35.388185 ], [ -78.04286, 35.386975 ], [ -78.040583, 35.383141 ], [ -78.039023, 35.384268 ], [ -78.034027, 35.387882 ], [ -78.035153, 35.388923 ], [ -78.037526, 35.391116 ], [ -78.041386, 35.389492 ], [ -78.043006, 35.388185 ] ] ] } }
]
}
