{
"type": "FeatureCollection",
"name": "27584",
"crs": { "type": "name", "properties": { "name": "urn:ogc:def:crs:OGC:1.3:CRS84" } },
"features": [
{ "type": "Feature", "properties": { "Name": "", "Description": "" }, "geometry": { "type": "Polygon", "coordinates": [ [ [ -78.467002, 36.488209 ], [ -78.468729, 36.485692 ], [ -78.466519, 36.485028 ], [ -78.465017, 36.485303 ], [ -78.46683, 36.482442 ], [ -78.466319, 36.480978 ], [ -78.463883, 36.481596 ], [ -78.462175, 36.481427 ], [ -78.460454, 36.484549 ], [ -78.457989, 36.485671 ], [ -78.452463, 36.482742 ], [ -78.452689, 36.481483 ], [ -78.450366, 36.480133 ], [ -78.44773, 36.480065 ], [ -78.446059, 36.478943 ], [ -78.443824, 36.474926 ], [ -78.440194, 36.473131 ], [ -78.435553, 36.47171 ], [ -78.43141, 36.473709 ], [ -78.429422, 36.475151 ], [ -78.428568, 36.476422 ], [ -78.426868, 36.48403 ], [ -78.427106, 36.487502 ], [ -78.426679, 36.488893 ], [ -78.424101, 36.493423 ], [ -78.42321, 36.494394 ], [ -78.424893, 36.496448 ], [ -78.431759, 36.497867 ], [ -78.435407, 36.501095 ], [ -78.438689, 36.504973 ], [ -78.439563, 36.509136 ], [ -78.440369, 36.510248 ], [ -78.444272, 36.511342 ], [ -78.445909, 36.512925 ], [ -78.450136, 36.51533 ], [ -78.45448, 36.514266 ], [ -78.457321, 36.512907 ], [ -78.459929, 36.513387 ], [ -78.46163, 36.512906 ], [ -78.462593, 36.5108 ], [ -78.46245, 36.508398 ], [ -78.463329, 36.507116 ], [ -78.463328, 36.504919 ], [ -78.461854, 36.503249 ], [ -78.462696, 36.498576 ], [ -78.462639, 36.497021 ], [ -78.464283, 36.494503 ], [ -78.466096, 36.493198 ], [ -78.465273, 36.490452 ], [ -78.465726, 36.488873 ], [ -78.467002, 36.488209 ] ] ] } }
]
}
