{
"type": "FeatureCollection",
"name": "27599",
"crs": { "type": "name", "properties": { "name": "urn:ogc:def:crs:OGC:1.3:CRS84" } },
"features": [
{ "type": "Feature", "properties": { "Name": "", "Description": "" }, "geometry": { "type": "Polygon", "coordinates": [ [ [ -79.055426, 35.903806 ], [ -79.057044, 35.902028 ], [ -79.053445, 35.902093 ], [ -79.051973, 35.901414 ], [ -79.050384, 35.90303 ], [ -79.048837, 35.902944 ], [ -79.048459, 35.904639 ], [ -79.050309, 35.905714 ], [ -79.052839, 35.907162 ], [ -79.053459, 35.905447 ], [ -79.055147, 35.90409 ], [ -79.055426, 35.903806 ] ] ] } }
]
}
