{
"type": "FeatureCollection",
"name": "27593",
"crs": { "type": "name", "properties": { "name": "urn:ogc:def:crs:OGC:1.3:CRS84" } },
"features": [
{ "type": "Feature", "properties": { "Name": "", "Description": "" }, "geometry": { "type": "Polygon", "coordinates": [ [ [ -78.369037, 35.591601 ], [ -78.365867, 35.584664 ], [ -78.363857, 35.584103 ], [ -78.360489, 35.583555 ], [ -78.359662, 35.583281 ], [ -78.355526, 35.58111 ], [ -78.354415, 35.582435 ], [ -78.356091, 35.583728 ], [ -78.369037, 35.591601 ] ] ] } }
]
}
