{
"type": "FeatureCollection",
"name": "27594",
"crs": { "type": "name", "properties": { "name": "urn:ogc:def:crs:OGC:1.3:CRS84" } },
"features": [
{ "type": "Feature", "properties": { "Name": "", "Description": "" }, "geometry": { "type": "Polygon", "coordinates": [ [ [ -78.173686, 36.46355 ], [ -78.173664, 36.462182 ], [ -78.170663, 36.459376 ], [ -78.161382, 36.455011 ], [ -78.161298, 36.466038 ], [ -78.16202, 36.467282 ], [ -78.158519, 36.472467 ], [ -78.159843, 36.473769 ], [ -78.159861, 36.476937 ], [ -78.160649, 36.477785 ], [ -78.160723, 36.480377 ], [ -78.159439, 36.482142 ], [ -78.1598, 36.483771 ], [ -78.15907, 36.484702 ], [ -78.162147, 36.486645 ], [ -78.164105, 36.488859 ], [ -78.165461, 36.489356 ], [ -78.171427, 36.489293 ], [ -78.170888, 36.487306 ], [ -78.171213, 36.481262 ], [ -78.172091, 36.478556 ], [ -78.17185, 36.474409 ], [ -78.172672, 36.466286 ], [ -78.173686, 36.46355 ] ] ] } }
]
}
