{
"type": "FeatureCollection",
"name": "27695",
"crs": { "type": "name", "properties": { "name": "urn:ogc:def:crs:OGC:1.3:CRS84" } },
"features": [
{ "type": "Feature", "properties": { "Name": "", "Description": "" }, "geometry": { "type": "Polygon", "coordinates": [ [ [ -78.686925, 35.787948 ], [ -78.687006, 35.787018 ], [ -78.685044, 35.787593 ], [ -78.681606, 35.785747 ], [ -78.682268, 35.783757 ], [ -78.678793, 35.78227 ], [ -78.675199, 35.781231 ], [ -78.6719, 35.781619 ], [ -78.670892, 35.783263 ], [ -78.671993, 35.783847 ], [ -78.675625, 35.785103 ], [ -78.674774, 35.786604 ], [ -78.682079, 35.789448 ], [ -78.685021, 35.791193 ], [ -78.685627, 35.78967 ], [ -78.686275, 35.78894 ], [ -78.686925, 35.787948 ] ] ] } }
]
}
