{
"type": "FeatureCollection",
"name": "27708",
"crs": { "type": "name", "properties": { "name": "urn:ogc:def:crs:OGC:1.3:CRS84" } },
"features": [
{ "type": "Feature", "properties": { "Name": "", "Description": "" }, "geometry": { "type": "Polygon", "coordinates": [ [ [ -78.951406, 36.003124 ], [ -78.953322, 35.997668 ], [ -78.948617, 35.996128 ], [ -78.947039, 35.99505 ], [ -78.94527, 35.998696 ], [ -78.944166, 36.000081 ], [ -78.939069, 35.997712 ], [ -78.938749, 35.993553 ], [ -78.937609, 35.994025 ], [ -78.935891, 35.996075 ], [ -78.933178, 35.99745 ], [ -78.934358, 35.999682 ], [ -78.936418, 36.001117 ], [ -78.93559, 36.0021 ], [ -78.939332, 36.004117 ], [ -78.940862, 36.00614 ], [ -78.944334, 36.004893 ], [ -78.945653, 36.00369 ], [ -78.946949, 36.001401 ], [ -78.951406, 36.003124 ] ] ] } }
]
}
