{
"type": "FeatureCollection",
"name": "27815",
"crs": { "type": "name", "properties": { "name": "urn:ogc:def:crs:OGC:1.3:CRS84" } },
"features": [
{ "type": "Feature", "properties": { "Name": "", "Description": "" }, "geometry": { "type": "Polygon", "coordinates": [ [ [ -77.711159, 35.927991 ], [ -77.711122, 35.925806 ], [ -77.709997, 35.92321 ], [ -77.708022, 35.921589 ], [ -77.669806, 35.918423 ], [ -77.670528, 35.919307 ], [ -77.67247, 35.921019 ], [ -77.67312, 35.922084 ], [ -77.675059, 35.925584 ], [ -77.709727, 35.932613 ], [ -77.709591, 35.928623 ], [ -77.711159, 35.927991 ] ] ] } }
]
}
