{
"type": "FeatureCollection",
"name": "27877",
"crs": { "type": "name", "properties": { "name": "urn:ogc:def:crs:OGC:1.3:CRS84" } },
"features": [
{ "type": "Feature", "properties": { "Name": "", "Description": "" }, "geometry": { "type": "Polygon", "coordinates": [ [ [ -77.198769, 36.521264 ], [ -77.197097, 36.519576 ], [ -77.193296, 36.516958 ], [ -77.191384, 36.514689 ], [ -77.188027, 36.513199 ], [ -77.187822, 36.514391 ], [ -77.189294, 36.514319 ], [ -77.18792, 36.520535 ], [ -77.189081, 36.522136 ], [ -77.192024, 36.521204 ], [ -77.193973, 36.521498 ], [ -77.196305, 36.522318 ], [ -77.196984, 36.522315 ], [ -77.198769, 36.521264 ] ] ] } }
]
}
