{
"type": "FeatureCollection",
"name": "27969",
"crs": { "type": "name", "properties": { "name": "urn:ogc:def:crs:OGC:1.3:CRS84" } },
"features": [
{ "type": "Feature", "properties": { "Name": "", "Description": "" }, "geometry": { "type": "Polygon", "coordinates": [ [ [ -76.830329, 36.485694 ], [ -76.834012, 36.482681 ], [ -76.827003, 36.477592 ], [ -76.826526, 36.475576 ], [ -76.828139, 36.472414 ], [ -76.827748, 36.471113 ], [ -76.825053, 36.469828 ], [ -76.823863, 36.468639 ], [ -76.81915, 36.467124 ], [ -76.816077, 36.466938 ], [ -76.814604, 36.465824 ], [ -76.81445, 36.463225 ], [ -76.813846, 36.462865 ], [ -76.79908, 36.451361 ], [ -76.790284, 36.447144 ], [ -76.787262, 36.446107 ], [ -76.782607, 36.447242 ], [ -76.780543, 36.449935 ], [ -76.774785, 36.455708 ], [ -76.774506, 36.456919 ], [ -76.776443, 36.460385 ], [ -76.77643, 36.461459 ], [ -76.79481, 36.463034 ], [ -76.798282, 36.463001 ], [ -76.799958, 36.465912 ], [ -76.799237, 36.466727 ], [ -76.800949, 36.467335 ], [ -76.802617, 36.467249 ], [ -76.804481, 36.465952 ], [ -76.80849, 36.465539 ], [ -76.810451, 36.467177 ], [ -76.811386, 36.46894 ], [ -76.811273, 36.470886 ], [ -76.812435, 36.472397 ], [ -76.814221, 36.473266 ], [ -76.814079, 36.475098 ], [ -76.814901, 36.476174 ], [ -76.817679, 36.476883 ], [ -76.819947, 36.478142 ], [ -76.822811, 36.480751 ], [ -76.822783, 36.482583 ], [ -76.823831, 36.48551 ], [ -76.823318, 36.488501 ], [ -76.830329, 36.485694 ] ] ] } }
]
}
