{
"type": "FeatureCollection",
"name": "28024",
"crs": { "type": "name", "properties": { "name": "urn:ogc:def:crs:OGC:1.3:CRS84" } },
"features": [
{ "type": "Feature", "properties": { "Name": "", "Description": "" }, "geometry": { "type": "Polygon", "coordinates": [ [ [ -81.776841, 35.248256 ], [ -81.777774, 35.2471 ], [ -81.773991, 35.245994 ], [ -81.772399, 35.24468 ], [ -81.772401, 35.240595 ], [ -81.768727, 35.234835 ], [ -81.766598, 35.238713 ], [ -81.767345, 35.246916 ], [ -81.774597, 35.249359 ], [ -81.775785, 35.250605 ], [ -81.776841, 35.248256 ] ] ] } }
]
}
