{
"type": "FeatureCollection",
"name": "28042",
"crs": { "type": "name", "properties": { "name": "urn:ogc:def:crs:OGC:1.3:CRS84" } },
"features": [
{ "type": "Feature", "properties": { "Name": "", "Description": "" }, "geometry": { "type": "Polygon", "coordinates": [ [ [ -81.514509, 35.419245 ], [ -81.514009, 35.418143 ], [ -81.513072, 35.418062 ], [ -81.510953, 35.418049 ], [ -81.510337, 35.418043 ], [ -81.503245, 35.417899 ], [ -81.502333, 35.418034 ], [ -81.502158, 35.421416 ], [ -81.501269, 35.424836 ], [ -81.501461, 35.431802 ], [ -81.502854, 35.428816 ], [ -81.506075, 35.429095 ], [ -81.511935, 35.427724 ], [ -81.513533, 35.425135 ], [ -81.514509, 35.419245 ] ] ] } }
]
}
