{
"type": "FeatureCollection",
"name": "28041",
"crs": { "type": "name", "properties": { "name": "urn:ogc:def:crs:OGC:1.3:CRS84" } },
"features": [
{ "type": "Feature", "properties": { "Name": "", "Description": "" }, "geometry": { "type": "Polygon", "coordinates": [ [ [ -80.466091, 35.588122 ], [ -80.466125, 35.586758 ], [ -80.462731, 35.586772 ], [ -80.462363, 35.585806 ], [ -80.459468, 35.5865 ], [ -80.460009, 35.587654 ], [ -80.460365, 35.58901 ], [ -80.463416, 35.588708 ], [ -80.463179, 35.588038 ], [ -80.466091, 35.588122 ] ] ] } }
]
}
