{
"type": "FeatureCollection",
"name": "28074",
"crs": { "type": "name", "properties": { "name": "urn:ogc:def:crs:OGC:1.3:CRS84" } },
"features": [
{ "type": "Feature", "properties": { "Name": "", "Description": "" }, "geometry": { "type": "Polygon", "coordinates": [ [ [ -81.882672, 35.241239 ], [ -81.882233, 35.239473 ], [ -81.881376, 35.238148 ], [ -81.879086, 35.236207 ], [ -81.87754, 35.235834 ], [ -81.875983, 35.237369 ], [ -81.875069, 35.240094 ], [ -81.875153, 35.242497 ], [ -81.876277, 35.243337 ], [ -81.876822, 35.242006 ], [ -81.879986, 35.240756 ], [ -81.882672, 35.241239 ] ] ] } }
]
}
