{
"type": "FeatureCollection",
"name": "28136",
"crs": { "type": "name", "properties": { "name": "urn:ogc:def:crs:OGC:1.3:CRS84" } },
"features": [
{ "type": "Feature", "properties": { "Name": "", "Description": "" }, "geometry": { "type": "Polygon", "coordinates": [ [ [ -81.644336, 35.422686 ], [ -81.643986, 35.417419 ], [ -81.643709, 35.416542 ], [ -81.641494, 35.416633 ], [ -81.642927, 35.420124 ], [ -81.639601, 35.420809 ], [ -81.639447, 35.422633 ], [ -81.642328, 35.423429 ], [ -81.643123, 35.423648 ], [ -81.644336, 35.422686 ] ] ] } }
]
}
