{
"type": "FeatureCollection",
"name": "28223",
"crs": { "type": "name", "properties": { "name": "urn:ogc:def:crs:OGC:1.3:CRS84" } },
"features": [
{ "type": "Feature", "properties": { "Name": "", "Description": "" }, "geometry": { "type": "Polygon", "coordinates": [ [ [ -80.740346, 35.304324 ], [ -80.741312, 35.302049 ], [ -80.739294, 35.303136 ], [ -80.738157, 35.30297 ], [ -80.738391, 35.301705 ], [ -80.737048, 35.29876 ], [ -80.734052, 35.300127 ], [ -80.731274, 35.301424 ], [ -80.729253, 35.302524 ], [ -80.724273, 35.305949 ], [ -80.724663, 35.307187 ], [ -80.724371, 35.308156 ], [ -80.725444, 35.309813 ], [ -80.729257, 35.310895 ], [ -80.728381, 35.312931 ], [ -80.731258, 35.315473 ], [ -80.732031, 35.319694 ], [ -80.736253, 35.318051 ], [ -80.736788, 35.31137 ], [ -80.738281, 35.306996 ], [ -80.740346, 35.304324 ] ] ] } }
]
}
