{
"type": "FeatureCollection",
"name": "28331",
"crs": { "type": "name", "properties": { "name": "urn:ogc:def:crs:OGC:1.3:CRS84" } },
"features": [
{ "type": "Feature", "properties": { "Name": "", "Description": "" }, "geometry": { "type": "Polygon", "coordinates": [ [ [ -78.655151, 35.203518 ], [ -78.657834, 35.198861 ], [ -78.64842, 35.194285 ], [ -78.648761, 35.1922 ], [ -78.648271, 35.190038 ], [ -78.64284, 35.191792 ], [ -78.640911, 35.192916 ], [ -78.641033, 35.193478 ], [ -78.641533, 35.194048 ], [ -78.644396, 35.195986 ], [ -78.646385, 35.196679 ], [ -78.646765, 35.197429 ], [ -78.646446, 35.198569 ], [ -78.646183, 35.19898 ], [ -78.643617, 35.199335 ], [ -78.642709, 35.200913 ], [ -78.643109, 35.202768 ], [ -78.648172, 35.202003 ], [ -78.649435, 35.205493 ], [ -78.653104, 35.206838 ], [ -78.654629, 35.206737 ], [ -78.655151, 35.203518 ] ] ] } }
]
}
