{
"type": "FeatureCollection",
"name": "28362",
"crs": { "type": "name", "properties": { "name": "urn:ogc:def:crs:OGC:1.3:CRS84" } },
"features": [
{ "type": "Feature", "properties": { "Name": "", "Description": "" }, "geometry": { "type": "Polygon", "coordinates": [ [ [ -79.134125, 34.368753 ], [ -79.134524, 34.364185 ], [ -79.134016, 34.362649 ], [ -79.122291, 34.368891 ], [ -79.120848, 34.367021 ], [ -79.120503, 34.371213 ], [ -79.123094, 34.369932 ], [ -79.128944, 34.377528 ], [ -79.132953, 34.370958 ], [ -79.134125, 34.368753 ] ] ] } }
]
}
