{
"type": "FeatureCollection",
"name": "28368",
"crs": { "type": "name", "properties": { "name": "urn:ogc:def:crs:OGC:1.3:CRS84" } },
"features": [
{ "type": "Feature", "properties": { "Name": "", "Description": "" }, "geometry": { "type": "Polygon", "coordinates": [ [ [ -79.118386, 35.372669 ], [ -79.115195, 35.367746 ], [ -79.115425, 35.366164 ], [ -79.114451, 35.363805 ], [ -79.114154, 35.359476 ], [ -79.111944, 35.359524 ], [ -79.109864, 35.359571 ], [ -79.111405, 35.368453 ], [ -79.110982, 35.374623 ], [ -79.110397, 35.376924 ], [ -79.110839, 35.377194 ], [ -79.110805, 35.380283 ], [ -79.112534, 35.378545 ], [ -79.118386, 35.372669 ] ] ] } }
]
}
