{
"type": "FeatureCollection",
"name": "28378",
"crs": { "type": "name", "properties": { "name": "urn:ogc:def:crs:OGC:1.3:CRS84" } },
"features": [
{ "type": "Feature", "properties": { "Name": "", "Description": "" }, "geometry": { "type": "Polygon", "coordinates": [ [ [ -79.06338, 34.863108 ], [ -79.06163, 34.858701 ], [ -79.061701, 34.856575 ], [ -79.055335, 34.855839 ], [ -79.053856, 34.856124 ], [ -79.048815, 34.857328 ], [ -79.048618, 34.85546 ], [ -79.055103, 34.846977 ], [ -79.052075, 34.847508 ], [ -79.048239, 34.845281 ], [ -79.046873, 34.848723 ], [ -79.044373, 34.851408 ], [ -79.036793, 34.845059 ], [ -79.036364, 34.845363 ], [ -79.045581, 34.859423 ], [ -79.040651, 34.865598 ], [ -79.047144, 34.867104 ], [ -79.050814, 34.867456 ], [ -79.052477, 34.869727 ], [ -79.054197, 34.871433 ], [ -79.055061, 34.87111 ], [ -79.055296, 34.868746 ], [ -79.058036, 34.865048 ], [ -79.061509, 34.863299 ], [ -79.06338, 34.863108 ] ] ] } }
]
}
