{
"type": "FeatureCollection",
"name": "28542",
"crs": { "type": "name", "properties": { "name": "urn:ogc:def:crs:OGC:1.3:CRS84" } },
"features": [
{ "type": "Feature", "properties": { "Name": "", "Description": "" }, "geometry": { "type": "Polygon", "coordinates": [ [ [ -77.479674, 34.71541 ], [ -77.478181, 34.714729 ], [ -77.478799, 34.712937 ], [ -77.476959, 34.711436 ], [ -77.47612, 34.714267 ], [ -77.472044, 34.717028 ], [ -77.47153, 34.717824 ], [ -77.471681, 34.720822 ], [ -77.470197, 34.722301 ], [ -77.469518, 34.725819 ], [ -77.468231, 34.726351 ], [ -77.466151, 34.72499 ], [ -77.464003, 34.724345 ], [ -77.456862, 34.724324 ], [ -77.456965, 34.727514 ], [ -77.451476, 34.727633 ], [ -77.451403, 34.729354 ], [ -77.452374, 34.729479 ], [ -77.452462, 34.732386 ], [ -77.450694, 34.729675 ], [ -77.445303, 34.730151 ], [ -77.443049, 34.728629 ], [ -77.440272, 34.729621 ], [ -77.43812, 34.729552 ], [ -77.443605, 34.732337 ], [ -77.445578, 34.733669 ], [ -77.45309, 34.741021 ], [ -77.45545, 34.741567 ], [ -77.458993, 34.740989 ], [ -77.461673, 34.739142 ], [ -77.464983, 34.738061 ], [ -77.46741, 34.736646 ], [ -77.472221, 34.731107 ], [ -77.474364, 34.728866 ], [ -77.479674, 34.71541 ] ] ] } }
]
}
