{
"type": "FeatureCollection",
"name": "28641",
"crs": { "type": "name", "properties": { "name": "urn:ogc:def:crs:OGC:1.3:CRS84" } },
"features": [
{ "type": "Feature", "properties": { "Name": "", "Description": "" }, "geometry": { "type": "Polygon", "coordinates": [ [ [ -81.898679, 35.98231 ], [ -81.901361, 35.980304 ], [ -81.898484, 35.979502 ], [ -81.898726, 35.977926 ], [ -81.895142, 35.976915 ], [ -81.894921, 35.97284 ], [ -81.892721, 35.97577 ], [ -81.893233, 35.977186 ], [ -81.897239, 35.977928 ], [ -81.897574, 35.981699 ], [ -81.896213, 35.983482 ], [ -81.897922, 35.98443 ], [ -81.898679, 35.98231 ] ] ] } }
]
}
