{
"type": "FeatureCollection",
"name": "28664",
"crs": { "type": "name", "properties": { "name": "urn:ogc:def:crs:OGC:1.3:CRS84" } },
"features": [
{ "type": "Feature", "properties": { "Name": "", "Description": "" }, "geometry": { "type": "Polygon", "coordinates": [ [ [ -82.013937, 36.05293 ], [ -82.011921, 36.051418 ], [ -82.010568, 36.049294 ], [ -82.008685, 36.044907 ], [ -82.010682, 36.043159 ], [ -82.011884, 36.039761 ], [ -82.011571, 36.037305 ], [ -82.010257, 36.032925 ], [ -82.010906, 36.031629 ], [ -82.009738, 36.030119 ], [ -82.006555, 36.030078 ], [ -82.001515, 36.031682 ], [ -82.000195, 36.032917 ], [ -81.994247, 36.035743 ], [ -81.993681, 36.03577 ], [ -81.996944, 36.03637 ], [ -81.999106, 36.034562 ], [ -82.002515, 36.033315 ], [ -82.002629, 36.035716 ], [ -82.001345, 36.041569 ], [ -82.001763, 36.043729 ], [ -82.001431, 36.047708 ], [ -82.000553, 36.050891 ], [ -82.000965, 36.054343 ], [ -82.004044, 36.054477 ], [ -82.005738, 36.054452 ], [ -82.011259, 36.053725 ], [ -82.013937, 36.05293 ] ] ] } }
]
}
