{
"type": "FeatureCollection",
"name": "28710",
"crs": { "type": "name", "properties": { "name": "urn:ogc:def:crs:OGC:1.3:CRS84" } },
"features": [
{ "type": "Feature", "properties": { "Name": "", "Description": "" }, "geometry": { "type": "Polygon", "coordinates": [ [ [ -82.289037, 35.457702 ], [ -82.290157, 35.45222 ], [ -82.286324, 35.451131 ], [ -82.281778, 35.449043 ], [ -82.277238, 35.448125 ], [ -82.276844, 35.448355 ], [ -82.276296, 35.448921 ], [ -82.26698, 35.465709 ], [ -82.267706, 35.466266 ], [ -82.268984, 35.466036 ], [ -82.270486, 35.463866 ], [ -82.274655, 35.462144 ], [ -82.277549, 35.462513 ], [ -82.284127, 35.464433 ], [ -82.284908, 35.461847 ], [ -82.287871, 35.460125 ], [ -82.289037, 35.457702 ] ] ] } }
]
}
