{
"type": "FeatureCollection",
"name": "28755",
"crs": { "type": "name", "properties": { "name": "urn:ogc:def:crs:OGC:1.3:CRS84" } },
"features": [
{ "type": "Feature", "properties": { "Name": "", "Description": "" }, "geometry": { "type": "Polygon", "coordinates": [ [ [ -82.22363, 35.910782 ], [ -82.222149, 35.910143 ], [ -82.220697, 35.908057 ], [ -82.215798, 35.9075 ], [ -82.215102, 35.905366 ], [ -82.214584, 35.904683 ], [ -82.213548, 35.905476 ], [ -82.215366, 35.907499 ], [ -82.213504, 35.908192 ], [ -82.213095, 35.909359 ], [ -82.216935, 35.908378 ], [ -82.221934, 35.910689 ], [ -82.22363, 35.910782 ] ] ] } }
]
}
