{
"type": "FeatureCollection",
"name": "28770",
"crs": { "type": "name", "properties": { "name": "urn:ogc:def:crs:OGC:1.3:CRS84" } },
"features": [
{ "type": "Feature", "properties": { "Name": "", "Description": "" }, "geometry": { "type": "Polygon", "coordinates": [ [ [ -82.287088, 35.620219 ], [ -82.287062, 35.619122 ], [ -82.287043, 35.617697 ], [ -82.277443, 35.618537 ], [ -82.27389, 35.619939 ], [ -82.272149, 35.621778 ], [ -82.272651, 35.621949 ], [ -82.271862, 35.623276 ], [ -82.271711, 35.624244 ], [ -82.27556, 35.624049 ], [ -82.277714, 35.625511 ], [ -82.279033, 35.62345 ], [ -82.279349, 35.622664 ], [ -82.279182, 35.622077 ], [ -82.277806, 35.620872 ], [ -82.277132, 35.620947 ], [ -82.278732, 35.620101 ], [ -82.280307, 35.619572 ], [ -82.281756, 35.619511 ], [ -82.287088, 35.620219 ] ] ] } }
]
}
