{
"type": "FeatureCollection",
"name": "28788",
"crs": { "type": "name", "properties": { "name": "urn:ogc:def:crs:OGC:1.3:CRS84" } },
"features": [
{ "type": "Feature", "properties": { "Name": "", "Description": "" }, "geometry": { "type": "Polygon", "coordinates": [ [ [ -83.228321, 35.359418 ], [ -83.228706, 35.356618 ], [ -83.225761, 35.350276 ], [ -83.225405, 35.350164 ], [ -83.224949, 35.349519 ], [ -83.224598, 35.347653 ], [ -83.224897, 35.345422 ], [ -83.226154, 35.343252 ], [ -83.226446, 35.340682 ], [ -83.222094, 35.339806 ], [ -83.220993, 35.3398 ], [ -83.22153, 35.341105 ], [ -83.220465, 35.341745 ], [ -83.219539, 35.343633 ], [ -83.216267, 35.344051 ], [ -83.215511, 35.344947 ], [ -83.217003, 35.344963 ], [ -83.219331, 35.346173 ], [ -83.217655, 35.347619 ], [ -83.217025, 35.348714 ], [ -83.217176, 35.352743 ], [ -83.215755, 35.354412 ], [ -83.216583, 35.355124 ], [ -83.217139, 35.354164 ], [ -83.218247, 35.353541 ], [ -83.218881, 35.351944 ], [ -83.219168, 35.350119 ], [ -83.219569, 35.349102 ], [ -83.219348, 35.350412 ], [ -83.219753, 35.352124 ], [ -83.219753, 35.354276 ], [ -83.219481, 35.355125 ], [ -83.221882, 35.357313 ], [ -83.222321, 35.360852 ], [ -83.228321, 35.359418 ] ] ] } }
]
}
