{
"type": "FeatureCollection",
"name": "29177",
"crs": { "type": "name", "properties": { "name": "urn:ogc:def:crs:OGC:1.3:CRS84" } },
"features": [
{ "type": "Feature", "properties": { "Name": "", "Description": "" }, "geometry": { "type": "Polygon", "coordinates": [ [ [ -81.271675, 34.14207 ], [ -81.272666, 34.141189 ], [ -81.270836, 34.139775 ], [ -81.268808, 34.136821 ], [ -81.265719, 34.138713 ], [ -81.26166, 34.141252 ], [ -81.263788, 34.142029 ], [ -81.268575, 34.143437 ], [ -81.269888, 34.14186 ], [ -81.271675, 34.14207 ] ] ] } }
]
}
