{
"type": "FeatureCollection",
"name": "29425",
"crs": { "type": "name", "properties": { "name": "urn:ogc:def:crs:OGC:1.3:CRS84" } },
"features": [
{ "type": "Feature", "properties": { "Name": "", "Description": "" }, "geometry": { "type": "Polygon", "coordinates": [ [ [ -79.951746, 32.787015 ], [ -79.950176, 32.784373 ], [ -79.948447, 32.784651 ], [ -79.947584, 32.782697 ], [ -79.946918, 32.782889 ], [ -79.945566, 32.783258 ], [ -79.946622, 32.785543 ], [ -79.947388, 32.787222 ], [ -79.950006, 32.786385 ], [ -79.951746, 32.787015 ] ] ] } }
]
}
