{
"type": "FeatureCollection",
"name": "29486",
"crs": { "type": "name", "properties": { "name": "urn:ogc:def:crs:OGC:1.3:CRS84" } },
"features": [
{ "type": "Feature", "properties": { "Name": "", "Description": "" }, "geometry": { "type": "Polygon", "coordinates": [ [ [ -80.235694, 33.098284 ], [ -80.239546, 33.09853 ], [ -80.232353, 33.094209 ], [ -80.228341, 33.092106 ], [ -80.211809, 33.08437 ], [ -80.207477, 33.08184 ], [ -80.207186, 33.082051 ], [ -80.167904, 33.056278 ], [ -80.166311, 33.055149 ], [ -80.166186, 33.055056 ], [ -80.160504, 33.050058 ], [ -80.148419, 33.038213 ], [ -80.146558, 33.036361 ], [ -80.146432, 33.036406 ], [ -80.14562, 33.035442 ], [ -80.145249, 33.035078 ], [ -80.145583, 33.034898 ], [ -80.136602, 33.026452 ], [ -80.128328, 33.020974 ], [ -80.124456, 33.018596 ], [ -80.124236, 33.018848 ], [ -80.123328, 33.019898 ], [ -80.122713, 33.020619 ], [ -80.124195, 33.021214 ], [ -80.122929, 33.023256 ], [ -80.111808, 33.032788 ], [ -80.11145, 33.030802 ], [ -80.111051, 33.031214 ], [ -80.108739, 33.029544 ], [ -80.110613, 33.025033 ], [ -80.110257, 33.023747 ], [ -80.107477, 33.024602 ], [ -80.103636, 33.023662 ], [ -80.104013, 33.024676 ], [ -80.103018, 33.024339 ], [ -80.101345, 33.02748 ], [ -80.098661, 33.028152 ], [ -80.098768, 33.029209 ], [ -80.09847, 33.02915 ], [ -80.098103, 33.030406 ], [ -80.09894, 33.032685 ], [ -80.098972, 33.03314 ], [ -80.095992, 33.035702 ], [ -80.090739, 33.028157 ], [ -80.09036, 33.028123 ], [ -80.090136, 33.02754 ], [ -80.089264, 33.024163 ], [ -80.088739, 33.021955 ], [ -80.088724, 33.021831 ], [ -80.088459, 33.025943 ], [ -80.085117, 33.025817 ], [ -80.084408, 33.028036 ], [ -80.082611, 33.033583 ], [ -80.080927, 33.038809 ], [ -80.073622, 33.042008 ], [ -80.074331, 33.041577 ], [ -80.071725, 33.03982 ], [ -80.070889, 33.040634 ], [ -80.063408, 33.036187 ], [ -80.063299, 33.036287 ], [ -80.062595, 33.036554 ], [ -80.06194, 33.035389 ], [ -80.06108, 33.035042 ], [ -80.058734, 33.034335 ], [ -80.05789, 33.034178 ], [ -80.057564, 33.034119 ], [ -80.055193, 33.033471 ], [ -80.05412, 33.033172 ], [ -80.051179, 33.032799 ], [ -80.050111, 33.04686 ], [ -80.050031, 33.050054 ], [ -80.044176, 33.051243 ], [ -80.042144, 33.0519 ], [ -80.040698, 33.052702 ], [ -80.041481, 33.052276 ], [ -80.044178, 33.055995 ], [ -80.045243, 33.058958 ], [ -80.046495, 33.05992 ], [ -80.049746, 33.061183 ], [ -80.049757, 33.062006 ], [ -80.051461, 33.061116 ], [ -80.0571, 33.063534 ], [ -80.059218, 33.062996 ], [ -80.063291, 33.060865 ], [ -80.066549, 33.060088 ], [ -80.073328, 33.059562 ], [ -80.075481, 33.055896 ], [ -80.078362, 33.056966 ], [ -80.077772, 33.06267 ], [ -80.077337, 33.063684 ], [ -80.08081, 33.063349 ], [ -80.083859, 33.061838 ], [ -80.08549, 33.060165 ], [ -80.090225, 33.067059 ], [ -80.090414, 33.067219 ], [ -80.093376, 33.063497 ], [ -80.1015, 33.073304 ], [ -80.102805, 33.074886 ], [ -80.10468, 33.077147 ], [ -80.105798, 33.0785 ], [ -80.104484, 33.079247 ], [ -80.105148, 33.081459 ], [ -80.101403, 33.083515 ], [ -80.104999, 33.087443 ], [ -80.105849, 33.089715 ], [ -80.101801, 33.092685 ], [ -80.100096, 33.09257 ], [ -80.101213, 33.093312 ], [ -80.101037, 33.09467 ], [ -80.097843, 33.099197 ], [ -80.098173, 33.101368 ], [ -80.101449, 33.10336 ], [ -80.10189, 33.104769 ], [ -80.103035, 33.104355 ], [ -80.107415, 33.107268 ], [ -80.106623, 33.10765 ], [ -80.105132, 33.109734 ], [ -80.103576, 33.111752 ], [ -80.102095, 33.113026 ], [ -80.096074, 33.117908 ], [ -80.092162, 33.121046 ], [ -80.088572, 33.127163 ], [ -80.087943, 33.127882 ], [ -80.086606, 33.129033 ], [ -80.085632, 33.130439 ], [ -80.084793, 33.130562 ], [ -80.082398, 33.131269 ], [ -80.081258, 33.13357 ], [ -80.081214, 33.137518 ], [ -80.080172, 33.13923 ], [ -80.078103, 33.1456 ], [ -80.07816, 33.146382 ], [ -80.078407, 33.147163 ], [ -80.084641, 33.157984 ], [ -80.086201, 33.157985 ], [ -80.089708, 33.157866 ], [ -80.109122, 33.152712 ], [ -80.114884, 33.151179 ], [ -80.114313, 33.147657 ], [ -80.114787, 33.146818 ], [ -80.119771, 33.145655 ], [ -80.121263, 33.14943 ], [ -80.124518, 33.148526 ], [ -80.122243, 33.144419 ], [ -80.124818, 33.144257 ], [ -80.126825, 33.1479 ], [ -80.14045, 33.144061 ], [ -80.142335, 33.14297 ], [ -80.140521, 33.140092 ], [ -80.143429, 33.13887 ], [ -80.14669, 33.142306 ], [ -80.148483, 33.141806 ], [ -80.155466, 33.139224 ], [ -80.157053, 33.140467 ], [ -80.160695, 33.142382 ], [ -80.160831, 33.14245 ], [ -80.173309, 33.149033 ], [ -80.175328, 33.150782 ], [ -80.172449, 33.15489 ], [ -80.170867, 33.156127 ], [ -80.170592, 33.157193 ], [ -80.171114, 33.159492 ], [ -80.168911, 33.161064 ], [ -80.168571, 33.161966 ], [ -80.169086, 33.165529 ], [ -80.168262, 33.167981 ], [ -80.16411, 33.169531 ], [ -80.163829, 33.170295 ], [ -80.164704, 33.172544 ], [ -80.16282, 33.175353 ], [ -80.162185, 33.17742 ], [ -80.162524, 33.180868 ], [ -80.163119, 33.183012 ], [ -80.163066, 33.184876 ], [ -80.163784, 33.18768 ], [ -80.163378, 33.188928 ], [ -80.16192, 33.190017 ], [ -80.16118, 33.192667 ], [ -80.157798, 33.196845 ], [ -80.155083, 33.198153 ], [ -80.153617, 33.200687 ], [ -80.148396, 33.205244 ], [ -80.148513, 33.206118 ], [ -80.146348, 33.207365 ], [ -80.168418, 33.222511 ], [ -80.168379, 33.222986 ], [ -80.172231, 33.228457 ], [ -80.174334, 33.226044 ], [ -80.200827, 33.198678 ], [ -80.203685, 33.195532 ], [ -80.211099, 33.188207 ], [ -80.217918, 33.181307 ], [ -80.191645, 33.162725 ], [ -80.195395, 33.161489 ], [ -80.197995, 33.159491 ], [ -80.19653, 33.156688 ], [ -80.196772, 33.154252 ], [ -80.190078, 33.15224 ], [ -80.189804, 33.151388 ], [ -80.186764, 33.148325 ], [ -80.183189, 33.146071 ], [ -80.181359, 33.144377 ], [ -80.181967, 33.142667 ], [ -80.185085, 33.141623 ], [ -80.188281, 33.138945 ], [ -80.190301, 33.137999 ], [ -80.192843, 33.135382 ], [ -80.195372, 33.132292 ], [ -80.197358, 33.128404 ], [ -80.198756, 33.126936 ], [ -80.202276, 33.121215 ], [ -80.20323, 33.120264 ], [ -80.207143, 33.11846 ], [ -80.208724, 33.117129 ], [ -80.21416, 33.113339 ], [ -80.217425, 33.109209 ], [ -80.220267, 33.107213 ], [ -80.221155, 33.105066 ], [ -80.225492, 33.103445 ], [ -80.227877, 33.103455 ], [ -80.233924, 33.098669 ], [ -80.235694, 33.098284 ] ] ] } }
]
}
