{
"type": "FeatureCollection",
"name": "29589",
"crs": { "type": "name", "properties": { "name": "urn:ogc:def:crs:OGC:1.3:CRS84" } },
"features": [
{ "type": "Feature", "properties": { "Name": "", "Description": "" }, "geometry": { "type": "Polygon", "coordinates": [ [ [ -79.325565, 34.105712 ], [ -79.326585, 34.102165 ], [ -79.32086, 34.096856 ], [ -79.318551, 34.092809 ], [ -79.316524, 34.096196 ], [ -79.319161, 34.097279 ], [ -79.316211, 34.097534 ], [ -79.315179, 34.099658 ], [ -79.31464, 34.103269 ], [ -79.317134, 34.104332 ], [ -79.318463, 34.103408 ], [ -79.320415, 34.102017 ], [ -79.323881, 34.104826 ], [ -79.323301, 34.106012 ], [ -79.325565, 34.105712 ] ] ] } }
]
}
