{
"type": "FeatureCollection",
"name": "30018",
"crs": { "type": "name", "properties": { "name": "urn:ogc:def:crs:OGC:1.3:CRS84" } },
"features": [
{ "type": "Feature", "properties": { "Name": "", "Description": "" }, "geometry": { "type": "Polygon", "coordinates": [ [ [ -83.808518, 33.719334 ], [ -83.808641, 33.715651 ], [ -83.806785, 33.712853 ], [ -83.804547, 33.7113 ], [ -83.803656, 33.711342 ], [ -83.802295, 33.71144 ], [ -83.799299, 33.715637 ], [ -83.798575, 33.71495 ], [ -83.797561, 33.714457 ], [ -83.79339, 33.71297 ], [ -83.791694, 33.715657 ], [ -83.791368, 33.718725 ], [ -83.792132, 33.72083 ], [ -83.793829, 33.722831 ], [ -83.798451, 33.72073 ], [ -83.801312, 33.720427 ], [ -83.801404, 33.721669 ], [ -83.803394, 33.721874 ], [ -83.80531, 33.722319 ], [ -83.80616, 33.722527 ], [ -83.808518, 33.719334 ] ] ] } }
]
}
