{
"type": "FeatureCollection",
"name": "30111",
"crs": { "type": "name", "properties": { "name": "urn:ogc:def:crs:OGC:1.3:CRS84" } },
"features": [
{ "type": "Feature", "properties": { "Name": "", "Description": "" }, "geometry": { "type": "Polygon", "coordinates": [ [ [ -84.662989, 33.838782 ], [ -84.663, 33.837145 ], [ -84.662895, 33.835474 ], [ -84.660058, 33.834355 ], [ -84.657072, 33.828002 ], [ -84.655157, 33.826764 ], [ -84.651421, 33.822691 ], [ -84.649602, 33.8243 ], [ -84.645531, 33.826211 ], [ -84.646397, 33.827491 ], [ -84.648044, 33.82984 ], [ -84.648212, 33.830067 ], [ -84.648326, 33.830239 ], [ -84.648594, 33.830533 ], [ -84.648836, 33.830713 ], [ -84.650383, 33.829908 ], [ -84.652738, 33.83006 ], [ -84.652112, 33.828407 ], [ -84.652813, 33.827675 ], [ -84.655801, 33.827396 ], [ -84.655336, 33.829041 ], [ -84.655848, 33.83033 ], [ -84.654574, 33.830382 ], [ -84.655028, 33.832211 ], [ -84.653512, 33.832637 ], [ -84.65126, 33.832243 ], [ -84.651224, 33.833333 ], [ -84.654708, 33.833364 ], [ -84.654668, 33.838824 ], [ -84.657786, 33.838824 ], [ -84.65779, 33.839486 ], [ -84.662984, 33.839466 ], [ -84.662989, 33.838782 ] ] ] } }
]
}
