{
"type": "FeatureCollection",
"name": "30229",
"crs": { "type": "name", "properties": { "name": "urn:ogc:def:crs:OGC:1.3:CRS84" } },
"features": [
{ "type": "Feature", "properties": { "Name": "", "Description": "" }, "geometry": { "type": "Polygon", "coordinates": [ [ [ -84.571428, 33.22775 ], [ -84.571305, 33.226228 ], [ -84.569935, 33.226374 ], [ -84.570013, 33.225195 ], [ -84.569491, 33.225233 ], [ -84.569481, 33.226452 ], [ -84.569557, 33.227397 ], [ -84.569352, 33.227598 ], [ -84.569309, 33.229846 ], [ -84.571302, 33.229722 ], [ -84.571428, 33.22775 ] ] ] } }
]
}
