{
"type": "FeatureCollection",
"name": "30414",
"crs": { "type": "name", "properties": { "name": "urn:ogc:def:crs:OGC:1.3:CRS84" } },
"features": [
{ "type": "Feature", "properties": { "Name": "", "Description": "" }, "geometry": { "type": "Polygon", "coordinates": [ [ [ -81.997519, 32.160794 ], [ -81.996476, 32.15811 ], [ -81.996359, 32.156295 ], [ -81.982836, 32.153847 ], [ -81.974344, 32.152372 ], [ -81.974322, 32.152571 ], [ -81.973593, 32.156484 ], [ -81.982774, 32.157413 ], [ -81.989379, 32.158123 ], [ -81.991558, 32.159045 ], [ -81.997519, 32.160794 ] ] ] } }
]
}
