{
"type": "FeatureCollection",
"name": "30539",
"crs": { "type": "name", "properties": { "name": "urn:ogc:def:crs:OGC:1.3:CRS84" } },
"features": [
{ "type": "Feature", "properties": { "Name": "", "Description": "" }, "geometry": { "type": "Polygon", "coordinates": [ [ [ -84.477346, 34.676778 ], [ -84.477142, 34.675651 ], [ -84.474737, 34.675648 ], [ -84.471314, 34.675905 ], [ -84.471121, 34.675472 ], [ -84.469464, 34.677196 ], [ -84.467994, 34.676648 ], [ -84.466815, 34.676696 ], [ -84.465539, 34.679202 ], [ -84.465013, 34.683032 ], [ -84.464335, 34.68479 ], [ -84.46627, 34.686357 ], [ -84.471201, 34.685364 ], [ -84.472973, 34.683977 ], [ -84.474349, 34.680097 ], [ -84.477346, 34.676778 ] ] ] } }
]
}
