{
"type": "FeatureCollection",
"name": "30597",
"crs": { "type": "name", "properties": { "name": "urn:ogc:def:crs:OGC:1.3:CRS84" } },
"features": [
{ "type": "Feature", "properties": { "Name": "", "Description": "" }, "geometry": { "type": "Polygon", "coordinates": [ [ [ -83.988263, 34.529188 ], [ -83.988349, 34.527387 ], [ -83.987045, 34.526468 ], [ -83.986604, 34.524799 ], [ -83.98258, 34.524355 ], [ -83.980538, 34.527879 ], [ -83.983254, 34.530501 ], [ -83.987619, 34.53039 ], [ -83.988263, 34.529188 ] ] ] } }
]
}
