{
"type": "FeatureCollection",
"name": "30598",
"crs": { "type": "name", "properties": { "name": "urn:ogc:def:crs:OGC:1.3:CRS84" } },
"features": [
{ "type": "Feature", "properties": { "Name": "", "Description": "" }, "geometry": { "type": "Polygon", "coordinates": [ [ [ -83.356617, 34.595995 ], [ -83.355795, 34.594454 ], [ -83.35351, 34.594905 ], [ -83.353178, 34.595199 ], [ -83.352787, 34.595437 ], [ -83.352324, 34.595639 ], [ -83.351799, 34.595762 ], [ -83.35156, 34.595766 ], [ -83.351528, 34.597461 ], [ -83.352341, 34.597461 ], [ -83.353356, 34.598816 ], [ -83.356407, 34.598166 ], [ -83.35549, 34.596316 ], [ -83.356617, 34.595995 ] ] ] } }
]
}
