{
"type": "FeatureCollection",
"name": "30724",
"crs": { "type": "name", "properties": { "name": "urn:ogc:def:crs:OGC:1.3:CRS84" } },
"features": [
{ "type": "Feature", "properties": { "Name": "", "Description": "" }, "geometry": { "type": "Polygon", "coordinates": [ [ [ -84.76018, 34.826431 ], [ -84.761004, 34.824022 ], [ -84.756887, 34.823908 ], [ -84.757166, 34.822402 ], [ -84.756579, 34.823062 ], [ -84.754841, 34.826407 ], [ -84.757282, 34.826891 ], [ -84.759687, 34.826924 ], [ -84.76018, 34.826431 ] ] ] } }
]
}
