{
"type": "FeatureCollection",
"name": "31004",
"crs": { "type": "name", "properties": { "name": "urn:ogc:def:crs:OGC:1.3:CRS84" } },
"features": [
{ "type": "Feature", "properties": { "Name": "", "Description": "" }, "geometry": { "type": "Polygon", "coordinates": [ [ [ -83.812115, 32.956997 ], [ -83.812111, 32.953918 ], [ -83.80879, 32.953343 ], [ -83.807035, 32.952563 ], [ -83.804309, 32.950607 ], [ -83.797274, 32.945955 ], [ -83.796606, 32.947021 ], [ -83.79896, 32.948193 ], [ -83.803939, 32.951543 ], [ -83.810669, 32.955752 ], [ -83.812115, 32.956997 ] ] ] } }
]
}
