{
"type": "FeatureCollection",
"name": "31421",
"crs": { "type": "name", "properties": { "name": "urn:ogc:def:crs:OGC:1.3:CRS84" } },
"features": [
{ "type": "Feature", "properties": { "Name": "", "Description": "" }, "geometry": { "type": "Polygon", "coordinates": [ [ [ -81.098529, 32.089316 ], [ -81.099104, 32.088625 ], [ -81.098261, 32.087909 ], [ -81.09535, 32.08487 ], [ -81.090767, 32.082574 ], [ -81.085074, 32.081553 ], [ -81.080798, 32.080294 ], [ -81.081251, 32.078971 ], [ -81.078108, 32.078173 ], [ -81.071825, 32.077661 ], [ -81.066247, 32.078882 ], [ -81.065589, 32.078837 ], [ -81.062108, 32.082183 ], [ -81.060592, 32.082617 ], [ -81.054035, 32.082124 ], [ -81.050133, 32.081537 ], [ -81.050135, 32.082425 ], [ -81.059319, 32.084057 ], [ -81.063645, 32.085698 ], [ -81.066707, 32.086264 ], [ -81.074968, 32.0927 ], [ -81.078852, 32.095305 ], [ -81.078834, 32.096184 ], [ -81.08, 32.096909 ], [ -81.080026, 32.097153 ], [ -81.080246, 32.097238 ], [ -81.080389, 32.097032 ], [ -81.081426, 32.097273 ], [ -81.081937, 32.096968 ], [ -81.082121, 32.096872 ], [ -81.082556, 32.09683 ], [ -81.083053, 32.096872 ], [ -81.0834, 32.096851 ], [ -81.083578, 32.097029 ], [ -81.084374, 32.097048 ], [ -81.084845, 32.096938 ], [ -81.089021, 32.097173 ], [ -81.090545, 32.097638 ], [ -81.09191, 32.0981 ], [ -81.093314, 32.095622 ], [ -81.09787, 32.090107 ], [ -81.098529, 32.089316 ] ] ] } }
]
}
