{
"type": "FeatureCollection",
"name": "31599",
"crs": { "type": "name", "properties": { "name": "urn:ogc:def:crs:OGC:1.3:CRS84" } },
"features": [
{ "type": "Feature", "properties": { "Name": "", "Description": "" }, "geometry": { "type": "Polygon", "coordinates": [ [ [ -81.909077, 31.563056 ], [ -81.910234, 31.559594 ], [ -81.904614, 31.558259 ], [ -81.898788, 31.557419 ], [ -81.897411, 31.562775 ], [ -81.896821, 31.565053 ], [ -81.896402, 31.567872 ], [ -81.89842, 31.569084 ], [ -81.901849, 31.569284 ], [ -81.90662, 31.567313 ], [ -81.909077, 31.563056 ] ] ] } }
]
}
