{
"type": "FeatureCollection",
"name": "31704",
"crs": { "type": "name", "properties": { "name": "urn:ogc:def:crs:OGC:1.3:CRS84" } },
"features": [
{ "type": "Feature", "properties": { "Name": "", "Description": "" }, "geometry": { "type": "Polygon", "coordinates": [ [ [ -84.067289, 31.551177 ], [ -84.064095, 31.54844 ], [ -84.056963, 31.548713 ], [ -84.052335, 31.54651 ], [ -84.050374, 31.548503 ], [ -84.048797, 31.547775 ], [ -84.043387, 31.547782 ], [ -84.041445, 31.54978 ], [ -84.048594, 31.549425 ], [ -84.048593, 31.552035 ], [ -84.050735, 31.551743 ], [ -84.054988, 31.555156 ], [ -84.061622, 31.555275 ], [ -84.063195, 31.554676 ], [ -84.067289, 31.551177 ] ] ] } }
]
}
