{
"type": "FeatureCollection",
"name": "32163",
"crs": { "type": "name", "properties": { "name": "urn:ogc:def:crs:OGC:1.3:CRS84" } },
"features": [
{ "type": "Feature", "properties": { "Name": "", "Description": "" }, "geometry": { "type": "MultiPolygon", "coordinates": [ [ [ [ -82.03541, 28.847242 ], [ -82.03537, 28.84568 ], [ -82.024873, 28.842321 ], [ -82.012366, 28.837999 ], [ -82.011114, 28.840946 ], [ -82.013377, 28.842061 ], [ -82.013359, 28.843529 ], [ -82.012764, 28.843645 ], [ -82.015292, 28.845481 ], [ -82.015257, 28.845729 ], [ -82.01405, 28.846996 ], [ -82.008274, 28.847334 ], [ -82.008234, 28.840524 ], [ -81.998518, 28.833788 ], [ -81.99702, 28.83276 ], [ -81.997101, 28.832487 ], [ -81.994214, 28.830635 ], [ -81.993217, 28.831772 ], [ -81.992719, 28.830593 ], [ -81.9922, 28.831762 ], [ -81.990014, 28.830374 ], [ -81.985003, 28.830051 ], [ -81.983016, 28.828896 ], [ -81.979042, 28.828562 ], [ -81.979004, 28.826796 ], [ -81.978405, 28.828788 ], [ -81.97524, 28.828918 ], [ -81.97518, 28.824971 ], [ -81.975347, 28.824338 ], [ -81.9743, 28.8242 ], [ -81.962, 28.82244 ], [ -81.95828, 28.82166 ], [ -81.958253, 28.822142 ], [ -81.95824, 28.828543 ], [ -81.953626, 28.828879 ], [ -81.953591, 28.83451 ], [ -81.95358, 28.836434 ], [ -81.932798, 28.836213 ], [ -81.932302, 28.836207 ], [ -81.932795, 28.836947 ], [ -81.932753, 28.843331 ], [ -81.939253, 28.843376 ], [ -81.936994, 28.847171 ], [ -81.934376, 28.849365 ], [ -81.934425, 28.850591 ], [ -81.935481, 28.851764 ], [ -81.934281, 28.854303 ], [ -81.93622, 28.854709 ], [ -81.936101, 28.861674 ], [ -81.939591, 28.861698 ], [ -81.940916, 28.861706 ], [ -81.942994, 28.861711 ], [ -81.945087, 28.861728 ], [ -81.950372, 28.86182 ], [ -81.950898, 28.861961 ], [ -81.951947, 28.862512 ], [ -81.953435, 28.86356 ], [ -81.95678, 28.86526 ], [ -81.962992, 28.865417 ], [ -81.97659, 28.865427 ], [ -81.980689, 28.865428 ], [ -81.997017, 28.86545 ], [ -81.997236, 28.86545 ], [ -81.999906, 28.86545 ], [ -82.013656, 28.865312 ], [ -82.020544, 28.865316 ], [ -82.020521, 28.86182 ], [ -82.016476, 28.861849 ], [ -82.016462, 28.858194 ], [ -82.012202, 28.858109 ], [ -82.012265, 28.856297 ], [ -82.020426, 28.85629 ], [ -82.0205, 28.847929 ], [ -82.020302, 28.84785 ], [ -82.020822, 28.846782 ], [ -82.023731, 28.846854 ], [ -82.023222, 28.848853 ], [ -82.024913, 28.849524 ], [ -82.028724, 28.851009 ], [ -82.030273, 28.848068 ], [ -82.03242, 28.84904 ], [ -82.033014, 28.848919 ], [ -82.033012, 28.847257 ], [ -82.03541, 28.847242 ] ] ], [ [ [ -82.057644, 28.783372 ], [ -82.058969, 28.782117 ], [ -82.057577, 28.780197 ], [ -82.055249, 28.780192 ], [ -82.050568, 28.782858 ], [ -82.049854, 28.785183 ], [ -82.047827, 28.785181 ], [ -82.037414, 28.785145 ], [ -82.037401, 28.788704 ], [ -82.025059, 28.788692 ], [ -82.025058, 28.790522 ], [ -82.0215, 28.79052 ], [ -82.02095, 28.79047 ], [ -82.02096, 28.78866 ], [ -82.020968, 28.787813 ], [ -82.0168, 28.787355 ], [ -82.016798, 28.785034 ], [ -82.008731, 28.785003 ], [ -82.008718, 28.787199 ], [ -82.008584, 28.788618 ], [ -82.004445, 28.787655 ], [ -82.004162, 28.785045 ], [ -82.004139, 28.779259 ], [ -82.003766, 28.777729 ], [ -82.00272, 28.77565 ], [ -81.99715, 28.76832 ], [ -81.99637, 28.76682 ], [ -81.99591, 28.764057 ], [ -81.99174, 28.764063 ], [ -81.991734, 28.763099 ], [ -81.995907, 28.763118 ], [ -81.995905, 28.761551 ], [ -81.9959, 28.757793 ], [ -81.99589, 28.75579 ], [ -81.970803, 28.755608 ], [ -81.96667, 28.75554 ], [ -81.958211, 28.755404 ], [ -81.953661, 28.75533 ], [ -81.953784, 28.76904 ], [ -81.953788, 28.76953 ], [ -81.95723, 28.77257 ], [ -81.95878, 28.77355 ], [ -81.974225, 28.782217 ], [ -81.98314, 28.78599 ], [ -81.987847, 28.789195 ], [ -81.9903, 28.79121 ], [ -81.9992, 28.7996 ], [ -82.014192, 28.813801 ], [ -82.020802, 28.813937 ], [ -82.027, 28.814056 ], [ -82.027, 28.813471 ], [ -82.02707, 28.80381 ], [ -82.024942, 28.803806 ], [ -82.024998, 28.79971 ], [ -82.027704, 28.79971 ], [ -82.028487, 28.797869 ], [ -82.031231, 28.797929 ], [ -82.031226, 28.79973 ], [ -82.03324, 28.79973 ], [ -82.04353, 28.799788 ], [ -82.047745, 28.799804 ], [ -82.047743, 28.796143 ], [ -82.049804, 28.796142 ], [ -82.049804, 28.794338 ], [ -82.051852, 28.794308 ], [ -82.051865, 28.792501 ], [ -82.04989, 28.792495 ], [ -82.049887, 28.787005 ], [ -82.047827, 28.787004 ], [ -82.04783, 28.785217 ], [ -82.054046, 28.785255 ], [ -82.05406, 28.783381 ], [ -82.057644, 28.783372 ] ] ], [ [ [ -82.024998, 28.79971 ], [ -82.02468, 28.79971 ], [ -82.012605, 28.799664 ], [ -82.012662, 28.794175 ], [ -82.016797, 28.79421 ], [ -82.016778, 28.796031 ], [ -82.02087, 28.796021 ], [ -82.02088, 28.798746 ], [ -82.025002, 28.798765 ], [ -82.024998, 28.799474 ], [ -82.024998, 28.79971 ] ] ] ] } }
]
}
