{
"type": "FeatureCollection",
"name": "32182",
"crs": { "type": "name", "properties": { "name": "urn:ogc:def:crs:OGC:1.3:CRS84" } },
"features": [
{ "type": "Feature", "properties": { "Name": "", "Description": "" }, "geometry": { "type": "Polygon", "coordinates": [ [ [ -81.94631, 29.509607 ], [ -81.945474, 29.508683 ], [ -81.945789, 29.503719 ], [ -81.945829, 29.503486 ], [ -81.9456, 29.503465 ], [ -81.943881, 29.503353 ], [ -81.943899, 29.504781 ], [ -81.940981, 29.504586 ], [ -81.940806, 29.505849 ], [ -81.943802, 29.506043 ], [ -81.943683, 29.507279 ], [ -81.941102, 29.506909 ], [ -81.935801, 29.509452 ], [ -81.935413, 29.510386 ], [ -81.935431, 29.514459 ], [ -81.937424, 29.512558 ], [ -81.938537, 29.513444 ], [ -81.940971, 29.512542 ], [ -81.942726, 29.511337 ], [ -81.944581, 29.511854 ], [ -81.94631, 29.509607 ] ] ] } }
]
}
