{
"type": "FeatureCollection",
"name": "32192",
"crs": { "type": "name", "properties": { "name": "urn:ogc:def:crs:OGC:1.3:CRS84" } },
"features": [
{ "type": "Feature", "properties": { "Name": "", "Description": "" }, "geometry": { "type": "Polygon", "coordinates": [ [ [ -82.114299, 29.337642 ], [ -82.114271, 29.336202 ], [ -82.112684, 29.336218 ], [ -82.112576, 29.332033 ], [ -82.112893, 29.330085 ], [ -82.112551, 29.330047 ], [ -82.10825, 29.352888 ], [ -82.106908, 29.360406 ], [ -82.10719, 29.360413 ], [ -82.113798, 29.360283 ], [ -82.112717, 29.337655 ], [ -82.114299, 29.337642 ] ] ] } }
]
}
