{
"type": "FeatureCollection",
"name": "32203",
"crs": { "type": "name", "properties": { "name": "urn:ogc:def:crs:OGC:1.3:CRS84" } },
"features": [
{ "type": "Feature", "properties": { "Name": "", "Description": "" }, "geometry": { "type": "Polygon", "coordinates": [ [ [ -81.672289, 30.339443 ], [ -81.673201, 30.33657 ], [ -81.671744, 30.336015 ], [ -81.67206, 30.334951 ], [ -81.671061, 30.334699 ], [ -81.670045, 30.335838 ], [ -81.669134, 30.337262 ], [ -81.670374, 30.338166 ], [ -81.670811, 30.338418 ], [ -81.672289, 30.339443 ] ] ] } }
]
}
