{
"type": "FeatureCollection",
"name": "32214",
"crs": { "type": "name", "properties": { "name": "urn:ogc:def:crs:OGC:1.3:CRS84" } },
"features": [
{ "type": "Feature", "properties": { "Name": "", "Description": "" }, "geometry": { "type": "Polygon", "coordinates": [ [ [ -81.686874, 30.208557 ], [ -81.685238, 30.206489 ], [ -81.686048, 30.204765 ], [ -81.683403, 30.205609 ], [ -81.681478, 30.205202 ], [ -81.681122, 30.206355 ], [ -81.680183, 30.206308 ], [ -81.681207, 30.209802 ], [ -81.684286, 30.209538 ], [ -81.686874, 30.208557 ] ] ] } }
]
}
