{
"type": "FeatureCollection",
"name": "32307",
"crs": { "type": "name", "properties": { "name": "urn:ogc:def:crs:OGC:1.3:CRS84" } },
"features": [
{ "type": "Feature", "properties": { "Name": "", "Description": "" }, "geometry": { "type": "Polygon", "coordinates": [ [ [ -84.289815, 30.431938 ], [ -84.289802, 30.43072 ], [ -84.289645, 30.423508 ], [ -84.289647, 30.422592 ], [ -84.289651, 30.421716 ], [ -84.289677, 30.419117 ], [ -84.289799, 30.412572 ], [ -84.283034, 30.412566 ], [ -84.28248, 30.416549 ], [ -84.285294, 30.416826 ], [ -84.285078, 30.4199 ], [ -84.285581, 30.419937 ], [ -84.285591, 30.421748 ], [ -84.285613, 30.424929 ], [ -84.281951, 30.424916 ], [ -84.281901, 30.427084 ], [ -84.284421, 30.427121 ], [ -84.284416, 30.429352 ], [ -84.285597, 30.42935 ], [ -84.285565, 30.431762 ], [ -84.287656, 30.431649 ], [ -84.289815, 30.431938 ] ] ] } }
]
}
