{
"type": "FeatureCollection",
"name": "32306",
"crs": { "type": "name", "properties": { "name": "urn:ogc:def:crs:OGC:1.3:CRS84" } },
"features": [
{ "type": "Feature", "properties": { "Name": "", "Description": "" }, "geometry": { "type": "Polygon", "coordinates": [ [ [ -84.298099, 30.445764 ], [ -84.298061, 30.442593 ], [ -84.298072, 30.441365 ], [ -84.295489, 30.440123 ], [ -84.294461, 30.440136 ], [ -84.293974, 30.439619 ], [ -84.290808, 30.439628 ], [ -84.290851, 30.443588 ], [ -84.293955, 30.443571 ], [ -84.293968, 30.44439 ], [ -84.296298, 30.44496 ], [ -84.298099, 30.445764 ] ] ] } }
]
}
