{
"type": "FeatureCollection",
"name": "32313",
"crs": { "type": "name", "properties": { "name": "urn:ogc:def:crs:OGC:1.3:CRS84" } },
"features": [
{ "type": "Feature", "properties": { "Name": "", "Description": "" }, "geometry": { "type": "Polygon", "coordinates": [ [ [ -84.306486, 30.441616 ], [ -84.306637, 30.440085 ], [ -84.306419, 30.43723 ], [ -84.305807, 30.436366 ], [ -84.302001, 30.435593 ], [ -84.300966, 30.436331 ], [ -84.300729, 30.438762 ], [ -84.300417, 30.43961 ], [ -84.300776, 30.440173 ], [ -84.299763, 30.44167 ], [ -84.298061, 30.442593 ], [ -84.298099, 30.445764 ], [ -84.301274, 30.447436 ], [ -84.302331, 30.445294 ], [ -84.305879, 30.446531 ], [ -84.306492, 30.446734 ], [ -84.306486, 30.441616 ] ] ] } }
]
}
