{
"type": "FeatureCollection",
"name": "32337",
"crs": { "type": "name", "properties": { "name": "urn:ogc:def:crs:OGC:1.3:CRS84" } },
"features": [
{ "type": "Feature", "properties": { "Name": "", "Description": "" }, "geometry": { "type": "Polygon", "coordinates": [ [ [ -84.02529, 30.48764 ], [ -84.023381, 30.483395 ], [ -84.021483, 30.481037 ], [ -84.022617, 30.478942 ], [ -84.019381, 30.479 ], [ -84.01946, 30.47811 ], [ -84.01647, 30.47819 ], [ -84.016473, 30.480317 ], [ -84.019751, 30.481492 ], [ -84.019359, 30.482801 ], [ -84.021298, 30.487296 ], [ -84.020678, 30.488659 ], [ -84.02529, 30.48764 ] ] ] } }
]
}
