{
"type": "FeatureCollection",
"name": "32360",
"crs": { "type": "name", "properties": { "name": "urn:ogc:def:crs:OGC:1.3:CRS84" } },
"features": [
{ "type": "Feature", "properties": { "Name": "", "Description": "" }, "geometry": { "type": "Polygon", "coordinates": [ [ [ -84.817488, 30.364599 ], [ -84.817969, 30.359246 ], [ -84.812126, 30.359189 ], [ -84.812398, 30.362846 ], [ -84.804916, 30.36697 ], [ -84.806081, 30.368954 ], [ -84.810182, 30.370893 ], [ -84.816077, 30.366616 ], [ -84.817488, 30.364599 ] ] ] } }
]
}
