{
"type": "FeatureCollection",
"name": "32610",
"crs": { "type": "name", "properties": { "name": "urn:ogc:def:crs:OGC:1.3:CRS84" } },
"features": [
{ "type": "Feature", "properties": { "Name": "", "Description": "" }, "geometry": { "type": "Polygon", "coordinates": [ [ [ -82.34618, 29.64119 ], [ -82.346138, 29.639613 ], [ -82.346049, 29.638296 ], [ -82.34101, 29.640208 ], [ -82.339387, 29.641921 ], [ -82.339371, 29.643673 ], [ -82.339729, 29.642895 ], [ -82.341871, 29.641642 ], [ -82.343819, 29.642533 ], [ -82.34618, 29.64119 ] ] ] } }
]
}
