{
"type": "FeatureCollection",
"name": "32768",
"crs": { "type": "name", "properties": { "name": "urn:ogc:def:crs:OGC:1.3:CRS84" } },
"features": [
{ "type": "Feature", "properties": { "Name": "", "Description": "" }, "geometry": { "type": "Polygon", "coordinates": [ [ [ -81.559308, 28.698251 ], [ -81.559306, 28.694778 ], [ -81.559005, 28.694618 ], [ -81.558996, 28.694462 ], [ -81.55873, 28.694331 ], [ -81.556641, 28.693311 ], [ -81.556629, 28.693469 ], [ -81.556631, 28.693661 ], [ -81.556639, 28.694437 ], [ -81.55665, 28.697373 ], [ -81.558706, 28.697368 ], [ -81.558725, 28.698337 ], [ -81.559308, 28.698251 ] ] ] } }
]
}
