{
"type": "FeatureCollection",
"name": "32816",
"crs": { "type": "name", "properties": { "name": "urn:ogc:def:crs:OGC:1.3:CRS84" } },
"features": [
{ "type": "Feature", "properties": { "Name": "", "Description": "" }, "geometry": { "type": "Polygon", "coordinates": [ [ [ -81.207495, 28.611876 ], [ -81.207637, 28.597763 ], [ -81.205899, 28.598815 ], [ -81.204526, 28.597982 ], [ -81.203968, 28.596676 ], [ -81.206306, 28.593292 ], [ -81.204715, 28.590566 ], [ -81.20158, 28.590617 ], [ -81.189129, 28.59082 ], [ -81.186684, 28.590858 ], [ -81.178408, 28.590873 ], [ -81.178457, 28.594407 ], [ -81.180088, 28.59495 ], [ -81.178465, 28.595224 ], [ -81.178474, 28.597675 ], [ -81.186751, 28.598067 ], [ -81.186918, 28.611965 ], [ -81.189333, 28.611943 ], [ -81.192027, 28.612081 ], [ -81.201221, 28.612036 ], [ -81.207495, 28.611876 ] ] ] } }
]
}
