{
"type": "FeatureCollection",
"name": "32899",
"crs": { "type": "name", "properties": { "name": "urn:ogc:def:crs:OGC:1.3:CRS84" } },
"features": [
{ "type": "Feature", "properties": { "Name": "", "Description": "" }, "geometry": { "type": "Polygon", "coordinates": [ [ [ -80.675237, 28.618247 ], [ -80.68039, 28.618026 ], [ -80.669693, 28.601332 ], [ -80.660045, 28.591278 ], [ -80.656555, 28.586027 ], [ -80.655721, 28.583821 ], [ -80.655468, 28.560913 ], [ -80.655626, 28.559726 ], [ -80.664048, 28.526184 ], [ -80.636939, 28.525976 ], [ -80.6333, 28.525421 ], [ -80.629605, 28.524287 ], [ -80.624577, 28.521415 ], [ -80.612297, 28.513654 ], [ -80.614052, 28.5152 ], [ -80.620745, 28.519913 ], [ -80.621089, 28.522219 ], [ -80.621823, 28.520474 ], [ -80.622372, 28.521112 ], [ -80.621495, 28.523533 ], [ -80.62015, 28.525399 ], [ -80.61853, 28.525345 ], [ -80.619471, 28.526418 ], [ -80.617094, 28.530865 ], [ -80.615158, 28.535757 ], [ -80.614, 28.536616 ], [ -80.613335, 28.541684 ], [ -80.61247, 28.543154 ], [ -80.612303, 28.545861 ], [ -80.610359, 28.54656 ], [ -80.61001, 28.545614 ], [ -80.611168, 28.544513 ], [ -80.610856, 28.543369 ], [ -80.609398, 28.54453 ], [ -80.606522, 28.550551 ], [ -80.606579, 28.552851 ], [ -80.607993, 28.551029 ], [ -80.60892, 28.548168 ], [ -80.610871, 28.549686 ], [ -80.610392, 28.551535 ], [ -80.609253, 28.552922 ], [ -80.609123, 28.555761 ], [ -80.60761, 28.5593 ], [ -80.607512, 28.563768 ], [ -80.606504, 28.567543 ], [ -80.607402, 28.568758 ], [ -80.60668, 28.570151 ], [ -80.606943, 28.573909 ], [ -80.607841, 28.576286 ], [ -80.606914, 28.57961 ], [ -80.609197, 28.581997 ], [ -80.608131, 28.58394 ], [ -80.606542, 28.584446 ], [ -80.60752, 28.586001 ], [ -80.605887, 28.58646 ], [ -80.605996, 28.589949 ], [ -80.606936, 28.591685 ], [ -80.607467, 28.592512 ], [ -80.605941, 28.593239 ], [ -80.607345, 28.596805 ], [ -80.60691, 28.599215 ], [ -80.604435, 28.600597 ], [ -80.60353, 28.599502 ], [ -80.604914, 28.597922 ], [ -80.603929, 28.597141 ], [ -80.605449, 28.595985 ], [ -80.604844, 28.593966 ], [ -80.60305, 28.597191 ], [ -80.602009, 28.597483 ], [ -80.60295, 28.598748 ], [ -80.602547, 28.602914 ], [ -80.601038, 28.603387 ], [ -80.598503, 28.606412 ], [ -80.596837, 28.606295 ], [ -80.594612, 28.607032 ], [ -80.601499, 28.61394 ], [ -80.606901, 28.619967 ], [ -80.608968, 28.622618 ], [ -80.610361, 28.625333 ], [ -80.615232, 28.630893 ], [ -80.61697, 28.630021 ], [ -80.618295, 28.630411 ], [ -80.622609, 28.6305 ], [ -80.625193, 28.628825 ], [ -80.634267, 28.632202 ], [ -80.649439, 28.642976 ], [ -80.650585, 28.643403 ], [ -80.663833, 28.643435 ], [ -80.663766, 28.634076 ], [ -80.651986, 28.625688 ], [ -80.655181, 28.624643 ], [ -80.655702, 28.622786 ], [ -80.657441, 28.622223 ], [ -80.656076, 28.619698 ], [ -80.655403, 28.619456 ], [ -80.654724, 28.617811 ], [ -80.655211, 28.615869 ], [ -80.655829, 28.615054 ], [ -80.656243, 28.613815 ], [ -80.657754, 28.614498 ], [ -80.658393, 28.615169 ], [ -80.660116, 28.618041 ], [ -80.675237, 28.618247 ] ] ] } }
]
}
