{
"type": "FeatureCollection",
"name": "33550",
"crs": { "type": "name", "properties": { "name": "urn:ogc:def:crs:OGC:1.3:CRS84" } },
"features": [
{ "type": "Feature", "properties": { "Name": "", "Description": "" }, "geometry": { "type": "Polygon", "coordinates": [ [ [ -82.308167, 27.979277 ], [ -82.308158, 27.977842 ], [ -82.306827, 27.978922 ], [ -82.305623, 27.980645 ], [ -82.306027, 27.980747 ], [ -82.306027, 27.981499 ], [ -82.306463, 27.981498 ], [ -82.306422, 27.980036 ], [ -82.307241, 27.980021 ], [ -82.307241, 27.979262 ], [ -82.308167, 27.979277 ] ] ] } }
]
}
