{
"type": "FeatureCollection",
"name": "33574",
"crs": { "type": "name", "properties": { "name": "urn:ogc:def:crs:OGC:1.3:CRS84" } },
"features": [
{ "type": "Feature", "properties": { "Name": "", "Description": "" }, "geometry": { "type": "Polygon", "coordinates": [ [ [ -82.265532, 28.337902 ], [ -82.265521, 28.335572 ], [ -82.250854, 28.335584 ], [ -82.250923, 28.337161 ], [ -82.250907, 28.34052 ], [ -82.254746, 28.341635 ], [ -82.257739, 28.341639 ], [ -82.25998, 28.339888 ], [ -82.26192, 28.339245 ], [ -82.263551, 28.336797 ], [ -82.265532, 28.337902 ] ] ] } }
]
}
