{
"type": "FeatureCollection",
"name": "33835",
"crs": { "type": "name", "properties": { "name": "urn:ogc:def:crs:OGC:1.3:CRS84" } },
"features": [
{ "type": "Feature", "properties": { "Name": "", "Description": "" }, "geometry": { "type": "Polygon", "coordinates": [ [ [ -81.977453, 27.794072 ], [ -81.977593, 27.785948 ], [ -81.976721, 27.780686 ], [ -81.97097, 27.780622 ], [ -81.966869, 27.785605 ], [ -81.967859, 27.792855 ], [ -81.969639, 27.79537 ], [ -81.973232, 27.798317 ], [ -81.973368, 27.794024 ], [ -81.977453, 27.794072 ] ] ] } }
]
}
