{
"type": "FeatureCollection",
"name": "33858",
"crs": { "type": "name", "properties": { "name": "urn:ogc:def:crs:OGC:1.3:CRS84" } },
"features": [
{ "type": "Feature", "properties": { "Name": "", "Description": "" }, "geometry": { "type": "Polygon", "coordinates": [ [ [ -81.564852, 28.240893 ], [ -81.564093, 28.240524 ], [ -81.55907, 28.236966 ], [ -81.553187, 28.246391 ], [ -81.555867, 28.246864 ], [ -81.553981, 28.250706 ], [ -81.551598, 28.249523 ], [ -81.554739, 28.254354 ], [ -81.558458, 28.250487 ], [ -81.561259, 28.246536 ], [ -81.564852, 28.240893 ] ] ] } }
]
}
