{
"type": "FeatureCollection",
"name": "34250",
"crs": { "type": "name", "properties": { "name": "urn:ogc:def:crs:OGC:1.3:CRS84" } },
"features": [
{ "type": "Feature", "properties": { "Name": "", "Description": "" }, "geometry": { "type": "Polygon", "coordinates": [ [ [ -82.604849, 27.559359 ], [ -82.603716, 27.557681 ], [ -82.601964, 27.557241 ], [ -82.602922, 27.556369 ], [ -82.59862, 27.558712 ], [ -82.593929, 27.559695 ], [ -82.589594, 27.5602 ], [ -82.589329, 27.561455 ], [ -82.58793, 27.562372 ], [ -82.587206, 27.564164 ], [ -82.585364, 27.56665 ], [ -82.580914, 27.569784 ], [ -82.580943, 27.573087 ], [ -82.576756, 27.573327 ], [ -82.574858, 27.573836 ], [ -82.575656, 27.575926 ], [ -82.577671, 27.579503 ], [ -82.578135, 27.581046 ], [ -82.578208, 27.581187 ], [ -82.584876, 27.58328 ], [ -82.588215, 27.583586 ], [ -82.591122, 27.58359 ], [ -82.592251, 27.582125 ], [ -82.591659, 27.579562 ], [ -82.594139, 27.578586 ], [ -82.59552, 27.579826 ], [ -82.598279, 27.576983 ], [ -82.599899, 27.576547 ], [ -82.599823, 27.575552 ], [ -82.59574, 27.574863 ], [ -82.593607, 27.573609 ], [ -82.594371, 27.571182 ], [ -82.593724, 27.569466 ], [ -82.597579, 27.564487 ], [ -82.598209, 27.562818 ], [ -82.599832, 27.562845 ], [ -82.600127, 27.563877 ], [ -82.602306, 27.563573 ], [ -82.604404, 27.562543 ], [ -82.601547, 27.562069 ], [ -82.602431, 27.560909 ], [ -82.604849, 27.559359 ] ] ] } }
]
}
