{
"type": "FeatureCollection",
"name": "34267",
"crs": { "type": "name", "properties": { "name": "urn:ogc:def:crs:OGC:1.3:CRS84" } },
"features": [
{ "type": "Feature", "properties": { "Name": "", "Description": "" }, "geometry": { "type": "Polygon", "coordinates": [ [ [ -81.95823, 27.08221 ], [ -81.95827, 27.07878 ], [ -81.95786, 27.07878 ], [ -81.957599, 27.07878 ], [ -81.955601, 27.083498 ], [ -81.955026, 27.084487 ], [ -81.95402, 27.085885 ], [ -81.95523, 27.08693 ], [ -81.95312, 27.08888 ], [ -81.952068, 27.088105 ], [ -81.946337, 27.0933 ], [ -81.95812, 27.09336 ], [ -81.95817, 27.08727 ], [ -81.95521, 27.08493 ], [ -81.95823, 27.08221 ] ] ] } }
]
}
