{
"type": "FeatureCollection",
"name": "34729",
"crs": { "type": "name", "properties": { "name": "urn:ogc:def:crs:OGC:1.3:CRS84" } },
"features": [
{ "type": "Feature", "properties": { "Name": "", "Description": "" }, "geometry": { "type": "Polygon", "coordinates": [ [ [ -81.703121, 28.618501 ], [ -81.703804, 28.614288 ], [ -81.698101, 28.614325 ], [ -81.694284, 28.613785 ], [ -81.693542, 28.615951 ], [ -81.694118, 28.619037 ], [ -81.69709, 28.619457 ], [ -81.697202, 28.621039 ], [ -81.699029, 28.621971 ], [ -81.703401, 28.621988 ], [ -81.703121, 28.618501 ] ] ] } }
]
}
