{
"type": "FeatureCollection",
"name": "35181",
"crs": { "type": "name", "properties": { "name": "urn:ogc:def:crs:OGC:1.3:CRS84" } },
"features": [
{ "type": "Feature", "properties": { "Name": "", "Description": "" }, "geometry": { "type": "Polygon", "coordinates": [ [ [ -86.882171, 33.627953 ], [ -86.882533, 33.627001 ], [ -86.880344, 33.626242 ], [ -86.880404, 33.626101 ], [ -86.880405, 33.624614 ], [ -86.880871, 33.624287 ], [ -86.878199, 33.624223 ], [ -86.878576, 33.625527 ], [ -86.878717, 33.626362 ], [ -86.87871, 33.628376 ], [ -86.882171, 33.627953 ] ] ] } }
]
}
