{
"type": "FeatureCollection",
"name": "35185",
"crs": { "type": "name", "properties": { "name": "urn:ogc:def:crs:OGC:1.3:CRS84" } },
"features": [
{ "type": "Feature", "properties": { "Name": "", "Description": "" }, "geometry": { "type": "Polygon", "coordinates": [ [ [ -86.541545, 33.349992 ], [ -86.541493, 33.347807 ], [ -86.53666, 33.347624 ], [ -86.536285, 33.34884 ], [ -86.536172, 33.34904 ], [ -86.535969, 33.349434 ], [ -86.535939, 33.349503 ], [ -86.535711, 33.35054 ], [ -86.541545, 33.349992 ] ] ] } }
]
}
