{
"type": "FeatureCollection",
"name": "35487",
"crs": { "type": "name", "properties": { "name": "urn:ogc:def:crs:OGC:1.3:CRS84" } },
"features": [
{ "type": "Feature", "properties": { "Name": "", "Description": "" }, "geometry": { "type": "Polygon", "coordinates": [ [ [ -87.551433, 33.213796 ], [ -87.552908, 33.211827 ], [ -87.549731, 33.211678 ], [ -87.547695, 33.212953 ], [ -87.544299, 33.211998 ], [ -87.54277, 33.212565 ], [ -87.54497, 33.213825 ], [ -87.544783, 33.214945 ], [ -87.544477, 33.216746 ], [ -87.546834, 33.216806 ], [ -87.550437, 33.217381 ], [ -87.550319, 33.216878 ], [ -87.549029, 33.214694 ], [ -87.550014, 33.214499 ], [ -87.551299, 33.213901 ], [ -87.551433, 33.213796 ] ] ] } }
]
}
