{
"type": "FeatureCollection",
"name": "35491",
"crs": { "type": "name", "properties": { "name": "urn:ogc:def:crs:OGC:1.3:CRS84" } },
"features": [
{ "type": "Feature", "properties": { "Name": "", "Description": "" }, "geometry": { "type": "Polygon", "coordinates": [ [ [ -88.118889, 32.926417 ], [ -88.121293, 32.923814 ], [ -88.086703, 32.923439 ], [ -88.083466, 32.923417 ], [ -88.081701, 32.929554 ], [ -88.081367, 32.931731 ], [ -88.080317, 32.951512 ], [ -88.080338, 32.952244 ], [ -88.081698, 32.955101 ], [ -88.084504, 32.952944 ], [ -88.088797, 32.951614 ], [ -88.098878, 32.950031 ], [ -88.099911, 32.950695 ], [ -88.103198, 32.949938 ], [ -88.107191, 32.948355 ], [ -88.107979, 32.947691 ], [ -88.110071, 32.946522 ], [ -88.111944, 32.943199 ], [ -88.114768, 32.940861 ], [ -88.114413, 32.937631 ], [ -88.115607, 32.934697 ], [ -88.116937, 32.93298 ], [ -88.11794, 32.930298 ], [ -88.119107, 32.929343 ], [ -88.118889, 32.926417 ] ] ] } }
]
}
