{
"type": "FeatureCollection",
"name": "35632",
"crs": { "type": "name", "properties": { "name": "urn:ogc:def:crs:OGC:1.3:CRS84" } },
"features": [
{ "type": "Feature", "properties": { "Name": "", "Description": "" }, "geometry": { "type": "Polygon", "coordinates": [ [ [ -87.682764, 34.810553 ], [ -87.683829, 34.810072 ], [ -87.682138, 34.807377 ], [ -87.683342, 34.806324 ], [ -87.680486, 34.804813 ], [ -87.677394, 34.806372 ], [ -87.677641, 34.808264 ], [ -87.678317, 34.809569 ], [ -87.682272, 34.809727 ], [ -87.682764, 34.810553 ] ] ] } }
]
}
