{
"type": "FeatureCollection",
"name": "36008",
"crs": { "type": "name", "properties": { "name": "urn:ogc:def:crs:OGC:1.3:CRS84" } },
"features": [
{ "type": "Feature", "properties": { "Name": "", "Description": "" }, "geometry": { "type": "Polygon", "coordinates": [ [ [ -86.58022, 32.503815 ], [ -86.580208, 32.5038 ], [ -86.577476, 32.501472 ], [ -86.57629, 32.497475 ], [ -86.573512, 32.495285 ], [ -86.569634, 32.49315 ], [ -86.566062, 32.491705 ], [ -86.564002, 32.49205 ], [ -86.559619, 32.490963 ], [ -86.557321, 32.493322 ], [ -86.548838, 32.494307 ], [ -86.551032, 32.498617 ], [ -86.553222, 32.501187 ], [ -86.560782, 32.500467 ], [ -86.571072, 32.502975 ], [ -86.580199, 32.503818 ], [ -86.58022, 32.503815 ] ] ] } }
]
}
