{
"type": "FeatureCollection",
"name": "36547",
"crs": { "type": "name", "properties": { "name": "urn:ogc:def:crs:OGC:1.3:CRS84" } },
"features": [
{ "type": "Feature", "properties": { "Name": "", "Description": "" }, "geometry": { "type": "Polygon", "coordinates": [ [ [ -87.669091, 30.251813 ], [ -87.668717221066103, 30.2496619281522 ], [ -87.659984, 30.250594 ], [ -87.641641, 30.254539 ], [ -87.638170245345293, 30.255386435541499 ], [ -87.638181, 30.256474 ], [ -87.645327, 30.255295 ], [ -87.654458, 30.252726 ], [ -87.659726, 30.251383 ], [ -87.662978, 30.251205 ], [ -87.666006, 30.25212 ], [ -87.669091, 30.251813 ] ] ] } }
]
}
