{
"type": "FeatureCollection",
"name": "36652",
"crs": { "type": "name", "properties": { "name": "urn:ogc:def:crs:OGC:1.3:CRS84" } },
"features": [
{ "type": "Feature", "properties": { "Name": "", "Description": "" }, "geometry": { "type": "Polygon", "coordinates": [ [ [ -88.081301, 30.698046 ], [ -88.081889, 30.695825 ], [ -88.080549, 30.695508 ], [ -88.080552, 30.69326 ], [ -88.079167, 30.693352 ], [ -88.079106, 30.693501 ], [ -88.079418, 30.69442 ], [ -88.07925, 30.69747 ], [ -88.081301, 30.698046 ] ] ] } }
]
}
