{
"type": "FeatureCollection",
"name": "36663",
"crs": { "type": "name", "properties": { "name": "urn:ogc:def:crs:OGC:1.3:CRS84" } },
"features": [
{ "type": "Feature", "properties": { "Name": "", "Description": "" }, "geometry": { "type": "Polygon", "coordinates": [ [ [ -88.11067, 30.738104 ], [ -88.111615, 30.737514 ], [ -88.110278, 30.735667 ], [ -88.111121, 30.735108 ], [ -88.11031, 30.734162 ], [ -88.108337, 30.735505 ], [ -88.105663, 30.737631 ], [ -88.106871, 30.738361 ], [ -88.10936, 30.738502 ], [ -88.11067, 30.738104 ] ] ] } }
]
}
