{
"type": "FeatureCollection",
"name": "36741",
"crs": { "type": "name", "properties": { "name": "urn:ogc:def:crs:OGC:1.3:CRS84" } },
"features": [
{ "type": "Feature", "properties": { "Name": "", "Description": "" }, "geometry": { "type": "Polygon", "coordinates": [ [ [ -87.068446, 31.996514 ], [ -87.066545, 31.996946 ], [ -87.065335, 31.994816 ], [ -87.063453, 31.998138 ], [ -87.061006, 31.999671 ], [ -87.057483, 31.999728 ], [ -87.055736, 31.998252 ], [ -87.052482, 31.998619 ], [ -87.05181, 31.997885 ], [ -87.051971, 31.995067 ], [ -87.049874, 31.992432 ], [ -87.048718, 31.989613 ], [ -87.046056, 31.98755 ], [ -87.044389, 31.990461 ], [ -87.044792, 31.992866 ], [ -87.043662, 31.99211 ], [ -87.038876, 31.993163 ], [ -87.03702, 31.995156 ], [ -87.037826, 31.997654 ], [ -87.035676, 31.995843 ], [ -87.035756, 31.997333 ], [ -87.034546, 31.997654 ], [ -87.03382, 31.994789 ], [ -87.031131, 31.995224 ], [ -87.031186, 31.993986 ], [ -87.029868, 31.99323 ], [ -87.028174, 31.99426 ], [ -87.028066, 31.995589 ], [ -87.025889, 31.993251 ], [ -87.024383, 31.993182 ], [ -87.02307, 31.994415 ], [ -87.019994, 31.993555 ], [ -87.020045, 31.991561 ], [ -87.018147, 31.99121 ], [ -87.0156, 31.991655 ], [ -87.01463, 31.992297 ], [ -87.01381, 31.993442 ], [ -87.013035, 31.998065 ], [ -87.011443, 32.000268 ], [ -87.009831, 32.004706 ], [ -87.010846, 32.005377 ], [ -87.004121, 32.005905 ], [ -86.997016, 32.007025 ], [ -86.993894, 32.007326 ], [ -86.979812, 32.006068 ], [ -86.970558, 32.005097 ], [ -86.964218, 32.003504 ], [ -86.965183, 32.005221 ], [ -86.967473, 32.007055 ], [ -86.970721, 32.008194 ], [ -86.970823, 32.00914 ], [ -86.970616, 32.011069 ], [ -86.97169, 32.014139 ], [ -86.973003, 32.015452 ], [ -86.978705, 32.016951 ], [ -86.982666, 32.017484 ], [ -86.984463, 32.018642 ], [ -86.986314, 32.021144 ], [ -86.988454, 32.022861 ], [ -86.991478, 32.029139 ], [ -86.991668, 32.031373 ], [ -86.990701, 32.036158 ], [ -86.990304, 32.042603 ], [ -86.988529, 32.047227 ], [ -86.999984, 32.047669 ], [ -87.065157, 32.047448 ], [ -87.065719, 32.044545 ], [ -87.06633, 32.040529 ], [ -87.066273, 32.036817 ], [ -87.067663, 32.033139 ], [ -87.065783, 32.027454 ], [ -87.065567, 32.022616 ], [ -87.062936, 32.017941 ], [ -87.061065, 32.011977 ], [ -87.060508, 32.008609 ], [ -87.06075, 32.003763 ], [ -87.060498, 32.003023 ], [ -87.063592, 32.001505 ], [ -87.066025, 31.99979 ], [ -87.068446, 31.996514 ] ] ] } }
]
}
