{
"type": "FeatureCollection",
"name": "37316",
"crs": { "type": "name", "properties": { "name": "urn:ogc:def:crs:OGC:1.3:CRS84" } },
"features": [
{ "type": "Feature", "properties": { "Name": "", "Description": "" }, "geometry": { "type": "Polygon", "coordinates": [ [ [ -84.735261, 34.998124 ], [ -84.73507, 34.99795 ], [ -84.733725, 34.998038 ], [ -84.730744, 34.998743 ], [ -84.724874, 35.002995 ], [ -84.723521, 35.002636 ], [ -84.723339, 35.004051 ], [ -84.723616, 35.005433 ], [ -84.725709, 35.004318 ], [ -84.726827, 35.004575 ], [ -84.727413, 35.004305 ], [ -84.727353, 35.003205 ], [ -84.728284, 35.003016 ], [ -84.729807, 35.003364 ], [ -84.73207, 35.004538 ], [ -84.733126, 35.001025 ], [ -84.733716, 34.999975 ], [ -84.734973, 35.00009 ], [ -84.735261, 34.998124 ] ] ] } }
]
}
