{
"type": "FeatureCollection",
"name": "37383",
"crs": { "type": "name", "properties": { "name": "urn:ogc:def:crs:OGC:1.3:CRS84" } },
"features": [
{ "type": "Feature", "properties": { "Name": "", "Description": "" }, "geometry": { "type": "Polygon", "coordinates": [ [ [ -85.91752, 35.207817 ], [ -85.917614, 35.206625 ], [ -85.915159, 35.206382 ], [ -85.915547, 35.204841 ], [ -85.913096, 35.203957 ], [ -85.912035, 35.205133 ], [ -85.914146, 35.20673 ], [ -85.914874, 35.208557 ], [ -85.910151, 35.208135 ], [ -85.910175, 35.210272 ], [ -85.911478, 35.211282 ], [ -85.911928, 35.2122 ], [ -85.911777, 35.213698 ], [ -85.912121, 35.214558 ], [ -85.912593, 35.214952 ], [ -85.91355, 35.214723 ], [ -85.914502, 35.215172 ], [ -85.914577, 35.214176 ], [ -85.916106, 35.213625 ], [ -85.915633, 35.212268 ], [ -85.915607, 35.208389 ], [ -85.91752, 35.207817 ] ] ] } }
]
}
