{
"type": "FeatureCollection",
"name": "38113",
"crs": { "type": "name", "properties": { "name": "urn:ogc:def:crs:OGC:1.3:CRS84" } },
"features": [
{ "type": "Feature", "properties": { "Name": "", "Description": "" }, "geometry": { "type": "Polygon", "coordinates": [ [ [ -90.181374, 35.094013 ], [ -90.180987, 35.084993 ], [ -90.178513, 35.079811 ], [ -90.175994353393904, 35.077124587010204 ], [ -90.164483, 35.083927 ], [ -90.156504, 35.085015 ], [ -90.153136, 35.084669 ], [ -90.14957, 35.083914 ], [ -90.146531, 35.082897 ], [ -90.140516, 35.07999 ], [ -90.134282, 35.077306 ], [ -90.123795, 35.074456 ], [ -90.107436, 35.072428 ], [ -90.100756, 35.076014 ], [ -90.095476, 35.080701 ], [ -90.091692, 35.084691 ], [ -90.084873, 35.096026 ], [ -90.083599, 35.108114 ], [ -90.083653, 35.109061 ], [ -90.084052, 35.111175 ], [ -90.086626525144396, 35.119465758972503 ], [ -90.089667, 35.118053 ], [ -90.095009, 35.117535 ], [ -90.106838, 35.119445 ], [ -90.1291, 35.128466 ], [ -90.141805, 35.133041 ], [ -90.15068, 35.132477 ], [ -90.154697, 35.130924 ], [ -90.167358, 35.123585 ], [ -90.167911639589207, 35.123065086344802 ], [ -90.172332, 35.118914 ], [ -90.172896837489304, 35.118059293570802 ], [ -90.176843, 35.112088 ], [ -90.181374, 35.094013 ] ] ] } }
]
}
