{
"type": "FeatureCollection",
"name": "38338",
"crs": { "type": "name", "properties": { "name": "urn:ogc:def:crs:OGC:1.3:CRS84" } },
"features": [
{ "type": "Feature", "properties": { "Name": "", "Description": "" }, "geometry": { "type": "Polygon", "coordinates": [ [ [ -88.852041, 35.875253 ], [ -88.850776, 35.872026 ], [ -88.851974, 35.870035 ], [ -88.850417, 35.871447 ], [ -88.846672, 35.875325 ], [ -88.845867, 35.872567 ], [ -88.844352, 35.872418 ], [ -88.845315, 35.875989 ], [ -88.847158, 35.875999 ], [ -88.847892, 35.878776 ], [ -88.852041, 35.875253 ] ] ] } }
]
}
