{
"type": "FeatureCollection",
"name": "38776",
"crs": { "type": "name", "properties": { "name": "urn:ogc:def:crs:OGC:1.3:CRS84" } },
"features": [
{ "type": "Feature", "properties": { "Name": "", "Description": "" }, "geometry": { "type": "Polygon", "coordinates": [ [ [ -90.937436, 33.428675 ], [ -90.937487, 33.4221 ], [ -90.928779, 33.422848 ], [ -90.926844, 33.422579 ], [ -90.922555, 33.423215 ], [ -90.917894, 33.422085 ], [ -90.916737, 33.421435 ], [ -90.915817, 33.419618 ], [ -90.914322, 33.420603 ], [ -90.909719, 33.419666 ], [ -90.909414, 33.420869 ], [ -90.909407, 33.421047 ], [ -90.910485, 33.421113 ], [ -90.912906, 33.421728 ], [ -90.916273, 33.42242 ], [ -90.917197, 33.42286 ], [ -90.917437, 33.422714 ], [ -90.918461, 33.423717 ], [ -90.920189, 33.425353 ], [ -90.927939, 33.428269 ], [ -90.929803, 33.428067 ], [ -90.937436, 33.428675 ] ] ] } }
]
}
