{
"type": "FeatureCollection",
"name": "38839",
"crs": { "type": "name", "properties": { "name": "urn:ogc:def:crs:OGC:1.3:CRS84" } },
"features": [
{ "type": "Feature", "properties": { "Name": "", "Description": "" }, "geometry": { "type": "MultiPolygon", "coordinates": [ [ [ [ -89.285542, 33.85383 ], [ -89.285548, 33.852815 ], [ -89.28411, 33.852838 ], [ -89.283911, 33.850726 ], [ -89.283391, 33.851544 ], [ -89.283488, 33.853644 ], [ -89.28348, 33.853842 ], [ -89.283892, 33.853839 ], [ -89.285542, 33.85383 ] ] ], [ [ [ -89.285636, 33.858927 ], [ -89.285632, 33.857683 ], [ -89.285549, 33.855282 ], [ -89.284108, 33.855291 ], [ -89.283417, 33.855295 ], [ -89.28348, 33.853842 ], [ -89.282091, 33.853891 ], [ -89.282092, 33.855316 ], [ -89.282705, 33.8553 ], [ -89.282655, 33.857776 ], [ -89.284143, 33.858877 ], [ -89.285636, 33.858927 ] ] ] ] } }
]
}
