{
"type": "FeatureCollection",
"name": "39058",
"crs": { "type": "name", "properties": { "name": "urn:ogc:def:crs:OGC:1.3:CRS84" } },
"features": [
{ "type": "Feature", "properties": { "Name": "", "Description": "" }, "geometry": { "type": "Polygon", "coordinates": [ [ [ -90.336258, 32.337146 ], [ -90.337249, 32.336326 ], [ -90.333931, 32.33412 ], [ -90.329706, 32.333208 ], [ -90.327434, 32.333463 ], [ -90.327388, 32.337172 ], [ -90.331781, 32.338156 ], [ -90.332793, 32.339252 ], [ -90.33248, 32.337153 ], [ -90.336258, 32.337146 ] ] ] } }
]
}
