{
"type": "FeatureCollection",
"name": "39173",
"crs": { "type": "name", "properties": { "name": "urn:ogc:def:crs:OGC:1.3:CRS84" } },
"features": [
{ "type": "Feature", "properties": { "Name": "", "Description": "" }, "geometry": { "type": "Polygon", "coordinates": [ [ [ -90.483944, 32.753574 ], [ -90.48402, 32.75353 ], [ -90.483017, 32.751298 ], [ -90.48026, 32.748999 ], [ -90.478767, 32.747137 ], [ -90.476764, 32.742062 ], [ -90.474342, 32.738561 ], [ -90.47319, 32.736065 ], [ -90.471896, 32.734679 ], [ -90.469056, 32.733286 ], [ -90.465717, 32.730109 ], [ -90.460762, 32.728268 ], [ -90.46008, 32.72997 ], [ -90.460241, 32.732896 ], [ -90.46167, 32.73397 ], [ -90.46342, 32.7332 ], [ -90.465385, 32.734459 ], [ -90.468187, 32.736916 ], [ -90.47115, 32.73669 ], [ -90.47199, 32.73727 ], [ -90.47196, 32.74031 ], [ -90.47142, 32.7423 ], [ -90.4716, 32.74393 ], [ -90.470451, 32.744677 ], [ -90.46915, 32.74775 ], [ -90.467662, 32.749267 ], [ -90.468671, 32.75016 ], [ -90.47482, 32.75123 ], [ -90.48022, 32.75341 ], [ -90.48235, 32.75277 ], [ -90.4836, 32.75363 ], [ -90.483688, 32.75363 ], [ -90.48373, 32.75363 ], [ -90.48381, 32.75362 ], [ -90.48392, 32.75359 ], [ -90.483944, 32.753574 ] ] ] } }
]
}
