{
"type": "FeatureCollection",
"name": "39210",
"crs": { "type": "name", "properties": { "name": "urn:ogc:def:crs:OGC:1.3:CRS84" } },
"features": [
{ "type": "Feature", "properties": { "Name": "", "Description": "" }, "geometry": { "type": "Polygon", "coordinates": [ [ [ -90.182185, 32.319392 ], [ -90.182188, 32.318783 ], [ -90.178375, 32.318127 ], [ -90.178301, 32.319479 ], [ -90.176789, 32.323748 ], [ -90.178054, 32.324263 ], [ -90.178782, 32.326737 ], [ -90.18213, 32.326758 ], [ -90.182185, 32.319392 ] ] ] } }
]
}
