{
"type": "FeatureCollection",
"name": "39324",
"crs": { "type": "name", "properties": { "name": "urn:ogc:def:crs:OGC:1.3:CRS84" } },
"features": [
{ "type": "Feature", "properties": { "Name": "", "Description": "" }, "geometry": { "type": "Polygon", "coordinates": [ [ [ -88.699319, 31.579972 ], [ -88.700878, 31.578953 ], [ -88.698994, 31.578778 ], [ -88.698788, 31.578908 ], [ -88.698611, 31.579565 ], [ -88.697098, 31.578706 ], [ -88.696508, 31.580382 ], [ -88.694275, 31.582599 ], [ -88.69608, 31.582045 ], [ -88.698503, 31.580528 ], [ -88.699319, 31.579972 ] ] ] } }
]
}
