{
"type": "FeatureCollection",
"name": "39529",
"crs": { "type": "name", "properties": { "name": "urn:ogc:def:crs:OGC:1.3:CRS84" } },
"features": [
{ "type": "Feature", "properties": { "Name": "", "Description": "" }, "geometry": { "type": "Polygon", "coordinates": [ [ [ -89.650379, 30.356199 ], [ -89.650881, 30.355329 ], [ -89.650247, 30.354321 ], [ -89.646128, 30.35251 ], [ -89.645046, 30.350723 ], [ -89.645152, 30.348593 ], [ -89.643621, 30.348593 ], [ -89.642775, 30.349898 ], [ -89.641165, 30.348867 ], [ -89.641351, 30.346439 ], [ -89.639476, 30.346576 ], [ -89.636913, 30.347858 ], [ -89.636226, 30.347148 ], [ -89.636254, 30.344651 ], [ -89.633983, 30.343803 ], [ -89.634321, 30.345037 ], [ -89.633534, 30.347559 ], [ -89.632483, 30.348449 ], [ -89.62846, 30.350099 ], [ -89.624329, 30.350847 ], [ -89.613719, 30.351286 ], [ -89.612241, 30.350836 ], [ -89.60034, 30.350838 ], [ -89.593333, 30.351406 ], [ -89.578442, 30.354456 ], [ -89.577648, 30.355168 ], [ -89.571293, 30.358515 ], [ -89.569471, 30.359821 ], [ -89.568107, 30.362696 ], [ -89.564424, 30.361977 ], [ -89.560949, 30.360209 ], [ -89.558573, 30.361141 ], [ -89.554118, 30.365873 ], [ -89.552417, 30.368835 ], [ -89.550831, 30.372437 ], [ -89.549307, 30.371634 ], [ -89.547918, 30.369186 ], [ -89.545412, 30.368034 ], [ -89.545164, 30.385062 ], [ -89.565402, 30.385037 ], [ -89.568103, 30.385271 ], [ -89.575109, 30.385029 ], [ -89.582761, 30.385037 ], [ -89.582962, 30.394071 ], [ -89.58174, 30.405901 ], [ -89.586762, 30.405055 ], [ -89.587975, 30.405501 ], [ -89.588874, 30.407242 ], [ -89.592522, 30.410951 ], [ -89.595297, 30.41292 ], [ -89.601296, 30.413743 ], [ -89.604151, 30.415231 ], [ -89.603119, 30.41748 ], [ -89.62014, 30.41763 ], [ -89.621063, 30.417514 ], [ -89.620589, 30.41566 ], [ -89.61916, 30.413003 ], [ -89.617152, 30.412821 ], [ -89.614086, 30.411448 ], [ -89.61353, 30.409914 ], [ -89.615167, 30.407417 ], [ -89.617227, 30.406225 ], [ -89.622537, 30.404871 ], [ -89.62573, 30.405493 ], [ -89.627209, 30.40513 ], [ -89.62812, 30.402227 ], [ -89.625601, 30.399822 ], [ -89.624606, 30.397675 ], [ -89.624409, 30.395022 ], [ -89.627006, 30.394405 ], [ -89.628956, 30.393256 ], [ -89.631584, 30.392959 ], [ -89.632428, 30.389476 ], [ -89.630374, 30.38497 ], [ -89.646243, 30.384954 ], [ -89.646745, 30.382597 ], [ -89.648173, 30.382277 ], [ -89.648121, 30.38033 ], [ -89.646402, 30.381131 ], [ -89.644686, 30.379573 ], [ -89.643471, 30.379779 ], [ -89.643471, 30.378222 ], [ -89.640072, 30.374405 ], [ -89.638963, 30.374244 ], [ -89.639228, 30.372297 ], [ -89.642002, 30.369733 ], [ -89.642848, 30.367947 ], [ -89.643984, 30.367374 ], [ -89.646177, 30.362748 ], [ -89.646389, 30.360435 ], [ -89.647896, 30.356771 ], [ -89.650379, 30.356199 ] ] ] } }
]
}
