{
"type": "FeatureCollection",
"name": "39595",
"crs": { "type": "name", "properties": { "name": "urn:ogc:def:crs:OGC:1.3:CRS84" } },
"features": [
{ "type": "Feature", "properties": { "Name": "", "Description": "" }, "geometry": { "type": "Polygon", "coordinates": [ [ [ -88.584342, 30.337209 ], [ -88.584525, 30.33562 ], [ -88.582568, 30.331342 ], [ -88.579509, 30.329866 ], [ -88.572479, 30.328987 ], [ -88.570571, 30.330697 ], [ -88.568672, 30.331128 ], [ -88.568226, 30.332199 ], [ -88.568395, 30.333478 ], [ -88.569025, 30.337012 ], [ -88.5697, 30.33907 ], [ -88.569773, 30.340557 ], [ -88.570992, 30.341033 ], [ -88.575334, 30.337761 ], [ -88.578933, 30.338534 ], [ -88.581038, 30.338371 ], [ -88.582294, 30.338683 ], [ -88.583715, 30.337989 ], [ -88.584342, 30.337209 ] ] ] } }
]
}
