{
"type": "FeatureCollection",
"name": "39753",
"crs": { "type": "name", "properties": { "name": "urn:ogc:def:crs:OGC:1.3:CRS84" } },
"features": [
{ "type": "Feature", "properties": { "Name": "", "Description": "" }, "geometry": { "type": "Polygon", "coordinates": [ [ [ -88.635139, 33.484917 ], [ -88.635888, 33.480846 ], [ -88.62857, 33.481335 ], [ -88.625684, 33.483672 ], [ -88.6241, 33.486565 ], [ -88.62835, 33.48753 ], [ -88.63423, 33.48769 ], [ -88.63463, 33.48493 ], [ -88.635139, 33.484917 ] ] ] } }
]
}
