{
"type": "FeatureCollection",
"name": "39832",
"crs": { "type": "name", "properties": { "name": "urn:ogc:def:crs:OGC:1.3:CRS84" } },
"features": [
{ "type": "Feature", "properties": { "Name": "", "Description": "" }, "geometry": { "type": "Polygon", "coordinates": [ [ [ -85.045384, 31.187779 ], [ -85.044603, 31.187055 ], [ -85.045012, 31.185176 ], [ -85.043685, 31.18517 ], [ -85.042825, 31.182565 ], [ -85.043431, 31.180811 ], [ -85.039243, 31.18238 ], [ -85.037014, 31.185221 ], [ -85.035197, 31.183938 ], [ -85.02725, 31.18538 ], [ -85.028615, 31.18704 ], [ -85.028468, 31.188919 ], [ -85.027658, 31.189431 ], [ -85.02402, 31.187729 ], [ -85.020391, 31.187429 ], [ -85.018787, 31.185623 ], [ -85.016465, 31.183987 ], [ -85.004448, 31.183536 ], [ -85.003826, 31.197254 ], [ -85.022492, 31.197932 ], [ -85.023033, 31.199211 ], [ -85.022557, 31.200706 ], [ -85.022681, 31.203318 ], [ -85.023672, 31.204392 ], [ -85.028215, 31.204518 ], [ -85.029841, 31.205073 ], [ -85.036509, 31.204967 ], [ -85.039559, 31.203478 ], [ -85.041576, 31.201808 ], [ -85.042393, 31.197853 ], [ -85.042647, 31.193535 ], [ -85.04384, 31.191637 ], [ -85.043242, 31.191179 ], [ -85.044137, 31.18881 ], [ -85.045384, 31.187779 ] ] ] } }
]
}
