{
"type": "FeatureCollection",
"name": "40061",
"crs": { "type": "name", "properties": { "name": "urn:ogc:def:crs:OGC:1.3:CRS84" } },
"features": [
{ "type": "Feature", "properties": { "Name": "", "Description": "" }, "geometry": { "type": "Polygon", "coordinates": [ [ [ -85.269228, 37.71068 ], [ -85.26881, 37.709343 ], [ -85.261331, 37.706935 ], [ -85.258778, 37.70777 ], [ -85.257821, 37.708835 ], [ -85.259962, 37.710276 ], [ -85.264591, 37.712111 ], [ -85.264737, 37.712168 ], [ -85.269228, 37.71068 ] ] ] } }
]
}
