{
"type": "FeatureCollection",
"name": "40355",
"crs": { "type": "name", "properties": { "name": "urn:ogc:def:crs:OGC:1.3:CRS84" } },
"features": [
{ "type": "Feature", "properties": { "Name": "", "Description": "" }, "geometry": { "type": "Polygon", "coordinates": [ [ [ -84.911346, 38.621188 ], [ -84.911376, 38.620198 ], [ -84.908971, 38.615209 ], [ -84.906181, 38.615668 ], [ -84.903492, 38.613685 ], [ -84.900979, 38.613036 ], [ -84.900347, 38.612342 ], [ -84.89861, 38.60816 ], [ -84.898743, 38.605316 ], [ -84.900315, 38.599894 ], [ -84.899962, 38.596796 ], [ -84.896418, 38.59645 ], [ -84.894119, 38.597082 ], [ -84.888843, 38.595621 ], [ -84.887732, 38.593723 ], [ -84.885224, 38.59364 ], [ -84.883357, 38.592104 ], [ -84.881659, 38.591915 ], [ -84.880281, 38.590855 ], [ -84.879525, 38.588772 ], [ -84.877475, 38.587994 ], [ -84.87062, 38.588526 ], [ -84.866191, 38.588044 ], [ -84.862841, 38.589832 ], [ -84.857355, 38.589016 ], [ -84.853099, 38.586132 ], [ -84.851406, 38.585973 ], [ -84.850538, 38.584693 ], [ -84.8486, 38.585303 ], [ -84.846389, 38.583743 ], [ -84.84131, 38.58303 ], [ -84.840162, 38.582156 ], [ -84.835594, 38.582311 ], [ -84.833523, 38.583691 ], [ -84.833244, 38.585247 ], [ -84.830052, 38.588754 ], [ -84.827573, 38.587884 ], [ -84.826603, 38.588995 ], [ -84.834846, 38.593403 ], [ -84.836575, 38.595004 ], [ -84.834951, 38.595976 ], [ -84.831114, 38.595173 ], [ -84.82949, 38.596196 ], [ -84.828565, 38.599252 ], [ -84.826948, 38.599961 ], [ -84.824622, 38.604182 ], [ -84.824957, 38.605957 ], [ -84.827133, 38.6097 ], [ -84.827377, 38.611256 ], [ -84.829378, 38.613674 ], [ -84.827204, 38.616194 ], [ -84.823747, 38.616606 ], [ -84.820947, 38.620059 ], [ -84.819288, 38.620696 ], [ -84.82049, 38.625284 ], [ -84.822569, 38.626162 ], [ -84.825546, 38.624847 ], [ -84.827128, 38.624902 ], [ -84.831167, 38.623803 ], [ -84.837805, 38.623649 ], [ -84.84148, 38.621844 ], [ -84.847718, 38.621524 ], [ -84.851063, 38.623033 ], [ -84.851812, 38.615692 ], [ -84.853836, 38.616468 ], [ -84.858294, 38.620442 ], [ -84.863342, 38.62299 ], [ -84.864657, 38.625166 ], [ -84.86631, 38.625907 ], [ -84.866323, 38.62754 ], [ -84.868367, 38.632098 ], [ -84.872502, 38.636389 ], [ -84.877602, 38.638429 ], [ -84.879643, 38.638534 ], [ -84.882502, 38.639431 ], [ -84.885312, 38.639185 ], [ -84.886946, 38.641794 ], [ -84.888833, 38.641713 ], [ -84.890557, 38.643388 ], [ -84.892807, 38.643565 ], [ -84.894744, 38.640573 ], [ -84.895039, 38.638756 ], [ -84.897757, 38.635203 ], [ -84.897345, 38.634318 ], [ -84.897706, 38.630329 ], [ -84.898803, 38.625279 ], [ -84.89959, 38.624566 ], [ -84.900866, 38.621143 ], [ -84.902911, 38.619731 ], [ -84.904787, 38.619721 ], [ -84.911346, 38.621188 ] ] ] } }
]
}
