{
"type": "FeatureCollection",
"name": "40357",
"crs": { "type": "name", "properties": { "name": "urn:ogc:def:crs:OGC:1.3:CRS84" } },
"features": [
{ "type": "Feature", "properties": { "Name": "", "Description": "" }, "geometry": { "type": "Polygon", "coordinates": [ [ [ -84.111019, 38.146081 ], [ -84.111286, 38.144189 ], [ -84.10747, 38.143779 ], [ -84.107297, 38.144685 ], [ -84.104334, 38.146069 ], [ -84.104451, 38.146099 ], [ -84.106239, 38.146347 ], [ -84.107633, 38.146532 ], [ -84.107754, 38.145827 ], [ -84.111019, 38.146081 ] ] ] } }
]
}
