{
"type": "FeatureCollection",
"name": "40536",
"crs": { "type": "name", "properties": { "name": "urn:ogc:def:crs:OGC:1.3:CRS84" } },
"features": [
{ "type": "Feature", "properties": { "Name": "", "Description": "" }, "geometry": { "type": "Polygon", "coordinates": [ [ [ -84.510044, 38.029968 ], [ -84.510734, 38.028116 ], [ -84.507686, 38.026729 ], [ -84.50614, 38.026378 ], [ -84.504867, 38.030524 ], [ -84.503846, 38.031426 ], [ -84.50605, 38.033383 ], [ -84.50877, 38.031522 ], [ -84.509471, 38.031556 ], [ -84.510044, 38.029968 ] ] ] } }
]
}
