{
"type": "FeatureCollection",
"name": "40803",
"crs": { "type": "name", "properties": { "name": "urn:ogc:def:crs:OGC:1.3:CRS84" } },
"features": [
{ "type": "Feature", "properties": { "Name": "", "Description": "" }, "geometry": { "type": "Polygon", "coordinates": [ [ [ -83.443079, 37.043033 ], [ -83.44104, 37.041332 ], [ -83.435861, 37.038037 ], [ -83.433248, 37.036987 ], [ -83.428369, 37.039321 ], [ -83.426608, 37.039348 ], [ -83.425381, 37.040167 ], [ -83.423159, 37.040567 ], [ -83.419878, 37.040552 ], [ -83.4159, 37.041669 ], [ -83.412224, 37.041751 ], [ -83.4116, 37.044494 ], [ -83.40804, 37.044198 ], [ -83.405794, 37.044893 ], [ -83.402986, 37.044332 ], [ -83.402794, 37.040331 ], [ -83.401806, 37.040886 ], [ -83.401778, 37.044173 ], [ -83.39731, 37.046342 ], [ -83.396971, 37.04675 ], [ -83.400179, 37.050131 ], [ -83.407608, 37.050684 ], [ -83.408467, 37.05225 ], [ -83.410053, 37.052229 ], [ -83.42008, 37.051006 ], [ -83.424651, 37.051027 ], [ -83.430301, 37.051585 ], [ -83.432396, 37.052274 ], [ -83.443079, 37.043033 ] ] ] } }
]
}
