{
"type": "FeatureCollection",
"name": "40981",
"crs": { "type": "name", "properties": { "name": "urn:ogc:def:crs:OGC:1.3:CRS84" } },
"features": [
{ "type": "Feature", "properties": { "Name": "", "Description": "" }, "geometry": { "type": "Polygon", "coordinates": [ [ [ -83.493169, 37.275477 ], [ -83.494604, 37.272764 ], [ -83.492067, 37.269825 ], [ -83.488897, 37.267913 ], [ -83.488242, 37.265866 ], [ -83.486593, 37.265188 ], [ -83.48588, 37.263661 ], [ -83.483417, 37.261818 ], [ -83.482398, 37.261703 ], [ -83.483022, 37.263061 ], [ -83.479725, 37.263583 ], [ -83.477515, 37.264709 ], [ -83.47632, 37.265903 ], [ -83.48079, 37.267957 ], [ -83.482552, 37.267422 ], [ -83.484604, 37.268048 ], [ -83.486366, 37.270258 ], [ -83.486828, 37.271977 ], [ -83.486136, 37.275407 ], [ -83.484298, 37.275746 ], [ -83.48376, 37.279051 ], [ -83.481781, 37.280505 ], [ -83.481306, 37.281899 ], [ -83.478953, 37.284518 ], [ -83.478971, 37.286035 ], [ -83.476708, 37.286844 ], [ -83.475836, 37.289012 ], [ -83.483566, 37.294576 ], [ -83.484541, 37.290528 ], [ -83.484677, 37.288156 ], [ -83.487569, 37.286079 ], [ -83.488743, 37.284513 ], [ -83.489139, 37.280954 ], [ -83.493955, 37.278355 ], [ -83.493169, 37.275477 ] ] ] } }
]
}
