{
"type": "FeatureCollection",
"name": "41181",
"crs": { "type": "name", "properties": { "name": "urn:ogc:def:crs:OGC:1.3:CRS84" } },
"features": [
{ "type": "Feature", "properties": { "Name": "", "Description": "" }, "geometry": { "type": "Polygon", "coordinates": [ [ [ -82.892089, 38.208377 ], [ -82.89011, 38.207531 ], [ -82.891957, 38.204436 ], [ -82.891792, 38.202776 ], [ -82.890401, 38.199928 ], [ -82.886424, 38.199971 ], [ -82.884329, 38.198564 ], [ -82.880962, 38.197844 ], [ -82.879615, 38.196541 ], [ -82.876594, 38.195436 ], [ -82.875358, 38.194425 ], [ -82.872567, 38.194173 ], [ -82.871836, 38.198124 ], [ -82.87011, 38.199114 ], [ -82.869897, 38.200975 ], [ -82.866002, 38.201814 ], [ -82.864643, 38.20496 ], [ -82.864846, 38.206484 ], [ -82.864205, 38.210031 ], [ -82.862559, 38.21089 ], [ -82.861018, 38.210828 ], [ -82.860402, 38.208987 ], [ -82.858756, 38.207017 ], [ -82.854341, 38.209247 ], [ -82.852995, 38.211322 ], [ -82.853903, 38.214199 ], [ -82.856256, 38.21516 ], [ -82.860923, 38.217383 ], [ -82.858638, 38.215541 ], [ -82.861392, 38.216972 ], [ -82.864351, 38.217355 ], [ -82.868451, 38.216935 ], [ -82.871126, 38.218263 ], [ -82.872419, 38.217016 ], [ -82.874841, 38.216256 ], [ -82.87741, 38.216584 ], [ -82.880279, 38.214878 ], [ -82.881748, 38.214955 ], [ -82.882981, 38.213901 ], [ -82.885905, 38.212683 ], [ -82.886882, 38.210795 ], [ -82.888736, 38.210267 ], [ -82.892089, 38.208377 ] ] ] } }
]
}
