{
"type": "FeatureCollection",
"name": "41310",
"crs": { "type": "name", "properties": { "name": "urn:ogc:def:crs:OGC:1.3:CRS84" } },
"features": [
{ "type": "Feature", "properties": { "Name": "", "Description": "" }, "geometry": { "type": "Polygon", "coordinates": [ [ [ -83.266177, 37.646848 ], [ -83.266398, 37.645735 ], [ -83.26584, 37.644074 ], [ -83.263579, 37.643711 ], [ -83.263238, 37.642329 ], [ -83.261599, 37.639876 ], [ -83.257954, 37.638523 ], [ -83.255925, 37.636765 ], [ -83.255098, 37.63421 ], [ -83.256211, 37.632448 ], [ -83.255875, 37.629718 ], [ -83.256463, 37.625677 ], [ -83.258717, 37.620375 ], [ -83.259774, 37.61859 ], [ -83.265205, 37.61315 ], [ -83.260939, 37.612884 ], [ -83.253866, 37.617384 ], [ -83.250473, 37.617156 ], [ -83.24629, 37.618964 ], [ -83.243008, 37.61922 ], [ -83.243673, 37.619762 ], [ -83.244398, 37.625191 ], [ -83.246189, 37.62657 ], [ -83.245086, 37.628904 ], [ -83.24514, 37.630481 ], [ -83.243903, 37.63238 ], [ -83.244687, 37.634389 ], [ -83.24345, 37.635169 ], [ -83.244071, 37.637915 ], [ -83.243879, 37.639695 ], [ -83.245385, 37.643493 ], [ -83.246748, 37.645941 ], [ -83.244873, 37.648577 ], [ -83.244237, 37.650578 ], [ -83.244071, 37.654726 ], [ -83.242949, 37.656469 ], [ -83.239363, 37.659949 ], [ -83.238815, 37.661479 ], [ -83.23576, 37.663965 ], [ -83.235698, 37.665277 ], [ -83.236624, 37.667146 ], [ -83.236944, 37.667753 ], [ -83.239881, 37.666862 ], [ -83.241812, 37.667658 ], [ -83.245761, 37.666627 ], [ -83.244636, 37.662767 ], [ -83.247474, 37.660438 ], [ -83.248673, 37.658177 ], [ -83.249951, 37.657351 ], [ -83.252116, 37.657236 ], [ -83.253949, 37.655623 ], [ -83.256026, 37.655652 ], [ -83.259705, 37.654568 ], [ -83.262415, 37.652333 ], [ -83.261908, 37.650599 ], [ -83.264205, 37.649227 ], [ -83.266177, 37.646848 ] ] ] } }
]
}
