{
"type": "FeatureCollection",
"name": "41351",
"crs": { "type": "name", "properties": { "name": "urn:ogc:def:crs:OGC:1.3:CRS84" } },
"features": [
{ "type": "Feature", "properties": { "Name": "", "Description": "" }, "geometry": { "type": "Polygon", "coordinates": [ [ [ -83.652165, 37.350442 ], [ -83.650274, 37.348756 ], [ -83.64804, 37.347967 ], [ -83.646203, 37.346557 ], [ -83.641535, 37.346136 ], [ -83.639937, 37.344431 ], [ -83.638572, 37.344166 ], [ -83.634295, 37.339177 ], [ -83.633098, 37.336147 ], [ -83.631743, 37.33478 ], [ -83.632253, 37.332632 ], [ -83.633374, 37.331335 ], [ -83.632762, 37.330538 ], [ -83.630392, 37.329928 ], [ -83.629596, 37.327675 ], [ -83.625423, 37.328754 ], [ -83.623805, 37.32765 ], [ -83.62381, 37.325976 ], [ -83.621897, 37.324421 ], [ -83.623301, 37.322945 ], [ -83.621908, 37.321494 ], [ -83.62187, 37.318066 ], [ -83.622383, 37.314781 ], [ -83.620415, 37.313984 ], [ -83.617968, 37.314732 ], [ -83.616151, 37.314301 ], [ -83.617352, 37.311502 ], [ -83.615989, 37.310167 ], [ -83.616615, 37.307931 ], [ -83.613141, 37.306631 ], [ -83.610721, 37.309184 ], [ -83.609147, 37.308774 ], [ -83.608679, 37.305023 ], [ -83.609331, 37.301278 ], [ -83.606817, 37.301785 ], [ -83.606387, 37.299619 ], [ -83.604254, 37.299047 ], [ -83.602547, 37.295813 ], [ -83.599031, 37.295563 ], [ -83.59841, 37.294799 ], [ -83.598576, 37.292946 ], [ -83.597279, 37.292255 ], [ -83.592148, 37.293519 ], [ -83.590674, 37.292954 ], [ -83.590051, 37.291243 ], [ -83.588739, 37.291353 ], [ -83.587464, 37.292468 ], [ -83.584156, 37.293717 ], [ -83.583132, 37.294827 ], [ -83.58079, 37.291619 ], [ -83.578017, 37.29158 ], [ -83.576958, 37.289164 ], [ -83.574036, 37.288235 ], [ -83.574519, 37.28583 ], [ -83.574048, 37.283875 ], [ -83.575705, 37.281424 ], [ -83.572942, 37.278146 ], [ -83.571013, 37.276638 ], [ -83.57127, 37.277782 ], [ -83.565907, 37.279066 ], [ -83.563808, 37.278562 ], [ -83.561946, 37.278859 ], [ -83.560412, 37.280798 ], [ -83.560302, 37.281786 ], [ -83.561273, 37.28296 ], [ -83.562533, 37.287439 ], [ -83.569343, 37.291208 ], [ -83.569798, 37.292784 ], [ -83.568704, 37.293978 ], [ -83.567859, 37.297923 ], [ -83.569604, 37.299912 ], [ -83.574402, 37.302603 ], [ -83.574602, 37.303546 ], [ -83.576156, 37.304238 ], [ -83.576716, 37.306156 ], [ -83.576226, 37.30825 ], [ -83.57677, 37.310157 ], [ -83.574085, 37.308676 ], [ -83.56997, 37.307569 ], [ -83.565555, 37.304467 ], [ -83.565006, 37.304576 ], [ -83.563983, 37.305505 ], [ -83.560016, 37.307063 ], [ -83.558552, 37.308277 ], [ -83.5598, 37.310614 ], [ -83.559524, 37.31245 ], [ -83.556259, 37.316106 ], [ -83.555513, 37.319224 ], [ -83.552109, 37.322263 ], [ -83.551071, 37.323852 ], [ -83.548942, 37.325376 ], [ -83.551724, 37.326835 ], [ -83.551697, 37.329636 ], [ -83.551536, 37.333033 ], [ -83.547628, 37.334418 ], [ -83.54716, 37.335482 ], [ -83.5459, 37.33603 ], [ -83.56379, 37.3477 ], [ -83.566036, 37.348161 ], [ -83.572181, 37.350723 ], [ -83.579949, 37.350017 ], [ -83.581461, 37.350337 ], [ -83.584993, 37.349957 ], [ -83.588242, 37.350221 ], [ -83.590551, 37.352264 ], [ -83.590583, 37.354173 ], [ -83.592829, 37.356652 ], [ -83.594793, 37.357359 ], [ -83.596437, 37.356677 ], [ -83.603688, 37.356741 ], [ -83.605842, 37.357558 ], [ -83.608436, 37.359715 ], [ -83.609697, 37.361823 ], [ -83.612282, 37.361612 ], [ -83.617256, 37.359705 ], [ -83.619288, 37.360548 ], [ -83.621625, 37.360257 ], [ -83.626242, 37.362546 ], [ -83.632582, 37.359835 ], [ -83.633686, 37.357702 ], [ -83.634945, 37.356948 ], [ -83.635838, 37.352066 ], [ -83.640869, 37.350712 ], [ -83.641472, 37.35101 ], [ -83.644195, 37.354812 ], [ -83.64631, 37.356551 ], [ -83.649063, 37.357188 ], [ -83.649078, 37.355672 ], [ -83.647553, 37.352734 ], [ -83.649238, 37.350867 ], [ -83.652165, 37.350442 ] ] ] } }
]
}
