{
"type": "FeatureCollection",
"name": "41364",
"crs": { "type": "name", "properties": { "name": "urn:ogc:def:crs:OGC:1.3:CRS84" } },
"features": [
{ "type": "Feature", "properties": { "Name": "", "Description": "" }, "geometry": { "type": "Polygon", "coordinates": [ [ [ -83.690349, 37.342086 ], [ -83.690791, 37.340673 ], [ -83.687975, 37.337921 ], [ -83.686953, 37.337351 ], [ -83.681336, 37.336858 ], [ -83.678553, 37.337055 ], [ -83.676135, 37.338275 ], [ -83.674816, 37.340387 ], [ -83.675154, 37.344638 ], [ -83.674131, 37.347528 ], [ -83.668138, 37.355232 ], [ -83.6658, 37.35618 ], [ -83.659765, 37.356825 ], [ -83.65394, 37.358061 ], [ -83.652996, 37.357911 ], [ -83.652336, 37.356552 ], [ -83.652519, 37.35464 ], [ -83.653478, 37.352214 ], [ -83.652165, 37.350442 ], [ -83.649238, 37.350867 ], [ -83.647553, 37.352734 ], [ -83.649078, 37.355672 ], [ -83.649063, 37.357188 ], [ -83.64631, 37.356551 ], [ -83.644195, 37.354812 ], [ -83.641472, 37.35101 ], [ -83.640869, 37.350712 ], [ -83.635838, 37.352066 ], [ -83.634945, 37.356948 ], [ -83.633686, 37.357702 ], [ -83.632582, 37.359835 ], [ -83.626242, 37.362546 ], [ -83.621625, 37.360257 ], [ -83.619288, 37.360548 ], [ -83.617256, 37.359705 ], [ -83.612282, 37.361612 ], [ -83.609697, 37.361823 ], [ -83.608436, 37.359715 ], [ -83.605842, 37.357558 ], [ -83.603688, 37.356741 ], [ -83.596437, 37.356677 ], [ -83.594793, 37.357359 ], [ -83.592829, 37.356652 ], [ -83.590583, 37.354173 ], [ -83.590551, 37.352264 ], [ -83.588242, 37.350221 ], [ -83.584993, 37.349957 ], [ -83.581461, 37.350337 ], [ -83.579949, 37.350017 ], [ -83.572181, 37.350723 ], [ -83.566036, 37.348161 ], [ -83.56379, 37.3477 ], [ -83.564856, 37.34875 ], [ -83.582736, 37.360258 ], [ -83.586401, 37.363036 ], [ -83.600745, 37.372697 ], [ -83.613395, 37.382147 ], [ -83.611546, 37.383133 ], [ -83.610393, 37.382177 ], [ -83.60849, 37.381974 ], [ -83.607526, 37.380394 ], [ -83.604521, 37.380541 ], [ -83.6031, 37.378866 ], [ -83.601798, 37.380026 ], [ -83.599664, 37.379595 ], [ -83.594755, 37.381506 ], [ -83.591798, 37.381075 ], [ -83.590983, 37.379723 ], [ -83.591074, 37.378027 ], [ -83.589027, 37.37665 ], [ -83.586846, 37.374454 ], [ -83.584792, 37.374483 ], [ -83.583871, 37.373371 ], [ -83.583686, 37.375294 ], [ -83.582649, 37.378164 ], [ -83.585281, 37.38099 ], [ -83.585954, 37.382984 ], [ -83.591255, 37.383564 ], [ -83.594958, 37.38487 ], [ -83.597136, 37.385024 ], [ -83.59955, 37.386782 ], [ -83.602381, 37.388029 ], [ -83.608045, 37.391128 ], [ -83.613145, 37.390988 ], [ -83.61649, 37.391492 ], [ -83.621892, 37.390759 ], [ -83.624734, 37.391186 ], [ -83.627058, 37.39381 ], [ -83.629346, 37.392326 ], [ -83.644374, 37.402798 ], [ -83.648082, 37.405601 ], [ -83.653451, 37.410439 ], [ -83.65979, 37.413817 ], [ -83.66217, 37.410531 ], [ -83.664925, 37.408847 ], [ -83.671486, 37.40575 ], [ -83.6725, 37.405502 ], [ -83.677032, 37.405631 ], [ -83.677299, 37.404476 ], [ -83.676315, 37.398578 ], [ -83.676262, 37.398086 ], [ -83.676791, 37.396886 ], [ -83.680342, 37.393088 ], [ -83.684076, 37.391174 ], [ -83.685936, 37.388286 ], [ -83.685208, 37.382299 ], [ -83.68485, 37.381345 ], [ -83.679346, 37.37587 ], [ -83.668744, 37.379053 ], [ -83.666665, 37.37849 ], [ -83.666379, 37.376895 ], [ -83.666828, 37.375861 ], [ -83.670496, 37.37413 ], [ -83.677176, 37.373165 ], [ -83.67952, 37.372135 ], [ -83.680101, 37.370926 ], [ -83.679914, 37.363348 ], [ -83.680604, 37.361069 ], [ -83.681971, 37.359076 ], [ -83.682334, 37.355442 ], [ -83.680555, 37.350806 ], [ -83.680734, 37.348691 ], [ -83.682186, 37.346599 ], [ -83.687664, 37.344134 ], [ -83.690349, 37.342086 ] ] ] } }
]
}
