{
"type": "FeatureCollection",
"name": "41386",
"crs": { "type": "name", "properties": { "name": "urn:ogc:def:crs:OGC:1.3:CRS84" } },
"features": [
{ "type": "Feature", "properties": { "Name": "", "Description": "" }, "geometry": { "type": "Polygon", "coordinates": [ [ [ -83.824191, 37.465825 ], [ -83.823687, 37.462965 ], [ -83.823962, 37.461795 ], [ -83.822853, 37.461653 ], [ -83.822099, 37.459952 ], [ -83.821279, 37.460869 ], [ -83.809954, 37.476559 ], [ -83.805737, 37.47434 ], [ -83.801667, 37.474356 ], [ -83.799372, 37.471064 ], [ -83.800853, 37.470691 ], [ -83.798504, 37.46755 ], [ -83.797157, 37.46772 ], [ -83.794896, 37.469589 ], [ -83.792118, 37.470817 ], [ -83.788708, 37.471118 ], [ -83.785911, 37.470684 ], [ -83.785015, 37.470085 ], [ -83.777328, 37.468497 ], [ -83.773934, 37.468373 ], [ -83.774148, 37.469839 ], [ -83.771139, 37.477081 ], [ -83.770299, 37.478368 ], [ -83.768595, 37.484574 ], [ -83.768393, 37.487522 ], [ -83.769059, 37.49193 ], [ -83.812306, 37.488244 ], [ -83.823271, 37.487309 ], [ -83.82383, 37.486443 ], [ -83.821533, 37.485763 ], [ -83.819916, 37.485917 ], [ -83.818489, 37.487084 ], [ -83.816902, 37.487201 ], [ -83.815666, 37.486241 ], [ -83.818245, 37.484619 ], [ -83.81601, 37.483532 ], [ -83.813423, 37.483071 ], [ -83.811973, 37.481326 ], [ -83.813034, 37.479278 ], [ -83.816133, 37.475918 ], [ -83.817903, 37.475984 ], [ -83.818599, 37.475061 ], [ -83.81625, 37.474122 ], [ -83.818075, 37.472695 ], [ -83.819452, 37.470043 ], [ -83.818956, 37.469258 ], [ -83.820706, 37.467303 ], [ -83.824191, 37.465825 ] ] ] } }
]
}
