{
"type": "FeatureCollection",
"name": "41651",
"crs": { "type": "name", "properties": { "name": "urn:ogc:def:crs:OGC:1.3:CRS84" } },
"features": [
{ "type": "Feature", "properties": { "Name": "", "Description": "" }, "geometry": { "type": "Polygon", "coordinates": [ [ [ -82.76686, 37.464052 ], [ -82.766792, 37.464003 ], [ -82.760138, 37.460921 ], [ -82.758405, 37.460825 ], [ -82.755652, 37.460676 ], [ -82.754886, 37.460999 ], [ -82.753246, 37.45951 ], [ -82.750328, 37.458123 ], [ -82.746003, 37.456857 ], [ -82.746314, 37.457826 ], [ -82.750035, 37.459359 ], [ -82.751288, 37.461024 ], [ -82.75336, 37.461659 ], [ -82.752431, 37.462057 ], [ -82.747483, 37.465424 ], [ -82.744188, 37.466391 ], [ -82.747557, 37.469558 ], [ -82.749339, 37.473756 ], [ -82.750598, 37.473296 ], [ -82.752026, 37.469565 ], [ -82.754106, 37.470102 ], [ -82.752576, 37.47 ], [ -82.751478, 37.472867 ], [ -82.750216, 37.473993 ], [ -82.747038, 37.4752 ], [ -82.745889, 37.47659 ], [ -82.745918, 37.47837 ], [ -82.752487, 37.479344 ], [ -82.752948, 37.480476 ], [ -82.75226, 37.482371 ], [ -82.754044, 37.48155 ], [ -82.752893, 37.479664 ], [ -82.75228, 37.479162 ], [ -82.746826, 37.478477 ], [ -82.746262, 37.476744 ], [ -82.747536, 37.47606 ], [ -82.751129, 37.476523 ], [ -82.752813, 37.475603 ], [ -82.751849, 37.474912 ], [ -82.753943, 37.473087 ], [ -82.761483, 37.471193 ], [ -82.762997, 37.470152 ], [ -82.766101, 37.466331 ], [ -82.766432, 37.465425 ], [ -82.76686, 37.464052 ] ] ] } }
]
}
