{
"type": "FeatureCollection",
"name": "41778",
"crs": { "type": "name", "properties": { "name": "urn:ogc:def:crs:OGC:1.3:CRS84" } },
"features": [
{ "type": "Feature", "properties": { "Name": "", "Description": "" }, "geometry": { "type": "Polygon", "coordinates": [ [ [ -83.344394, 37.260206 ], [ -83.34388, 37.258947 ], [ -83.342234, 37.257495 ], [ -83.337263, 37.255812 ], [ -83.335966, 37.253943 ], [ -83.338683, 37.252099 ], [ -83.339384, 37.250603 ], [ -83.336878, 37.248496 ], [ -83.334331, 37.247802 ], [ -83.333508, 37.251572 ], [ -83.332394, 37.252862 ], [ -83.330386, 37.253976 ], [ -83.325977, 37.25513 ], [ -83.325222, 37.257695 ], [ -83.321187, 37.258956 ], [ -83.318945, 37.260984 ], [ -83.317247, 37.260962 ], [ -83.315158, 37.259028 ], [ -83.311983, 37.261038 ], [ -83.311694, 37.261944 ], [ -83.309657, 37.263819 ], [ -83.306138, 37.264639 ], [ -83.30658, 37.266304 ], [ -83.306138, 37.27044 ], [ -83.301475, 37.273627 ], [ -83.295764, 37.276575 ], [ -83.300216, 37.27857 ], [ -83.304471, 37.278116 ], [ -83.306113, 37.279638 ], [ -83.308904, 37.280368 ], [ -83.31155, 37.279515 ], [ -83.312835, 37.278449 ], [ -83.313907, 37.278889 ], [ -83.315901, 37.278565 ], [ -83.319412, 37.274769 ], [ -83.319556, 37.273676 ], [ -83.325893, 37.273626 ], [ -83.328758, 37.271797 ], [ -83.330208, 37.271336 ], [ -83.331651, 37.270001 ], [ -83.335354, 37.268111 ], [ -83.341376, 37.267619 ], [ -83.339717, 37.266021 ], [ -83.339512, 37.264658 ], [ -83.342102, 37.264061 ], [ -83.342267, 37.263021 ], [ -83.344394, 37.260206 ] ] ] } }
]
}
