{
"type": "FeatureCollection",
"name": "42131",
"crs": { "type": "name", "properties": { "name": "urn:ogc:def:crs:OGC:1.3:CRS84" } },
"features": [
{ "type": "Feature", "properties": { "Name": "", "Description": "" }, "geometry": { "type": "Polygon", "coordinates": [ [ [ -85.928723, 36.817306 ], [ -85.925031, 36.814972 ], [ -85.924861, 36.815064 ], [ -85.924137, 36.813337 ], [ -85.923523, 36.811136 ], [ -85.923065, 36.808327 ], [ -85.920265, 36.808669 ], [ -85.918768, 36.808216 ], [ -85.91876, 36.806484 ], [ -85.918258, 36.80505 ], [ -85.915983, 36.804959 ], [ -85.912048, 36.802964 ], [ -85.909582, 36.800694 ], [ -85.907723, 36.800419 ], [ -85.90635, 36.800407 ], [ -85.902209, 36.802175 ], [ -85.900084, 36.80168 ], [ -85.898307, 36.802482 ], [ -85.897492, 36.805388 ], [ -85.895551, 36.80675 ], [ -85.894349, 36.808547 ], [ -85.894859, 36.813036 ], [ -85.896216, 36.816976 ], [ -85.896531, 36.818894 ], [ -85.896374, 36.823267 ], [ -85.898443, 36.82927 ], [ -85.898336, 36.833344 ], [ -85.899991, 36.835431 ], [ -85.898111, 36.839905 ], [ -85.897635, 36.844348 ], [ -85.897808, 36.849095 ], [ -85.898939, 36.853561 ], [ -85.900366, 36.858048 ], [ -85.900651, 36.860099 ], [ -85.903332, 36.864536 ], [ -85.905494, 36.865925 ], [ -85.909271, 36.866233 ], [ -85.909628, 36.863115 ], [ -85.911654, 36.862365 ], [ -85.91251, 36.86067 ], [ -85.906538, 36.859058 ], [ -85.906845, 36.856218 ], [ -85.912821, 36.856094 ], [ -85.916552, 36.857323 ], [ -85.91699, 36.854568 ], [ -85.909118, 36.853206 ], [ -85.909143, 36.851046 ], [ -85.908045, 36.850344 ], [ -85.907943, 36.848311 ], [ -85.906966, 36.847712 ], [ -85.908478, 36.845492 ], [ -85.910496, 36.840927 ], [ -85.909034, 36.839805 ], [ -85.906484, 36.839293 ], [ -85.905576, 36.837095 ], [ -85.903587, 36.836672 ], [ -85.904715, 36.836398 ], [ -85.906663, 36.837449 ], [ -85.909732, 36.838267 ], [ -85.911908, 36.8396 ], [ -85.917686, 36.840674 ], [ -85.918506, 36.837815 ], [ -85.918382, 36.83376 ], [ -85.923803, 36.83409 ], [ -85.924157, 36.83233 ], [ -85.925863, 36.832691 ], [ -85.928013, 36.828304 ], [ -85.924839, 36.819746 ], [ -85.928723, 36.817306 ] ] ] } }
]
}
