{
"type": "FeatureCollection",
"name": "42252",
"crs": { "type": "name", "properties": { "name": "urn:ogc:def:crs:OGC:1.3:CRS84" } },
"features": [
{ "type": "Feature", "properties": { "Name": "", "Description": "" }, "geometry": { "type": "MultiPolygon", "coordinates": [ [ [ [ -86.512704, 37.25214 ], [ -86.51267, 37.250913 ], [ -86.509972, 37.247047 ], [ -86.509164, 37.245158 ], [ -86.504735, 37.242504 ], [ -86.503629, 37.239237 ], [ -86.504218, 37.235911 ], [ -86.505747, 37.235116 ], [ -86.508332, 37.235342 ], [ -86.509329, 37.234274 ], [ -86.512154, 37.232992 ], [ -86.511296, 37.231195 ], [ -86.511091, 37.229102 ], [ -86.509396, 37.22682 ], [ -86.50873, 37.225172 ], [ -86.508993, 37.223276 ], [ -86.505691, 37.2195 ], [ -86.502484, 37.21647 ], [ -86.499773, 37.214525 ], [ -86.499099, 37.213327 ], [ -86.497243, 37.212141 ], [ -86.495663, 37.211741 ], [ -86.494131, 37.212302 ], [ -86.492134, 37.215138 ], [ -86.492541, 37.216962 ], [ -86.49125, 37.218776 ], [ -86.488965, 37.223376 ], [ -86.487559, 37.22702 ], [ -86.489092, 37.228322 ], [ -86.489959, 37.230278 ], [ -86.489341, 37.23125 ], [ -86.49003, 37.233294 ], [ -86.488952, 37.234317 ], [ -86.489859, 37.235036 ], [ -86.489421, 37.237229 ], [ -86.488364, 37.238504 ], [ -86.488554, 37.245466 ], [ -86.492343, 37.246223 ], [ -86.507993, 37.249994 ], [ -86.512704, 37.25214 ] ] ], [ [ [ -86.513516, 37.25506 ], [ -86.51399, 37.253424 ], [ -86.510676, 37.253316 ], [ -86.510023, 37.251645 ], [ -86.508401, 37.251837 ], [ -86.508555, 37.25076 ], [ -86.505991, 37.250239 ], [ -86.504336, 37.251739 ], [ -86.501787, 37.251222 ], [ -86.504044, 37.254268 ], [ -86.499967, 37.258474 ], [ -86.498691, 37.265474 ], [ -86.503508, 37.268478 ], [ -86.504279, 37.264131 ], [ -86.504779, 37.263528 ], [ -86.507091, 37.26333 ], [ -86.50812, 37.263921 ], [ -86.510797, 37.264157 ], [ -86.511245, 37.263696 ], [ -86.511482, 37.259242 ], [ -86.510183, 37.258174 ], [ -86.513516, 37.25506 ] ] ] ] } }
]
}
