{
"type": "FeatureCollection",
"name": "42742",
"crs": { "type": "name", "properties": { "name": "urn:ogc:def:crs:OGC:1.3:CRS84" } },
"features": [
{ "type": "Feature", "properties": { "Name": "", "Description": "" }, "geometry": { "type": "Polygon", "coordinates": [ [ [ -85.499993, 37.077364 ], [ -85.500101, 37.074029 ], [ -85.49778, 37.072228 ], [ -85.498492, 37.070203 ], [ -85.497488, 37.064043 ], [ -85.498146, 37.062441 ], [ -85.49152, 37.06839 ], [ -85.473685, 37.073168 ], [ -85.448347, 37.07996 ], [ -85.443678, 37.080336 ], [ -85.442132, 37.08127 ], [ -85.446243, 37.083888 ], [ -85.450736, 37.081714 ], [ -85.451226, 37.083262 ], [ -85.454773, 37.085551 ], [ -85.457386, 37.08679 ], [ -85.463032, 37.084553 ], [ -85.469611, 37.080467 ], [ -85.472106, 37.079966 ], [ -85.47347, 37.078159 ], [ -85.474547, 37.078686 ], [ -85.478572, 37.079124 ], [ -85.480279, 37.077992 ], [ -85.484578, 37.077847 ], [ -85.489057, 37.083928 ], [ -85.488941, 37.086774 ], [ -85.49128, 37.088168 ], [ -85.495769, 37.08889 ], [ -85.498024, 37.084568 ], [ -85.497738, 37.0814 ], [ -85.498534, 37.078411 ], [ -85.499993, 37.077364 ] ] ] } }
]
}
