{
"type": "FeatureCollection",
"name": "42759",
"crs": { "type": "name", "properties": { "name": "urn:ogc:def:crs:OGC:1.3:CRS84" } },
"features": [
{ "type": "Feature", "properties": { "Name": "", "Description": "" }, "geometry": { "type": "Polygon", "coordinates": [ [ [ -85.516472, 36.833637 ], [ -85.51735, 36.828595 ], [ -85.512375, 36.825845 ], [ -85.51007, 36.824748 ], [ -85.509882, 36.826336 ], [ -85.508218, 36.827933 ], [ -85.514029, 36.832166 ], [ -85.515748, 36.833808 ], [ -85.516152, 36.834261 ], [ -85.516472, 36.833637 ] ] ] } }
]
}
