{
"type": "FeatureCollection",
"name": "43007",
"crs": { "type": "name", "properties": { "name": "urn:ogc:def:crs:OGC:1.3:CRS84" } },
"features": [
{ "type": "Feature", "properties": { "Name": "", "Description": "" }, "geometry": { "type": "Polygon", "coordinates": [ [ [ -83.426249, 40.338744 ], [ -83.42696, 40.330819 ], [ -83.417152, 40.327105 ], [ -83.412346, 40.323556 ], [ -83.402286, 40.318448 ], [ -83.387934, 40.319544 ], [ -83.395696, 40.344723 ], [ -83.411343, 40.341632 ], [ -83.412627, 40.34065 ], [ -83.413352, 40.34123 ], [ -83.421923, 40.339573 ], [ -83.426249, 40.338744 ] ] ] } }
]
}
