{
"type": "FeatureCollection",
"name": "43018",
"crs": { "type": "name", "properties": { "name": "urn:ogc:def:crs:OGC:1.3:CRS84" } },
"features": [
{ "type": "Feature", "properties": { "Name": "", "Description": "" }, "geometry": { "type": "Polygon", "coordinates": [ [ [ -82.693248, 39.957431 ], [ -82.692629, 39.95713 ], [ -82.686171, 39.957238 ], [ -82.686195, 39.956376 ], [ -82.682585, 39.956299 ], [ -82.682537, 39.95397 ], [ -82.68284, 39.950887 ], [ -82.682661, 39.948853 ], [ -82.682546, 39.948847 ], [ -82.667215, 39.948107 ], [ -82.666697, 39.955199 ], [ -82.670311, 39.957796 ], [ -82.676133, 39.958812 ], [ -82.682624, 39.958937 ], [ -82.685148, 39.958841 ], [ -82.688483, 39.958445 ], [ -82.693248, 39.957431 ] ] ] } }
]
}
