{
"type": "FeatureCollection",
"name": "43047",
"crs": { "type": "name", "properties": { "name": "urn:ogc:def:crs:OGC:1.3:CRS84" } },
"features": [
{ "type": "Feature", "properties": { "Name": "", "Description": "" }, "geometry": { "type": "Polygon", "coordinates": [ [ [ -83.63899, 40.20771 ], [ -83.638919, 40.207542 ], [ -83.63816, 40.207513 ], [ -83.638197, 40.207051 ], [ -83.637382, 40.207011 ], [ -83.636875, 40.207032 ], [ -83.637107, 40.207914 ], [ -83.637457, 40.208828 ], [ -83.638059, 40.208743 ], [ -83.638722, 40.20892 ], [ -83.638903, 40.208803 ], [ -83.63899, 40.20771 ] ] ] } }
]
}
