{
"type": "FeatureCollection",
"name": "43325",
"crs": { "type": "name", "properties": { "name": "urn:ogc:def:crs:OGC:1.3:CRS84" } },
"features": [
{ "type": "Feature", "properties": { "Name": "", "Description": "" }, "geometry": { "type": "Polygon", "coordinates": [ [ [ -82.845421, 40.669647 ], [ -82.841832, 40.666935 ], [ -82.839621, 40.664679 ], [ -82.838487, 40.661845 ], [ -82.829356, 40.661825 ], [ -82.828658, 40.663058 ], [ -82.826252, 40.665083 ], [ -82.82138, 40.66759 ], [ -82.820812, 40.676437 ], [ -82.820142, 40.678755 ], [ -82.821946, 40.679241 ], [ -82.82486, 40.677032 ], [ -82.837304, 40.672524 ], [ -82.845421, 40.669647 ] ] ] } }
]
}
