{
"type": "FeatureCollection",
"name": "43346",
"crs": { "type": "name", "properties": { "name": "urn:ogc:def:crs:OGC:1.3:CRS84" } },
"features": [
{ "type": "Feature", "properties": { "Name": "", "Description": "" }, "geometry": { "type": "Polygon", "coordinates": [ [ [ -83.86001, 40.586757 ], [ -83.856756, 40.581253 ], [ -83.850128, 40.577115 ], [ -83.848924, 40.575672 ], [ -83.847591, 40.572309 ], [ -83.845927, 40.569432 ], [ -83.842794, 40.564893 ], [ -83.836423, 40.560232 ], [ -83.83548, 40.559136 ], [ -83.834027, 40.559886 ], [ -83.835862, 40.563068 ], [ -83.836425, 40.56741 ], [ -83.839518, 40.578352 ], [ -83.839649, 40.58449 ], [ -83.840929, 40.586882 ], [ -83.86001, 40.586757 ] ] ] } }
]
}
