{
"type": "FeatureCollection",
"name": "43350",
"crs": { "type": "name", "properties": { "name": "urn:ogc:def:crs:OGC:1.3:CRS84" } },
"features": [
{ "type": "Feature", "properties": { "Name": "", "Description": "" }, "geometry": { "type": "Polygon", "coordinates": [ [ [ -82.704464, 40.398621 ], [ -82.702237, 40.396505 ], [ -82.701457, 40.394933 ], [ -82.704235, 40.394183 ], [ -82.702754, 40.392612 ], [ -82.701286, 40.393452 ], [ -82.698167, 40.391291 ], [ -82.6973, 40.39181 ], [ -82.697727, 40.394298 ], [ -82.696399, 40.395057 ], [ -82.695842, 40.395377 ], [ -82.697062, 40.397049 ], [ -82.695256, 40.398267 ], [ -82.704464, 40.398621 ] ] ] } }
]
}
