{
"type": "FeatureCollection",
"name": "43414",
"crs": { "type": "name", "properties": { "name": "urn:ogc:def:crs:OGC:1.3:CRS84" } },
"features": [
{ "type": "Feature", "properties": { "Name": "", "Description": "" }, "geometry": { "type": "Polygon", "coordinates": [ [ [ -83.622043, 41.457985 ], [ -83.622084, 41.447672 ], [ -83.621609, 41.443432 ], [ -83.616822, 41.443356 ], [ -83.609709, 41.456468 ], [ -83.609699, 41.457779 ], [ -83.612377, 41.457834 ], [ -83.612378, 41.456743 ], [ -83.614567, 41.457874 ], [ -83.622043, 41.457985 ] ] ] } }
]
}
