{
"type": "FeatureCollection",
"name": "43436",
"crs": { "type": "name", "properties": { "name": "urn:ogc:def:crs:OGC:1.3:CRS84" } },
"features": [
{ "type": "Feature", "properties": { "Name": "", "Description": "" }, "geometry": { "type": "Polygon", "coordinates": [ [ [ -82.835506, 41.71119 ], [ -82.835118, 41.708971 ], [ -82.831807, 41.708728 ], [ -82.829008, 41.710108 ], [ -82.82321, 41.707758 ], [ -82.815813, 41.707608 ], [ -82.809316, 41.70884 ], [ -82.812314, 41.712757 ], [ -82.812264, 41.717943 ], [ -82.811165, 41.720033 ], [ -82.813489, 41.723468 ], [ -82.820409, 41.724549 ], [ -82.821678693667394, 41.724133259595597 ], [ -82.82572, 41.72281 ], [ -82.827948, 41.718075 ], [ -82.832709, 41.71565 ], [ -82.832607, 41.714213 ], [ -82.830408, 41.713093 ], [ -82.831857, 41.711228 ], [ -82.835506, 41.71119 ] ] ] } }
]
}
