{
"type": "FeatureCollection",
"name": "43520",
"crs": { "type": "name", "properties": { "name": "urn:ogc:def:crs:OGC:1.3:CRS84" } },
"features": [
{ "type": "Feature", "properties": { "Name": "", "Description": "" }, "geometry": { "type": "Polygon", "coordinates": [ [ [ -84.641974, 41.368918 ], [ -84.642398, 41.365866 ], [ -84.637939, 41.364161 ], [ -84.636802, 41.364306 ], [ -84.63528, 41.362706 ], [ -84.633134, 41.361409 ], [ -84.630769, 41.361359 ], [ -84.631234, 41.397886 ], [ -84.638726, 41.397905 ], [ -84.640806, 41.393345 ], [ -84.640662, 41.383257 ], [ -84.64232, 41.383226 ], [ -84.638391, 41.37821 ], [ -84.638616, 41.375732 ], [ -84.640132, 41.372639 ], [ -84.640545, 41.370444 ], [ -84.641974, 41.368918 ] ] ] } }
]
}
