{
"type": "FeatureCollection",
"name": "43791",
"crs": { "type": "name", "properties": { "name": "urn:ogc:def:crs:OGC:1.3:CRS84" } },
"features": [
{ "type": "Feature", "properties": { "Name": "", "Description": "" }, "geometry": { "type": "Polygon", "coordinates": [ [ [ -82.101135, 39.872974 ], [ -82.098879, 39.872776 ], [ -82.098446, 39.871658 ], [ -82.091714, 39.876431 ], [ -82.086686, 39.877038 ], [ -82.082836, 39.878197 ], [ -82.07519, 39.882286 ], [ -82.077295, 39.882006 ], [ -82.089177, 39.879341 ], [ -82.091595, 39.878247 ], [ -82.101135, 39.872974 ] ] ] } }
]
}
