{
"type": "FeatureCollection",
"name": "43909",
"crs": { "type": "name", "properties": { "name": "urn:ogc:def:crs:OGC:1.3:CRS84" } },
"features": [
{ "type": "Feature", "properties": { "Name": "", "Description": "" }, "geometry": { "type": "Polygon", "coordinates": [ [ [ -80.820438, 40.068394 ], [ -80.820727, 40.066873 ], [ -80.818773, 40.066988 ], [ -80.810113, 40.067436 ], [ -80.806264, 40.067089 ], [ -80.809355, 40.067689 ], [ -80.810832, 40.068322 ], [ -80.819434, 40.068357 ], [ -80.819568, 40.069094 ], [ -80.820438, 40.068394 ] ] ] } }
]
}
