{
"type": "FeatureCollection",
"name": "43981",
"crs": { "type": "name", "properties": { "name": "urn:ogc:def:crs:OGC:1.3:CRS84" } },
"features": [
{ "type": "Feature", "properties": { "Name": "", "Description": "" }, "geometry": { "type": "Polygon", "coordinates": [ [ [ -80.998901, 40.1837 ], [ -81.000174, 40.183168 ], [ -80.997516, 40.178097 ], [ -80.996219, 40.178105 ], [ -80.993601, 40.178092 ], [ -80.993115, 40.182928 ], [ -80.991624, 40.183003 ], [ -80.991493, 40.185155 ], [ -80.990351, 40.185151 ], [ -80.990115, 40.188467 ], [ -80.99043, 40.188988 ], [ -80.991651, 40.18988 ], [ -80.995832, 40.189971 ], [ -80.995599, 40.18833 ], [ -80.995711, 40.186543 ], [ -80.995869, 40.184001 ], [ -80.997442, 40.184068 ], [ -80.997788, 40.184037 ], [ -80.998901, 40.1837 ] ] ] } }
]
}
