{
"type": "FeatureCollection",
"name": "44068",
"crs": { "type": "name", "properties": { "name": "urn:ogc:def:crs:OGC:1.3:CRS84" } },
"features": [
{ "type": "Feature", "properties": { "Name": "", "Description": "" }, "geometry": { "type": "Polygon", "coordinates": [ [ [ -80.690547, 41.905973 ], [ -80.6896, 41.903475 ], [ -80.689061, 41.902724 ], [ -80.682603, 41.903121 ], [ -80.680473, 41.903506 ], [ -80.67994, 41.903603 ], [ -80.679948, 41.903171 ], [ -80.669586, 41.903087 ], [ -80.66657, 41.90306 ], [ -80.666537, 41.906958 ], [ -80.674202, 41.906862 ], [ -80.675649, 41.907562 ], [ -80.676785, 41.912971 ], [ -80.688137, 41.906988 ], [ -80.690547, 41.905973 ] ] ] } }
]
}
