{
"type": "FeatureCollection",
"name": "44325",
"crs": { "type": "name", "properties": { "name": "urn:ogc:def:crs:OGC:1.3:CRS84" } },
"features": [
{ "type": "Feature", "properties": { "Name": "", "Description": "" }, "geometry": { "type": "Polygon", "coordinates": [ [ [ -81.518435, 41.0751 ], [ -81.519863, 41.072885 ], [ -81.517092, 41.071785 ], [ -81.515573, 41.073957 ], [ -81.514567, 41.073566 ], [ -81.511823, 41.072461 ], [ -81.510937, 41.072106 ], [ -81.509749, 41.071617 ], [ -81.509714, 41.073426 ], [ -81.50622, 41.073479 ], [ -81.504729, 41.075319 ], [ -81.504655, 41.076598 ], [ -81.507547, 41.077127 ], [ -81.507268, 41.080392 ], [ -81.509231, 41.079786 ], [ -81.509291, 41.079655 ], [ -81.50927, 41.077783 ], [ -81.511159, 41.078106 ], [ -81.511141, 41.080505 ], [ -81.512386, 41.081034 ], [ -81.512762, 41.081189 ], [ -81.512834, 41.081219 ], [ -81.515146, 41.079969 ], [ -81.518746, 41.075216 ], [ -81.518435, 41.0751 ] ] ] } }
]
}
