{
"type": "FeatureCollection",
"name": "44415",
"crs": { "type": "name", "properties": { "name": "urn:ogc:def:crs:OGC:1.3:CRS84" } },
"features": [
{ "type": "Feature", "properties": { "Name": "", "Description": "" }, "geometry": { "type": "Polygon", "coordinates": [ [ [ -80.711199, 40.770176 ], [ -80.711996, 40.768036 ], [ -80.709802, 40.76767 ], [ -80.708762, 40.766615 ], [ -80.708268, 40.766114 ], [ -80.706194, 40.765902 ], [ -80.703478, 40.766634 ], [ -80.697733, 40.766216 ], [ -80.700658, 40.776019 ], [ -80.708574, 40.775656 ], [ -80.708823, 40.772426 ], [ -80.711199, 40.770176 ] ] ] } }
]
}
