{
"type": "FeatureCollection",
"name": "44424",
"crs": { "type": "name", "properties": { "name": "urn:ogc:def:crs:OGC:1.3:CRS84" } },
"features": [
{ "type": "Feature", "properties": { "Name": "", "Description": "" }, "geometry": { "type": "Polygon", "coordinates": [ [ [ -80.598244, 41.332483 ], [ -80.598269, 41.312366 ], [ -80.590593, 41.31155 ], [ -80.570044, 41.311552 ], [ -80.56843, 41.310943 ], [ -80.568426, 41.311539 ], [ -80.568252, 41.329113 ], [ -80.568792, 41.332326 ], [ -80.569792, 41.332303 ], [ -80.581553, 41.332364 ], [ -80.598244, 41.332483 ] ] ] } }
]
}
