{
"type": "FeatureCollection",
"name": "44555",
"crs": { "type": "name", "properties": { "name": "urn:ogc:def:crs:OGC:1.3:CRS84" } },
"features": [
{ "type": "Feature", "properties": { "Name": "", "Description": "" }, "geometry": { "type": "Polygon", "coordinates": [ [ [ -80.651154, 41.107765 ], [ -80.652302, 41.106345 ], [ -80.646425, 41.103805 ], [ -80.646025, 41.104327 ], [ -80.644814, 41.105915 ], [ -80.648106, 41.107325 ], [ -80.646509, 41.109426 ], [ -80.648707, 41.110359 ], [ -80.650173, 41.110659 ], [ -80.651044, 41.11097 ], [ -80.650978, 41.108802 ], [ -80.651154, 41.107765 ] ] ] } }
]
}
