{
"type": "FeatureCollection",
"name": "44619",
"crs": { "type": "name", "properties": { "name": "urn:ogc:def:crs:OGC:1.3:CRS84" } },
"features": [
{ "type": "Feature", "properties": { "Name": "", "Description": "" }, "geometry": { "type": "Polygon", "coordinates": [ [ [ -80.966753, 40.911822 ], [ -80.964922, 40.910261 ], [ -80.964803, 40.908163 ], [ -80.964286, 40.907126 ], [ -80.964293, 40.901415 ], [ -80.961216, 40.901403 ], [ -80.958254, 40.901392 ], [ -80.958229, 40.900786 ], [ -80.957121, 40.900796 ], [ -80.952594, 40.900727 ], [ -80.952604, 40.901377 ], [ -80.952573, 40.901377 ], [ -80.952575, 40.901958 ], [ -80.950642, 40.901954 ], [ -80.950656, 40.902437 ], [ -80.949818, 40.902547 ], [ -80.949606, 40.902394 ], [ -80.949598, 40.901355 ], [ -80.944005, 40.901308 ], [ -80.943152, 40.906894 ], [ -80.945693, 40.908993 ], [ -80.948259, 40.909635 ], [ -80.95386, 40.91122 ], [ -80.955082, 40.911045 ], [ -80.955111, 40.906941 ], [ -80.957606, 40.906642 ], [ -80.960699, 40.905937 ], [ -80.962659, 40.90812 ], [ -80.962292, 40.90987 ], [ -80.964649, 40.911432 ], [ -80.966753, 40.911822 ] ] ] } }
]
}
