{
"type": "FeatureCollection",
"name": "44639",
"crs": { "type": "name", "properties": { "name": "urn:ogc:def:crs:OGC:1.3:CRS84" } },
"features": [
{ "type": "Feature", "properties": { "Name": "", "Description": "" }, "geometry": { "type": "MultiPolygon", "coordinates": [ [ [ [ -81.21449, 40.449807 ], [ -81.214481, 40.448816 ], [ -81.213485, 40.448781 ], [ -81.213422, 40.449751 ], [ -81.213422, 40.449892 ], [ -81.214326, 40.449898 ], [ -81.214408, 40.449889 ], [ -81.21449, 40.449807 ] ] ], [ [ [ -81.217033, 40.45185 ], [ -81.216582, 40.450744 ], [ -81.214477, 40.451186 ], [ -81.213422, 40.449892 ], [ -81.213233, 40.448317 ], [ -81.211819, 40.448301 ], [ -81.209023, 40.448244 ], [ -81.208509, 40.449992 ], [ -81.205875, 40.448135 ], [ -81.203727, 40.448096 ], [ -81.203344, 40.450599 ], [ -81.210434, 40.457571 ], [ -81.210764, 40.457122 ], [ -81.211567, 40.453826 ], [ -81.214097, 40.453914 ], [ -81.214239, 40.452825 ], [ -81.217033, 40.45185 ] ] ] ] } }
]
}
