{
"type": "FeatureCollection",
"name": "44665",
"crs": { "type": "name", "properties": { "name": "urn:ogc:def:crs:OGC:1.3:CRS84" } },
"features": [
{ "type": "Feature", "properties": { "Name": "", "Description": "" }, "geometry": { "type": "Polygon", "coordinates": [ [ [ -80.993915, 40.833463 ], [ -80.993825, 40.82839 ], [ -80.987277, 40.82841 ], [ -80.98668, 40.82992 ], [ -80.984723, 40.82992 ], [ -80.98429, 40.832056 ], [ -80.979966, 40.832088 ], [ -80.980239, 40.839645 ], [ -80.983534, 40.839648 ], [ -80.983632, 40.843059 ], [ -80.985197, 40.843007 ], [ -80.985195, 40.844058 ], [ -80.985357, 40.844146 ], [ -80.986097, 40.844155 ], [ -80.986085, 40.843632 ], [ -80.987335, 40.843636 ], [ -80.987564, 40.843499 ], [ -80.987577, 40.843027 ], [ -80.989456, 40.843026 ], [ -80.991868, 40.838255 ], [ -80.991309, 40.836008 ], [ -80.993915, 40.833463 ] ] ] } }
]
}
