{
"type": "FeatureCollection",
"name": "44660",
"crs": { "type": "name", "properties": { "name": "urn:ogc:def:crs:OGC:1.3:CRS84" } },
"features": [
{ "type": "Feature", "properties": { "Name": "", "Description": "" }, "geometry": { "type": "Polygon", "coordinates": [ [ [ -81.792071, 40.624116 ], [ -81.792061, 40.622432 ], [ -81.787426, 40.620164 ], [ -81.784223, 40.620221 ], [ -81.784104, 40.619099 ], [ -81.776297, 40.620044 ], [ -81.769085, 40.6191 ], [ -81.759285, 40.620837 ], [ -81.759244, 40.622123 ], [ -81.764806, 40.62148 ], [ -81.76492, 40.631892 ], [ -81.765468, 40.631445 ], [ -81.768349, 40.631261 ], [ -81.769563, 40.629775 ], [ -81.774848, 40.627213 ], [ -81.784212, 40.626975 ], [ -81.784227, 40.624155 ], [ -81.792071, 40.624116 ] ] ] } }
]
}
