{
"type": "FeatureCollection",
"name": "45055",
"crs": { "type": "name", "properties": { "name": "urn:ogc:def:crs:OGC:1.3:CRS84" } },
"features": [
{ "type": "Feature", "properties": { "Name": "", "Description": "" }, "geometry": { "type": "Polygon", "coordinates": [ [ [ -84.51483, 39.460256 ], [ -84.514699, 39.455128 ], [ -84.514691, 39.45469 ], [ -84.514633, 39.450531 ], [ -84.509139, 39.454743 ], [ -84.508092, 39.455549 ], [ -84.506876, 39.456386 ], [ -84.505328, 39.457289 ], [ -84.506158, 39.458914 ], [ -84.506327, 39.461162 ], [ -84.51483, 39.460256 ] ] ] } }
]
}
