{
"type": "FeatureCollection",
"name": "45435",
"crs": { "type": "name", "properties": { "name": "urn:ogc:def:crs:OGC:1.3:CRS84" } },
"features": [
{ "type": "Feature", "properties": { "Name": "", "Description": "" }, "geometry": { "type": "Polygon", "coordinates": [ [ [ -84.066738, 39.783578 ], [ -84.066202, 39.77801 ], [ -84.065952, 39.777088 ], [ -84.061879, 39.777767 ], [ -84.059173, 39.778224 ], [ -84.060355, 39.779935 ], [ -84.058866, 39.7825 ], [ -84.060445, 39.784174 ], [ -84.063197, 39.785322 ], [ -84.064614, 39.784384 ], [ -84.065712, 39.784358 ], [ -84.066738, 39.783578 ] ] ] } }
]
}
