{
"type": "FeatureCollection",
"name": "45469",
"crs": { "type": "name", "properties": { "name": "urn:ogc:def:crs:OGC:1.3:CRS84" } },
"features": [
{ "type": "Feature", "properties": { "Name": "", "Description": "" }, "geometry": { "type": "Polygon", "coordinates": [ [ [ -84.180549, 39.741407 ], [ -84.180555, 39.740895 ], [ -84.180184, 39.740384 ], [ -84.180031, 39.739627 ], [ -84.179766, 39.739308 ], [ -84.17942, 39.739197 ], [ -84.178369, 39.739139 ], [ -84.178099, 39.739219 ], [ -84.177869, 39.739547 ], [ -84.177841, 39.739996 ], [ -84.17802, 39.740536 ], [ -84.178001, 39.741278 ], [ -84.180295, 39.741417 ], [ -84.180549, 39.741407 ] ] ] } }
]
}
