{
"type": "FeatureCollection",
"name": "45677",
"crs": { "type": "name", "properties": { "name": "urn:ogc:def:crs:OGC:1.3:CRS84" } },
"features": [
{ "type": "Feature", "properties": { "Name": "", "Description": "" }, "geometry": { "type": "Polygon", "coordinates": [ [ [ -82.764968, 38.79887 ], [ -82.765549, 38.797519 ], [ -82.762899, 38.797793 ], [ -82.755762, 38.790083 ], [ -82.754783, 38.786766 ], [ -82.753399, 38.786918 ], [ -82.750907, 38.788544 ], [ -82.744961, 38.790388 ], [ -82.744503, 38.78925 ], [ -82.745239, 38.788144 ], [ -82.744279, 38.787558 ], [ -82.740741, 38.787833 ], [ -82.740636, 38.790377 ], [ -82.743183, 38.792549 ], [ -82.747311, 38.793008 ], [ -82.751731, 38.794099 ], [ -82.75151, 38.796886 ], [ -82.755936, 38.797181 ], [ -82.755611, 38.800832 ], [ -82.760762, 38.804769 ], [ -82.761423, 38.806502 ], [ -82.759637, 38.807872 ], [ -82.76163, 38.807426 ], [ -82.763408, 38.806316 ], [ -82.764647, 38.804359 ], [ -82.764968, 38.79887 ] ] ] } }
]
}
