{
"type": "FeatureCollection",
"name": "45720",
"crs": { "type": "name", "properties": { "name": "urn:ogc:def:crs:OGC:1.3:CRS84" } },
"features": [
{ "type": "Feature", "properties": { "Name": "", "Description": "" }, "geometry": { "type": "Polygon", "coordinates": [ [ [ -81.925731, 39.093842 ], [ -81.925489, 39.093084 ], [ -81.923238, 39.092827 ], [ -81.925047, 39.090273 ], [ -81.925175, 39.08733 ], [ -81.921401, 39.087155 ], [ -81.922797, 39.087762 ], [ -81.92238, 39.091749 ], [ -81.923115, 39.093929 ], [ -81.921912, 39.095999 ], [ -81.921014, 39.097588 ], [ -81.921282, 39.101294 ], [ -81.920852, 39.102428 ], [ -81.920878, 39.102972 ], [ -81.922806, 39.104876 ], [ -81.923458, 39.103959 ], [ -81.921098, 39.102704 ], [ -81.921686, 39.100417 ], [ -81.922857, 39.09959 ], [ -81.921864, 39.098597 ], [ -81.923695, 39.097561 ], [ -81.923157, 39.094875 ], [ -81.925731, 39.093842 ] ] ] } }
]
}
