{
"type": "FeatureCollection",
"name": "45739",
"crs": { "type": "name", "properties": { "name": "urn:ogc:def:crs:OGC:1.3:CRS84" } },
"features": [
{ "type": "Feature", "properties": { "Name": "", "Description": "" }, "geometry": { "type": "Polygon", "coordinates": [ [ [ -81.75462, 39.184917 ], [ -81.753718601145906, 39.183486325253398 ], [ -81.752754, 39.184676 ], [ -81.749853, 39.186489 ], [ -81.741533, 39.189596 ], [ -81.738847308432398, 39.1921561016742 ], [ -81.741225, 39.19473 ], [ -81.742556, 39.194793 ], [ -81.748421, 39.194604 ], [ -81.749229, 39.189592 ], [ -81.751996, 39.189705 ], [ -81.752269, 39.186441 ], [ -81.75462, 39.184917 ] ] ] } }
]
}
