{
"type": "FeatureCollection",
"name": "45783",
"crs": { "type": "name", "properties": { "name": "urn:ogc:def:crs:OGC:1.3:CRS84" } },
"features": [
{ "type": "Feature", "properties": { "Name": "", "Description": "" }, "geometry": { "type": "Polygon", "coordinates": [ [ [ -81.845446, 39.173445 ], [ -81.846194, 39.168783 ], [ -81.844554, 39.168704 ], [ -81.840554, 39.168522 ], [ -81.835431, 39.169694 ], [ -81.834325, 39.169205 ], [ -81.834915, 39.170239 ], [ -81.83148, 39.173398 ], [ -81.831851, 39.176411 ], [ -81.833958, 39.178462 ], [ -81.838519, 39.181779 ], [ -81.840465, 39.183904 ], [ -81.841324, 39.183937 ], [ -81.843247, 39.182117 ], [ -81.843828, 39.176167 ], [ -81.845527, 39.176242 ], [ -81.845446, 39.173445 ] ] ] } }
]
}
