{
"type": "FeatureCollection",
"name": "45848",
"crs": { "type": "name", "properties": { "name": "urn:ogc:def:crs:OGC:1.3:CRS84" } },
"features": [
{ "type": "Feature", "properties": { "Name": "", "Description": "" }, "geometry": { "type": "Polygon", "coordinates": [ [ [ -84.08007, 41.030167 ], [ -84.081023, 41.029483 ], [ -84.079717, 41.026833 ], [ -84.080023, 41.024729 ], [ -84.077373, 41.023989 ], [ -84.077698, 41.021878 ], [ -84.076543, 41.01982 ], [ -84.075371, 41.019177 ], [ -84.074096, 41.019045 ], [ -84.073467, 41.018996 ], [ -84.073042, 41.018988 ], [ -84.073081, 41.021397 ], [ -84.07914, 41.028955 ], [ -84.07805, 41.02896 ], [ -84.078057, 41.030853 ], [ -84.08007, 41.030167 ] ] ] } }
]
}
