{
"type": "FeatureCollection",
"name": "45893",
"crs": { "type": "name", "properties": { "name": "urn:ogc:def:crs:OGC:1.3:CRS84" } },
"features": [
{ "type": "Feature", "properties": { "Name": "", "Description": "" }, "geometry": { "type": "Polygon", "coordinates": [ [ [ -84.150719, 40.884278 ], [ -84.152063, 40.883271 ], [ -84.150401, 40.881588 ], [ -84.149331, 40.881602 ], [ -84.14925, 40.88084 ], [ -84.149648, 40.880822 ], [ -84.148958, 40.879987 ], [ -84.147752, 40.877874 ], [ -84.146683, 40.877799 ], [ -84.14547, 40.879423 ], [ -84.141674, 40.88078 ], [ -84.138183, 40.880532 ], [ -84.138161, 40.883335 ], [ -84.139637, 40.882763 ], [ -84.149125, 40.883135 ], [ -84.149123, 40.884278 ], [ -84.150719, 40.884278 ] ] ] } }
]
}
