{
"type": "FeatureCollection",
"name": "46102",
"crs": { "type": "name", "properties": { "name": "urn:ogc:def:crs:OGC:1.3:CRS84" } },
"features": [
{ "type": "Feature", "properties": { "Name": "", "Description": "" }, "geometry": { "type": "Polygon", "coordinates": [ [ [ -86.629327, 39.995697 ], [ -86.629295, 39.9939 ], [ -86.626891, 39.993863 ], [ -86.62678, 39.990417 ], [ -86.621337, 39.990496 ], [ -86.621277, 39.988431 ], [ -86.61987, 39.988423 ], [ -86.61988, 39.990144 ], [ -86.61266, 39.990178 ], [ -86.612499, 40.001026 ], [ -86.619845, 40.001056 ], [ -86.626837, 40.001108 ], [ -86.626898, 39.99569 ], [ -86.629327, 39.995697 ] ] ] } }
]
}
