{
"type": "FeatureCollection",
"name": "46154",
"crs": { "type": "name", "properties": { "name": "urn:ogc:def:crs:OGC:1.3:CRS84" } },
"features": [
{ "type": "Feature", "properties": { "Name": "", "Description": "" }, "geometry": { "type": "Polygon", "coordinates": [ [ [ -85.773933, 39.856571 ], [ -85.773914, 39.855505 ], [ -85.770516, 39.85556 ], [ -85.76999, 39.855778 ], [ -85.769983, 39.854882 ], [ -85.767718, 39.855802 ], [ -85.767676, 39.857714 ], [ -85.769993, 39.85769 ], [ -85.769993, 39.857357 ], [ -85.773933, 39.856571 ] ] ] } }
]
}
