{
"type": "FeatureCollection",
"name": "46170",
"crs": { "type": "name", "properties": { "name": "urn:ogc:def:crs:OGC:1.3:CRS84" } },
"features": [
{ "type": "Feature", "properties": { "Name": "", "Description": "" }, "geometry": { "type": "Polygon", "coordinates": [ [ [ -86.865202, 39.573142 ], [ -86.867561, 39.568114 ], [ -86.864799, 39.566573 ], [ -86.86155, 39.568268 ], [ -86.85994, 39.571623 ], [ -86.857222, 39.571849 ], [ -86.856286, 39.572911 ], [ -86.8608, 39.575146 ], [ -86.864178, 39.577085 ], [ -86.863882, 39.575418 ], [ -86.865577, 39.575182 ], [ -86.865419, 39.574511 ], [ -86.865202, 39.573142 ] ] ] } }
]
}
