{
"type": "FeatureCollection",
"name": "46302",
"crs": { "type": "name", "properties": { "name": "urn:ogc:def:crs:OGC:1.3:CRS84" } },
"features": [
{ "type": "Feature", "properties": { "Name": "", "Description": "" }, "geometry": { "type": "Polygon", "coordinates": [ [ [ -87.142707, 41.354656 ], [ -87.142737, 41.347358 ], [ -87.123182, 41.347427 ], [ -87.123323, 41.354718 ], [ -87.11362, 41.354744 ], [ -87.113508, 41.363653 ], [ -87.109924, 41.366523 ], [ -87.109436, 41.367462 ], [ -87.112111, 41.367654 ], [ -87.116845, 41.369933 ], [ -87.122647, 41.371432 ], [ -87.124589, 41.373937 ], [ -87.126196, 41.375015 ], [ -87.130925, 41.375882 ], [ -87.133289, 41.377588 ], [ -87.13314, 41.354692 ], [ -87.142707, 41.354656 ] ] ] } }
]
}
