{
"type": "FeatureCollection",
"name": "46513",
"crs": { "type": "name", "properties": { "name": "urn:ogc:def:crs:OGC:1.3:CRS84" } },
"features": [
{ "type": "Feature", "properties": { "Name": "", "Description": "" }, "geometry": { "type": "Polygon", "coordinates": [ [ [ -86.454039, 41.362858 ], [ -86.45489, 41.362632 ], [ -86.446593, 41.361278 ], [ -86.44424, 41.361126 ], [ -86.443094, 41.360577 ], [ -86.443093, 41.362347 ], [ -86.444243, 41.362431 ], [ -86.444249, 41.364433 ], [ -86.452285, 41.364418 ], [ -86.454039, 41.362858 ] ] ] } }
]
}
