{
"type": "FeatureCollection",
"name": "46572",
"crs": { "type": "name", "properties": { "name": "urn:ogc:def:crs:OGC:1.3:CRS84" } },
"features": [
{ "type": "Feature", "properties": { "Name": "", "Description": "" }, "geometry": { "type": "Polygon", "coordinates": [ [ [ -86.406087, 41.413479 ], [ -86.406084, 41.411925 ], [ -86.404747, 41.411671 ], [ -86.402269, 41.409934 ], [ -86.402015, 41.408627 ], [ -86.401312, 41.409263 ], [ -86.396462, 41.405796 ], [ -86.396442, 41.406675 ], [ -86.386731, 41.39994 ], [ -86.386838, 41.412112 ], [ -86.396421, 41.412034 ], [ -86.399494, 41.412 ], [ -86.401652, 41.410438 ], [ -86.406087, 41.413479 ] ] ] } }
]
}
