{
"type": "FeatureCollection",
"name": "46778",
"crs": { "type": "name", "properties": { "name": "urn:ogc:def:crs:OGC:1.3:CRS84" } },
"features": [
{ "type": "Feature", "properties": { "Name": "", "Description": "" }, "geometry": { "type": "Polygon", "coordinates": [ [ [ -85.173653, 40.611188 ], [ -85.173807, 40.596599 ], [ -85.150205, 40.596492 ], [ -85.150416, 40.597373 ], [ -85.150701, 40.611094 ], [ -85.12601, 40.611095 ], [ -85.126075, 40.618336 ], [ -85.150882, 40.618368 ], [ -85.151056, 40.62568 ], [ -85.164368, 40.625701 ], [ -85.164141, 40.61113 ], [ -85.173653, 40.611188 ] ] ] } }
]
}
