{
"type": "FeatureCollection",
"name": "46945",
"crs": { "type": "name", "properties": { "name": "urn:ogc:def:crs:OGC:1.3:CRS84" } },
"features": [
{ "type": "Feature", "properties": { "Name": "", "Description": "" }, "geometry": { "type": "Polygon", "coordinates": [ [ [ -86.385831, 41.121315 ], [ -86.385815, 41.120645 ], [ -86.38505, 41.119897 ], [ -86.384698, 41.119933 ], [ -86.384012, 41.120743 ], [ -86.385254, 41.121324 ], [ -86.384663, 41.122056 ], [ -86.385673, 41.122514 ], [ -86.385813, 41.122322 ], [ -86.385831, 41.121315 ] ] ] } }
]
}
