{
"type": "FeatureCollection",
"name": "46965",
"crs": { "type": "name", "properties": { "name": "urn:ogc:def:crs:OGC:1.3:CRS84" } },
"features": [
{ "type": "Feature", "properties": { "Name": "", "Description": "" }, "geometry": { "type": "Polygon", "coordinates": [ [ [ -86.108119, 40.419077 ], [ -86.108054, 40.411835 ], [ -86.101017, 40.411929 ], [ -86.100488, 40.410571 ], [ -86.098572, 40.412403 ], [ -86.092499, 40.419311 ], [ -86.10167, 40.419156 ], [ -86.101623, 40.42083 ], [ -86.102822, 40.420858 ], [ -86.103706, 40.419129 ], [ -86.105179, 40.422621 ], [ -86.105056, 40.422307 ], [ -86.104997, 40.419112 ], [ -86.108119, 40.419077 ] ] ] } }
]
}
