{
"type": "FeatureCollection",
"name": "47033",
"crs": { "type": "name", "properties": { "name": "urn:ogc:def:crs:OGC:1.3:CRS84" } },
"features": [
{ "type": "Feature", "properties": { "Name": "", "Description": "" }, "geometry": { "type": "Polygon", "coordinates": [ [ [ -85.175593, 39.282637 ], [ -85.175826, 39.282134 ], [ -85.169464, 39.280431 ], [ -85.169333, 39.280146 ], [ -85.168848, 39.280187 ], [ -85.168829, 39.280207 ], [ -85.16877, 39.280391 ], [ -85.175047, 39.282021 ], [ -85.175593, 39.282637 ] ] ] } }
]
}
