{
"type": "FeatureCollection",
"name": "47174",
"crs": { "type": "name", "properties": { "name": "urn:ogc:def:crs:OGC:1.3:CRS84" } },
"features": [
{ "type": "Feature", "properties": { "Name": "", "Description": "" }, "geometry": { "type": "Polygon", "coordinates": [ [ [ -86.528812, 38.238109 ], [ -86.528271, 38.236535 ], [ -86.526094, 38.235531 ], [ -86.526454, 38.233744 ], [ -86.525602, 38.235325 ], [ -86.523884, 38.235749 ], [ -86.521228, 38.234938 ], [ -86.516288, 38.234006 ], [ -86.5152, 38.23412 ], [ -86.512095, 38.236047 ], [ -86.506521, 38.234299 ], [ -86.504721, 38.232157 ], [ -86.501444, 38.231794 ], [ -86.501534, 38.229173 ], [ -86.487586, 38.229245 ], [ -86.487852, 38.218088 ], [ -86.483077, 38.218094 ], [ -86.483098, 38.21721 ], [ -86.480991, 38.217199 ], [ -86.480854, 38.211342 ], [ -86.478462, 38.211311 ], [ -86.476123, 38.208804 ], [ -86.476733, 38.207397 ], [ -86.47542, 38.207778 ], [ -86.475486, 38.209074 ], [ -86.474078, 38.209565 ], [ -86.472356, 38.212945 ], [ -86.470793, 38.212574 ], [ -86.465227, 38.213377 ], [ -86.462775, 38.212589 ], [ -86.460267, 38.212515 ], [ -86.460145, 38.21633 ], [ -86.463878, 38.219386 ], [ -86.466153, 38.220876 ], [ -86.466598, 38.22283 ], [ -86.468283, 38.225068 ], [ -86.470923, 38.227616 ], [ -86.470621, 38.229552 ], [ -86.469024, 38.230114 ], [ -86.466239, 38.232373 ], [ -86.468665, 38.233834 ], [ -86.467273, 38.235491 ], [ -86.467055, 38.238892 ], [ -86.468781, 38.242445 ], [ -86.471848, 38.240041 ], [ -86.477149, 38.238771 ], [ -86.486464, 38.237988 ], [ -86.489397, 38.237273 ], [ -86.495309, 38.234527 ], [ -86.497648, 38.233935 ], [ -86.501057, 38.234066 ], [ -86.513476, 38.237893 ], [ -86.517715, 38.238422 ], [ -86.523827, 38.237888 ], [ -86.528812, 38.238109 ] ] ] } }
]
}
