{
"type": "FeatureCollection",
"name": "47225",
"crs": { "type": "name", "properties": { "name": "urn:ogc:def:crs:OGC:1.3:CRS84" } },
"features": [
{ "type": "Feature", "properties": { "Name": "", "Description": "" }, "geometry": { "type": "Polygon", "coordinates": [ [ [ -85.349376, 39.433919 ], [ -85.349272, 39.431867 ], [ -85.347696, 39.433556 ], [ -85.3448, 39.433689 ], [ -85.337585, 39.433778 ], [ -85.343619, 39.438308 ], [ -85.347012, 39.438319 ], [ -85.347683, 39.438545 ], [ -85.347707, 39.433966 ], [ -85.349376, 39.433919 ] ] ] } }
]
}
