{
"type": "FeatureCollection",
"name": "47236",
"crs": { "type": "name", "properties": { "name": "urn:ogc:def:crs:OGC:1.3:CRS84" } },
"features": [
{ "type": "Feature", "properties": { "Name": "", "Description": "" }, "geometry": { "type": "Polygon", "coordinates": [ [ [ -85.734099, 39.155969 ], [ -85.734081, 39.152338 ], [ -85.72999, 39.152458 ], [ -85.729975, 39.151743 ], [ -85.727014, 39.151886 ], [ -85.726867, 39.145265 ], [ -85.724472, 39.145306 ], [ -85.719787, 39.14532 ], [ -85.71991, 39.155977 ], [ -85.723079, 39.156009 ], [ -85.723091, 39.156819 ], [ -85.727507, 39.156762 ], [ -85.734099, 39.155969 ] ] ] } }
]
}
