{
"type": "FeatureCollection",
"name": "47370",
"crs": { "type": "name", "properties": { "name": "urn:ogc:def:crs:OGC:1.3:CRS84" } },
"features": [
{ "type": "Feature", "properties": { "Name": "", "Description": "" }, "geometry": { "type": "Polygon", "coordinates": [ [ [ -85.141951, 39.812291 ], [ -85.141945, 39.811407 ], [ -85.137536, 39.811452 ], [ -85.137531, 39.81109 ], [ -85.136178, 39.811049 ], [ -85.13614, 39.812345 ], [ -85.134968, 39.812359 ], [ -85.134858, 39.813275 ], [ -85.133462, 39.813294 ], [ -85.133478, 39.814197 ], [ -85.140426, 39.814136 ], [ -85.140418, 39.812289 ], [ -85.141951, 39.812291 ] ] ] } }
]
}
