{
"type": "FeatureCollection",
"name": "47392",
"crs": { "type": "name", "properties": { "name": "urn:ogc:def:crs:OGC:1.3:CRS84" } },
"features": [
{ "type": "Feature", "properties": { "Name": "", "Description": "" }, "geometry": { "type": "Polygon", "coordinates": [ [ [ -84.949369, 39.907641 ], [ -84.951307, 39.905942 ], [ -84.944753, 39.898833 ], [ -84.945047, 39.902123 ], [ -84.941746, 39.90224 ], [ -84.941736, 39.903581 ], [ -84.939338, 39.903597 ], [ -84.939291, 39.921089 ], [ -84.938782, 39.92141 ], [ -84.93741, 39.92308 ], [ -84.937546, 39.925211 ], [ -84.937763, 39.925211 ], [ -84.937727, 39.92313 ], [ -84.93859, 39.921873 ], [ -84.940444, 39.922186 ], [ -84.94038, 39.920692 ], [ -84.942897, 39.91871 ], [ -84.945028, 39.918013 ], [ -84.946433, 39.916234 ], [ -84.946689, 39.913456 ], [ -84.949498, 39.911418 ], [ -84.950104, 39.90981 ], [ -84.948763, 39.90897 ], [ -84.949369, 39.907641 ] ] ] } }
]
}
