{
"type": "FeatureCollection",
"name": "47435",
"crs": { "type": "name", "properties": { "name": "urn:ogc:def:crs:OGC:1.3:CRS84" } },
"features": [
{ "type": "Feature", "properties": { "Name": "", "Description": "" }, "geometry": { "type": "Polygon", "coordinates": [ [ [ -86.29592, 39.266198 ], [ -86.295927, 39.265292 ], [ -86.294363, 39.26533 ], [ -86.294362, 39.266076 ], [ -86.294448, 39.266107 ], [ -86.29447, 39.266115 ], [ -86.294703, 39.266209 ], [ -86.294789, 39.266244 ], [ -86.29592, 39.266198 ] ] ] } }
]
}
