{
"type": "FeatureCollection",
"name": "47445",
"crs": { "type": "name", "properties": { "name": "urn:ogc:def:crs:OGC:1.3:CRS84" } },
"features": [
{ "type": "Feature", "properties": { "Name": "", "Description": "" }, "geometry": { "type": "Polygon", "coordinates": [ [ [ -87.194201, 39.121167 ], [ -87.19425, 39.103158 ], [ -87.18987, 39.103898 ], [ -87.184917, 39.102977 ], [ -87.18484, 39.121981 ], [ -87.184834, 39.122898 ], [ -87.189425, 39.122981 ], [ -87.189449, 39.122053 ], [ -87.191814, 39.122096 ], [ -87.191829, 39.121291 ], [ -87.192112, 39.121133 ], [ -87.194201, 39.121167 ] ] ] } }
]
}
