{
"type": "FeatureCollection",
"name": "47573",
"crs": { "type": "name", "properties": { "name": "urn:ogc:def:crs:OGC:1.3:CRS84" } },
"features": [
{ "type": "Feature", "properties": { "Name": "", "Description": "" }, "geometry": { "type": "Polygon", "coordinates": [ [ [ -87.324014, 38.745713 ], [ -87.324085, 38.743731 ], [ -87.322384, 38.742486 ], [ -87.319825, 38.744091 ], [ -87.31913, 38.744556 ], [ -87.319064, 38.74471 ], [ -87.319837, 38.745449 ], [ -87.321198, 38.744613 ], [ -87.324014, 38.745713 ] ] ] } }
]
}
