{
"type": "FeatureCollection",
"name": "47845",
"crs": { "type": "name", "properties": { "name": "urn:ogc:def:crs:OGC:1.3:CRS84" } },
"features": [
{ "type": "Feature", "properties": { "Name": "", "Description": "" }, "geometry": { "type": "Polygon", "coordinates": [ [ [ -87.240688, 39.193598 ], [ -87.240697, 39.187806 ], [ -87.237348, 39.189453 ], [ -87.231104, 39.189508 ], [ -87.231813, 39.186048 ], [ -87.224153, 39.185975 ], [ -87.226626, 39.189723 ], [ -87.22774, 39.19192 ], [ -87.228476, 39.193768 ], [ -87.230464, 39.200493 ], [ -87.230766, 39.200509 ], [ -87.23775, 39.200524 ], [ -87.239301, 39.200182 ], [ -87.240654, 39.20024 ], [ -87.240688, 39.193598 ] ] ] } }
]
}
