{
"type": "FeatureCollection",
"name": "47851",
"crs": { "type": "name", "properties": { "name": "urn:ogc:def:crs:OGC:1.3:CRS84" } },
"features": [
{ "type": "Feature", "properties": { "Name": "", "Description": "" }, "geometry": { "type": "Polygon", "coordinates": [ [ [ -87.247686, 39.574499 ], [ -87.247692, 39.573993 ], [ -87.247507, 39.572143 ], [ -87.246463, 39.572619 ], [ -87.243977, 39.573588 ], [ -87.243544, 39.573709 ], [ -87.243527, 39.574659 ], [ -87.245454, 39.574147 ], [ -87.247686, 39.574499 ] ] ] } }
]
}
