{
"type": "FeatureCollection",
"name": "47986",
"crs": { "type": "name", "properties": { "name": "urn:ogc:def:crs:OGC:1.3:CRS84" } },
"features": [
{ "type": "Feature", "properties": { "Name": "", "Description": "" }, "geometry": { "type": "Polygon", "coordinates": [ [ [ -87.212728, 40.5191 ], [ -87.21275, 40.518519 ], [ -87.208784, 40.51342 ], [ -87.207563, 40.512647 ], [ -87.207578, 40.5119 ], [ -87.208808, 40.511866 ], [ -87.208813, 40.511164 ], [ -87.208528, 40.510953 ], [ -87.206332, 40.510986 ], [ -87.202862, 40.511012 ], [ -87.203293, 40.511321 ], [ -87.200195, 40.511173 ], [ -87.204689, 40.513402 ], [ -87.212373, 40.519107 ], [ -87.212728, 40.5191 ] ] ] } }
]
}
