{
"type": "FeatureCollection",
"name": "48410",
"crs": { "type": "name", "properties": { "name": "urn:ogc:def:crs:OGC:1.3:CRS84" } },
"features": [
{ "type": "Feature", "properties": { "Name": "", "Description": "" }, "geometry": { "type": "Polygon", "coordinates": [ [ [ -82.956082, 43.567162 ], [ -82.955132, 43.549093 ], [ -82.950539, 43.549259 ], [ -82.950562, 43.555988 ], [ -82.9461, 43.556213 ], [ -82.946121, 43.554764 ], [ -82.940788, 43.555 ], [ -82.940796, 43.553441 ], [ -82.93545, 43.553474 ], [ -82.935894, 43.564244 ], [ -82.915688, 43.565105 ], [ -82.916367, 43.579635 ], [ -82.931038, 43.579085 ], [ -82.936436, 43.578867 ], [ -82.936092, 43.567942 ], [ -82.946526, 43.567677 ], [ -82.946571, 43.570316 ], [ -82.951012, 43.5703 ], [ -82.951126, 43.56741 ], [ -82.956082, 43.567162 ] ] ] } }
]
}
