{
"type": "FeatureCollection",
"name": "48620",
"crs": { "type": "name", "properties": { "name": "urn:ogc:def:crs:OGC:1.3:CRS84" } },
"features": [
{ "type": "Feature", "properties": { "Name": "", "Description": "" }, "geometry": { "type": "Polygon", "coordinates": [ [ [ -84.386761, 43.800976 ], [ -84.388205, 43.799228 ], [ -84.38661, 43.799197 ], [ -84.386462, 43.800376 ], [ -84.384168, 43.800625 ], [ -84.384135, 43.799165 ], [ -84.381927, 43.799151 ], [ -84.38168, 43.806403 ], [ -84.366747, 43.80638 ], [ -84.366676, 43.81356 ], [ -84.370013, 43.813577 ], [ -84.38661, 43.813647 ], [ -84.386157, 43.806127 ], [ -84.387059, 43.803546 ], [ -84.386761, 43.800976 ] ] ] } }
]
}
