{
"type": "FeatureCollection",
"name": "48824",
"crs": { "type": "name", "properties": { "name": "urn:ogc:def:crs:OGC:1.3:CRS84" } },
"features": [
{ "type": "Feature", "properties": { "Name": "", "Description": "" }, "geometry": { "type": "Polygon", "coordinates": [ [ [ -84.493879, 42.719836 ], [ -84.493881, 42.719691 ], [ -84.493676, 42.71831 ], [ -84.488368, 42.718333 ], [ -84.478044, 42.719018 ], [ -84.478209, 42.71178 ], [ -84.471902, 42.7118 ], [ -84.462059, 42.711805 ], [ -84.462114, 42.722594 ], [ -84.462739, 42.722658 ], [ -84.463094, 42.724598 ], [ -84.466647, 42.724706 ], [ -84.466903, 42.723212 ], [ -84.472177, 42.72344 ], [ -84.477952, 42.723173 ], [ -84.47788, 42.726007 ], [ -84.477855, 42.727489 ], [ -84.477357, 42.730593 ], [ -84.475311, 42.732189 ], [ -84.48005, 42.732757 ], [ -84.483966, 42.733562 ], [ -84.487051, 42.73334 ], [ -84.487705, 42.733394 ], [ -84.486281, 42.732395 ], [ -84.487039, 42.731597 ], [ -84.489671, 42.729877 ], [ -84.488257, 42.729099 ], [ -84.487781, 42.725836 ], [ -84.487772, 42.72571 ], [ -84.487277, 42.722385 ], [ -84.486959, 42.720324 ], [ -84.490007, 42.720276 ], [ -84.492774, 42.720426 ], [ -84.493694, 42.720421 ], [ -84.493879, 42.719836 ] ] ] } }
]
}
