{
"type": "FeatureCollection",
"name": "48862",
"crs": { "type": "name", "properties": { "name": "urn:ogc:def:crs:OGC:1.3:CRS84" } },
"features": [
{ "type": "Feature", "properties": { "Name": "", "Description": "" }, "geometry": { "type": "Polygon", "coordinates": [ [ [ -84.556361, 43.249145 ], [ -84.556405, 43.248088 ], [ -84.544932, 43.248079 ], [ -84.544832, 43.246834 ], [ -84.541921, 43.247046 ], [ -84.541092, 43.248076 ], [ -84.546494, 43.253678 ], [ -84.550535, 43.251866 ], [ -84.553791, 43.251419 ], [ -84.556361, 43.249145 ] ] ] } }
]
}
