{
"type": "FeatureCollection",
"name": "49409",
"crs": { "type": "name", "properties": { "name": "urn:ogc:def:crs:OGC:1.3:CRS84" } },
"features": [
{ "type": "Feature", "properties": { "Name": "", "Description": "" }, "geometry": { "type": "Polygon", "coordinates": [ [ [ -86.22547, 43.081182 ], [ -86.225717, 43.080058 ], [ -86.221268, 43.080152 ], [ -86.21772, 43.078916 ], [ -86.218968, 43.07662 ], [ -86.216478, 43.077471 ], [ -86.21648, 43.08006 ], [ -86.213706, 43.079992 ], [ -86.212889, 43.081122 ], [ -86.215056, 43.081964 ], [ -86.214395, 43.084449 ], [ -86.215114, 43.084889 ], [ -86.215531, 43.085127 ], [ -86.215994, 43.082742 ], [ -86.217554, 43.080494 ], [ -86.217324, 43.08245 ], [ -86.220744, 43.0824 ], [ -86.220765, 43.081302 ], [ -86.22547, 43.081182 ] ] ] } }
]
}
