{
"type": "FeatureCollection",
"name": "49430",
"crs": { "type": "name", "properties": { "name": "urn:ogc:def:crs:OGC:1.3:CRS84" } },
"features": [
{ "type": "Feature", "properties": { "Name": "", "Description": "" }, "geometry": { "type": "Polygon", "coordinates": [ [ [ -85.905946, 43.016051 ], [ -85.905712, 43.009626 ], [ -85.902327, 43.007581 ], [ -85.897108, 43.006266 ], [ -85.895501, 43.005747 ], [ -85.898525, 43.011354 ], [ -85.896293, 43.011336 ], [ -85.894657, 43.012352 ], [ -85.894842, 43.015951 ], [ -85.905946, 43.016051 ] ] ] } }
]
}
