{
"type": "FeatureCollection",
"name": "49443",
"crs": { "type": "name", "properties": { "name": "urn:ogc:def:crs:OGC:1.3:CRS84" } },
"features": [
{ "type": "Feature", "properties": { "Name": "", "Description": "" }, "geometry": { "type": "Polygon", "coordinates": [ [ [ -86.244311, 43.22194 ], [ -86.244329, 43.220795 ], [ -86.242779, 43.220567 ], [ -86.241846, 43.219701 ], [ -86.240604, 43.219683 ], [ -86.240576, 43.220766 ], [ -86.239315, 43.220754 ], [ -86.239314, 43.223033 ], [ -86.240504, 43.224209 ], [ -86.243026, 43.224207 ], [ -86.243177, 43.221922 ], [ -86.244311, 43.22194 ] ] ] } }
]
}
