{
"type": "FeatureCollection",
"name": "49685",
"crs": { "type": "name", "properties": { "name": "urn:ogc:def:crs:OGC:1.3:CRS84" } },
"features": [
{ "type": "Feature", "properties": { "Name": "", "Description": "" }, "geometry": { "type": "Polygon", "coordinates": [ [ [ -85.816935, 44.71072 ], [ -85.817304, 44.692469 ], [ -85.814842, 44.690875 ], [ -85.809941, 44.688987 ], [ -85.793081, 44.688763 ], [ -85.792422, 44.688403 ], [ -85.792232, 44.688132 ], [ -85.792094, 44.686782 ], [ -85.79089, 44.68734 ], [ -85.790135, 44.687911 ], [ -85.78841, 44.68855 ], [ -85.788184, 44.688699 ], [ -85.757745, 44.68809 ], [ -85.757472, 44.686221 ], [ -85.756927, 44.685452 ], [ -85.759779, 44.683702 ], [ -85.766563, 44.680649 ], [ -85.767283, 44.679771 ], [ -85.762617, 44.679686 ], [ -85.76263, 44.677843 ], [ -85.760198, 44.677823 ], [ -85.760212, 44.675086 ], [ -85.757501, 44.675076 ], [ -85.757481, 44.680577 ], [ -85.742494, 44.680398 ], [ -85.742469, 44.676737 ], [ -85.74107, 44.676787 ], [ -85.740415, 44.675211 ], [ -85.742557, 44.673054 ], [ -85.740172, 44.672863 ], [ -85.738752, 44.671305 ], [ -85.736258, 44.670297 ], [ -85.732, 44.673376 ], [ -85.728293, 44.673908 ], [ -85.727255, 44.676144 ], [ -85.725403, 44.676484 ], [ -85.716998, 44.676265 ], [ -85.716983, 44.672612 ], [ -85.70677, 44.672397 ], [ -85.706813, 44.668796 ], [ -85.70168, 44.668702 ], [ -85.701674, 44.669599 ], [ -85.696167, 44.66973 ], [ -85.695507, 44.669984 ], [ -85.694455, 44.668037 ], [ -85.690143, 44.666106 ], [ -85.684606, 44.66512 ], [ -85.683794, 44.665095 ], [ -85.682571, 44.665471 ], [ -85.676659, 44.668445 ], [ -85.676527, 44.664126 ], [ -85.679569, 44.664053 ], [ -85.680007, 44.664399 ], [ -85.68161, 44.664429 ], [ -85.681599, 44.661218 ], [ -85.677423, 44.660633 ], [ -85.676521, 44.658122 ], [ -85.676521, 44.657537 ], [ -85.677443, 44.657542 ], [ -85.677528, 44.655479 ], [ -85.681555, 44.655491 ], [ -85.681562, 44.653966 ], [ -85.686629, 44.65394 ], [ -85.686602, 44.652187 ], [ -85.682721, 44.652125 ], [ -85.68265, 44.649377 ], [ -85.681523, 44.64945 ], [ -85.681472, 44.644926 ], [ -85.678943, 44.644909 ], [ -85.679098, 44.643098 ], [ -85.684363, 44.639368 ], [ -85.68516, 44.638639 ], [ -85.68554, 44.632644 ], [ -85.676399, 44.632618 ], [ -85.676285, 44.628545 ], [ -85.672943, 44.628529 ], [ -85.672852, 44.632423 ], [ -85.666367, 44.632404 ], [ -85.666346, 44.628499 ], [ -85.656053, 44.628467 ], [ -85.655998, 44.62129 ], [ -85.650696, 44.621219 ], [ -85.649757, 44.621209 ], [ -85.648346, 44.621201 ], [ -85.643201, 44.621159 ], [ -85.640709, 44.621136 ], [ -85.630676, 44.621096 ], [ -85.630341, 44.62071 ], [ -85.630352, 44.618505 ], [ -85.625309, 44.618158 ], [ -85.625042, 44.617492 ], [ -85.620291, 44.617289 ], [ -85.620187, 44.613996 ], [ -85.616284, 44.613883 ], [ -85.615566, 44.613846 ], [ -85.614526, 44.614577 ], [ -85.613951, 44.614531 ], [ -85.61052, 44.615024 ], [ -85.607892, 44.614299 ], [ -85.606558, 44.614447 ], [ -85.604888, 44.615552 ], [ -85.604332, 44.615533 ], [ -85.603231, 44.61491 ], [ -85.602882, 44.61392 ], [ -85.602431, 44.613763 ], [ -85.600786, 44.613866 ], [ -85.600634, 44.6149 ], [ -85.599335, 44.614925 ], [ -85.595706, 44.614151 ], [ -85.594398, 44.61412 ], [ -85.592975, 44.613892 ], [ -85.58563, 44.613827 ], [ -85.585692, 44.617301 ], [ -85.58455, 44.618759 ], [ -85.585302, 44.620629 ], [ -85.583092, 44.625068 ], [ -85.583961, 44.628217 ], [ -85.585457, 44.630279 ], [ -85.587717, 44.638634 ], [ -85.589074, 44.638942 ], [ -85.591147, 44.641963 ], [ -85.591197, 44.642916 ], [ -85.599646, 44.646193 ], [ -85.60168, 44.646521 ], [ -85.604378, 44.648226 ], [ -85.600721, 44.648849 ], [ -85.602846, 44.649896 ], [ -85.605308, 44.650046 ], [ -85.605782, 44.652813 ], [ -85.609336, 44.654738 ], [ -85.610294, 44.656628 ], [ -85.611994, 44.657254 ], [ -85.615268, 44.657224 ], [ -85.617278, 44.659133 ], [ -85.617845, 44.660959 ], [ -85.620301, 44.662328 ], [ -85.624946, 44.662422 ], [ -85.62955, 44.664436 ], [ -85.634266, 44.664669 ], [ -85.625005, 44.669665 ], [ -85.619517, 44.672386 ], [ -85.621917, 44.673374 ], [ -85.623896, 44.675 ], [ -85.624175, 44.675198 ], [ -85.62302, 44.673669 ], [ -85.62468, 44.672596 ], [ -85.628896, 44.672977 ], [ -85.631039, 44.674643 ], [ -85.627254, 44.677346 ], [ -85.626729, 44.677871 ], [ -85.625196, 44.68403 ], [ -85.624107, 44.686266 ], [ -85.625072, 44.686592 ], [ -85.627122, 44.686545 ], [ -85.626364, 44.688372 ], [ -85.627878, 44.689434 ], [ -85.62508, 44.690452 ], [ -85.625523, 44.693055 ], [ -85.624142, 44.695291 ], [ -85.621254, 44.695191 ], [ -85.620704, 44.698221 ], [ -85.620409, 44.699688 ], [ -85.622441, 44.70063 ], [ -85.621008, 44.703829 ], [ -85.623008, 44.708463 ], [ -85.620186, 44.711064 ], [ -85.619692, 44.715365 ], [ -85.625733, 44.715417 ], [ -85.625953, 44.715854 ], [ -85.625835, 44.722835 ], [ -85.626369, 44.72417 ], [ -85.629064, 44.724605 ], [ -85.630324, 44.723298 ], [ -85.634231, 44.721555 ], [ -85.63518, 44.720453 ], [ -85.639871, 44.720608 ], [ -85.642071, 44.719416 ], [ -85.646342, 44.71811 ], [ -85.646093, 44.719151 ], [ -85.646024, 44.721985 ], [ -85.647947, 44.722088 ], [ -85.64764, 44.722805 ], [ -85.65655, 44.722883 ], [ -85.659095, 44.723359 ], [ -85.661338, 44.72682 ], [ -85.664203, 44.728483 ], [ -85.671467, 44.726223 ], [ -85.676564, 44.725655 ], [ -85.676539, 44.728136 ], [ -85.675963, 44.728326 ], [ -85.674593, 44.729365 ], [ -85.67486, 44.730355 ], [ -85.674576, 44.730861 ], [ -85.674538, 44.732044 ], [ -85.674987, 44.73221 ], [ -85.675553, 44.732662 ], [ -85.675423, 44.732766 ], [ -85.674644, 44.732596 ], [ -85.673895, 44.733888 ], [ -85.671292, 44.733869 ], [ -85.671122, 44.737482 ], [ -85.675268, 44.737795 ], [ -85.674873, 44.739316 ], [ -85.676037, 44.739338 ], [ -85.675999, 44.740235 ], [ -85.675312, 44.740252 ], [ -85.675225, 44.741762 ], [ -85.674755, 44.741762 ], [ -85.674543, 44.742137 ], [ -85.674456, 44.743807 ], [ -85.675821, 44.743906 ], [ -85.675777, 44.744747 ], [ -85.674837, 44.744851 ], [ -85.671885, 44.747236 ], [ -85.67069, 44.751307 ], [ -85.670266, 44.751764 ], [ -85.675379, 44.752007 ], [ -85.675043, 44.759201 ], [ -85.679909, 44.759238 ], [ -85.685005, 44.757281 ], [ -85.689491, 44.757481 ], [ -85.694667, 44.759308 ], [ -85.717837, 44.759773 ], [ -85.722286, 44.758416 ], [ -85.72419, 44.758344 ], [ -85.729576, 44.759994 ], [ -85.755643, 44.760476 ], [ -85.765854, 44.760598 ], [ -85.775977, 44.760764 ], [ -85.796278, 44.761178 ], [ -85.79627, 44.758232 ], [ -85.799045, 44.758269 ], [ -85.799065, 44.756704 ], [ -85.801453, 44.756745 ], [ -85.801503, 44.754013 ], [ -85.811717, 44.754247 ], [ -85.811764, 44.750622 ], [ -85.815796, 44.750689 ], [ -85.816091, 44.739919 ], [ -85.816567, 44.725203 ], [ -85.816824, 44.717019 ], [ -85.816935, 44.71072 ] ] ] } }
]
}
