{
"type": "FeatureCollection",
"name": "49696",
"crs": { "type": "name", "properties": { "name": "urn:ogc:def:crs:OGC:1.3:CRS84" } },
"features": [
{ "type": "Feature", "properties": { "Name": "", "Description": "" }, "geometry": { "type": "Polygon", "coordinates": [ [ [ -85.634266, 44.664669 ], [ -85.62955, 44.664436 ], [ -85.624946, 44.662422 ], [ -85.620301, 44.662328 ], [ -85.617845, 44.660959 ], [ -85.617278, 44.659133 ], [ -85.615268, 44.657224 ], [ -85.611994, 44.657254 ], [ -85.610294, 44.656628 ], [ -85.609336, 44.654738 ], [ -85.605782, 44.652813 ], [ -85.605308, 44.650046 ], [ -85.602846, 44.649896 ], [ -85.600721, 44.648849 ], [ -85.604378, 44.648226 ], [ -85.60168, 44.646521 ], [ -85.599646, 44.646193 ], [ -85.591197, 44.642916 ], [ -85.591147, 44.641963 ], [ -85.589074, 44.638942 ], [ -85.587717, 44.638634 ], [ -85.585457, 44.630279 ], [ -85.583961, 44.628217 ], [ -85.575026, 44.628229 ], [ -85.574866, 44.628656 ], [ -85.574815, 44.633396 ], [ -85.574907, 44.642586 ], [ -85.535037, 44.642517 ], [ -85.529233, 44.638052 ], [ -85.525293, 44.6362 ], [ -85.52435, 44.637442 ], [ -85.520315, 44.638262 ], [ -85.517107, 44.634801 ], [ -85.514942, 44.634867 ], [ -85.512428, 44.633513 ], [ -85.510857, 44.631245 ], [ -85.507713, 44.630516 ], [ -85.507329, 44.62978 ], [ -85.504651, 44.629282 ], [ -85.504473, 44.627557 ], [ -85.499145, 44.628219 ], [ -85.495585, 44.627823 ], [ -85.475304, 44.627841 ], [ -85.475371, 44.64233 ], [ -85.465521, 44.642329 ], [ -85.46536, 44.64441 ], [ -85.463589, 44.649241 ], [ -85.460309, 44.651048 ], [ -85.45568, 44.65115 ], [ -85.45523, 44.651592 ], [ -85.452426, 44.6508 ], [ -85.447874, 44.650601 ], [ -85.445618, 44.649512 ], [ -85.438367, 44.65082 ], [ -85.43646, 44.650378 ], [ -85.433894, 44.648668 ], [ -85.432828, 44.646547 ], [ -85.432889, 44.643953 ], [ -85.430336, 44.642681 ], [ -85.427203, 44.642723 ], [ -85.426329, 44.642082 ], [ -85.423259, 44.64151 ], [ -85.421951, 44.638275 ], [ -85.418908, 44.637647 ], [ -85.418127, 44.635643 ], [ -85.414951, 44.63366 ], [ -85.411789, 44.632692 ], [ -85.405121, 44.632454 ], [ -85.402285, 44.631997 ], [ -85.396013, 44.633115 ], [ -85.393976, 44.63156 ], [ -85.393801, 44.627662 ], [ -85.35329, 44.62747 ], [ -85.353362, 44.641947 ], [ -85.3534, 44.656477 ], [ -85.338977, 44.6465 ], [ -85.335034, 44.642517 ], [ -85.333025, 44.641803 ], [ -85.333303, 44.673092 ], [ -85.333327, 44.675303 ], [ -85.334216, 44.674785 ], [ -85.339778, 44.674078 ], [ -85.340573, 44.673512 ], [ -85.347129, 44.673936 ], [ -85.349116, 44.673276 ], [ -85.353622, 44.677395 ], [ -85.355806, 44.678563 ], [ -85.359335, 44.678846 ], [ -85.362016, 44.680005 ], [ -85.363702, 44.681775 ], [ -85.372683, 44.682026 ], [ -85.368892, 44.685215 ], [ -85.373764, 44.685231 ], [ -85.373428, 44.691831 ], [ -85.373788, 44.699851 ], [ -85.3941, 44.699887 ], [ -85.393998, 44.714444 ], [ -85.406067, 44.714528 ], [ -85.406008, 44.718213 ], [ -85.40474, 44.722747 ], [ -85.404455, 44.729692 ], [ -85.444801, 44.729775 ], [ -85.452022, 44.729822 ], [ -85.465983, 44.720568 ], [ -85.474733, 44.714679 ], [ -85.476286, 44.71488 ], [ -85.490986, 44.715 ], [ -85.490994, 44.710636 ], [ -85.496062, 44.712102 ], [ -85.496033, 44.714337 ], [ -85.506237, 44.714357 ], [ -85.506237, 44.715113 ], [ -85.511337, 44.715165 ], [ -85.516471, 44.715196 ], [ -85.519611, 44.714472 ], [ -85.531607, 44.715359 ], [ -85.536358, 44.715428 ], [ -85.556745, 44.715502 ], [ -85.567074, 44.715231 ], [ -85.575162, 44.71512 ], [ -85.584885, 44.715142 ], [ -85.590115, 44.715156 ], [ -85.595517, 44.715183 ], [ -85.605645, 44.715286 ], [ -85.608673, 44.714966 ], [ -85.614635, 44.715001 ], [ -85.619692, 44.715365 ], [ -85.620186, 44.711064 ], [ -85.623008, 44.708463 ], [ -85.621008, 44.703829 ], [ -85.622441, 44.70063 ], [ -85.620409, 44.699688 ], [ -85.620704, 44.698221 ], [ -85.621254, 44.695191 ], [ -85.624142, 44.695291 ], [ -85.625523, 44.693055 ], [ -85.62508, 44.690452 ], [ -85.627878, 44.689434 ], [ -85.626364, 44.688372 ], [ -85.627122, 44.686545 ], [ -85.625072, 44.686592 ], [ -85.624107, 44.686266 ], [ -85.625196, 44.68403 ], [ -85.626729, 44.677871 ], [ -85.627254, 44.677346 ], [ -85.631039, 44.674643 ], [ -85.628896, 44.672977 ], [ -85.62468, 44.672596 ], [ -85.62302, 44.673669 ], [ -85.624175, 44.675198 ], [ -85.623896, 44.675 ], [ -85.621917, 44.673374 ], [ -85.619517, 44.672386 ], [ -85.625005, 44.669665 ], [ -85.634266, 44.664669 ] ] ] } }
]
}
