{
"type": "FeatureCollection",
"name": "49784",
"crs": { "type": "name", "properties": { "name": "urn:ogc:def:crs:OGC:1.3:CRS84" } },
"features": [
{ "type": "Feature", "properties": { "Name": "", "Description": "" }, "geometry": { "type": "Polygon", "coordinates": [ [ [ -84.461115, 46.259404 ], [ -84.461075, 46.258068 ], [ -84.460496, 46.257214 ], [ -84.45809, 46.255725 ], [ -84.451317, 46.255738 ], [ -84.449793, 46.256388 ], [ -84.448933, 46.25728 ], [ -84.448888, 46.259387 ], [ -84.461115, 46.259404 ] ] ] } }
]
}
