{
"type": "FeatureCollection",
"name": "50013",
"crs": { "type": "name", "properties": { "name": "urn:ogc:def:crs:OGC:1.3:CRS84" } },
"features": [
{ "type": "Feature", "properties": { "Name": "", "Description": "" }, "geometry": { "type": "MultiPolygon", "coordinates": [ [ [ [ -93.644397, 42.022781 ], [ -93.644369, 42.021513 ], [ -93.641995, 42.021527 ], [ -93.642024, 42.022773 ], [ -93.639493, 42.02275 ], [ -93.639454, 42.020124 ], [ -93.639355, 42.016228 ], [ -93.632341, 42.016348 ], [ -93.632414, 42.018991 ], [ -93.633409, 42.022822 ], [ -93.633387, 42.025064 ], [ -93.641238, 42.025373 ], [ -93.643383, 42.024555 ], [ -93.642762, 42.023511 ], [ -93.642738, 42.022779 ], [ -93.644397, 42.022781 ] ] ], [ [ [ -93.666288, 42.013688 ], [ -93.666305, 42.011977 ], [ -93.658936, 42.011902 ], [ -93.651657, 42.011888 ], [ -93.647976, 42.011885 ], [ -93.646675, 42.01141 ], [ -93.644311, 42.012374 ], [ -93.644292, 42.015427 ], [ -93.649355, 42.015458 ], [ -93.649355, 42.016159 ], [ -93.65167, 42.016183 ], [ -93.651657, 42.015229 ], [ -93.652534, 42.015229 ], [ -93.652553, 42.019143 ], [ -93.65419, 42.019132 ], [ -93.654218, 42.020942 ], [ -93.655387, 42.020432 ], [ -93.659106, 42.020917 ], [ -93.659105, 42.020836 ], [ -93.659069, 42.018289 ], [ -93.659006, 42.015542 ], [ -93.664704, 42.01555 ], [ -93.664676, 42.013716 ], [ -93.666288, 42.013688 ] ] ] ] } }
]
}
