{
"type": "FeatureCollection",
"name": "50145",
"crs": { "type": "name", "properties": { "name": "urn:ogc:def:crs:OGC:1.3:CRS84" } },
"features": [
{ "type": "Feature", "properties": { "Name": "", "Description": "" }, "geometry": { "type": "Polygon", "coordinates": [ [ [ -93.50027, 41.209614 ], [ -93.501425, 41.205524 ], [ -93.500174, 41.199768 ], [ -93.500089, 41.182894 ], [ -93.480684, 41.182525 ], [ -93.4808, 41.204297 ], [ -93.461583, 41.203939 ], [ -93.461685, 41.218396 ], [ -93.500393, 41.219306 ], [ -93.50027, 41.209614 ] ] ] } }
]
}
