{
"type": "FeatureCollection",
"name": "50241",
"crs": { "type": "name", "properties": { "name": "urn:ogc:def:crs:OGC:1.3:CRS84" } },
"features": [
{ "type": "Feature", "properties": { "Name": "", "Description": "" }, "geometry": { "type": "Polygon", "coordinates": [ [ [ -93.742727, 41.308956 ], [ -93.742723, 41.306515 ], [ -93.740348, 41.307241 ], [ -93.73146, 41.307258 ], [ -93.730233, 41.305071 ], [ -93.726597, 41.305032 ], [ -93.726584, 41.308012 ], [ -93.729922, 41.308034 ], [ -93.729906, 41.309786 ], [ -93.731411, 41.30983 ], [ -93.733828, 41.309849 ], [ -93.733834, 41.309031 ], [ -93.742727, 41.308956 ] ] ] } }
]
}
