{
"type": "FeatureCollection",
"name": "50427",
"crs": { "type": "name", "properties": { "name": "urn:ogc:def:crs:OGC:1.3:CRS84" } },
"features": [
{ "type": "Feature", "properties": { "Name": "", "Description": "" }, "geometry": { "type": "Polygon", "coordinates": [ [ [ -93.223336, 42.837819 ], [ -93.22344, 42.834846 ], [ -93.222697, 42.834862 ], [ -93.222783, 42.833618 ], [ -93.222021, 42.833616 ], [ -93.22201, 42.83267 ], [ -93.219902, 42.8327 ], [ -93.219936, 42.833622 ], [ -93.218044, 42.83362 ], [ -93.218071, 42.834263 ], [ -93.219488, 42.834263 ], [ -93.219506, 42.838004 ], [ -93.220618, 42.838467 ], [ -93.221637, 42.838466 ], [ -93.221556, 42.837823 ], [ -93.223336, 42.837819 ] ] ] } }
]
}
