{
"type": "FeatureCollection",
"name": "50608",
"crs": { "type": "name", "properties": { "name": "urn:ogc:def:crs:OGC:1.3:CRS84" } },
"features": [
{ "type": "Feature", "properties": { "Name": "", "Description": "" }, "geometry": { "type": "Polygon", "coordinates": [ [ [ -92.965189, 42.586834 ], [ -92.966322, 42.582876 ], [ -92.95708, 42.585184 ], [ -92.957081, 42.594652 ], [ -92.960237, 42.594012 ], [ -92.961542, 42.591449 ], [ -92.960573, 42.590009 ], [ -92.965775, 42.587996 ], [ -92.965189, 42.586834 ] ] ] } }
]
}
