{
"type": "FeatureCollection",
"name": "50623",
"crs": { "type": "name", "properties": { "name": "urn:ogc:def:crs:OGC:1.3:CRS84" } },
"features": [
{ "type": "Feature", "properties": { "Name": "", "Description": "" }, "geometry": { "type": "Polygon", "coordinates": [ [ [ -92.225691, 42.523474 ], [ -92.221622, 42.523465 ], [ -92.221107, 42.521556 ], [ -92.219383, 42.521401 ], [ -92.219412, 42.512535 ], [ -92.199752, 42.512368 ], [ -92.199411, 42.526921 ], [ -92.199407, 42.541473 ], [ -92.218953, 42.541698 ], [ -92.219313, 42.52604 ], [ -92.225691, 42.523474 ] ] ] } }
]
}
