{
"type": "FeatureCollection",
"name": "50631",
"crs": { "type": "name", "properties": { "name": "urn:ogc:def:crs:OGC:1.3:CRS84" } },
"features": [
{ "type": "Feature", "properties": { "Name": "", "Description": "" }, "geometry": { "type": "Polygon", "coordinates": [ [ [ -92.317436, 42.887601 ], [ -92.31745, 42.886583 ], [ -92.314155, 42.885288 ], [ -92.312802, 42.884321 ], [ -92.312135, 42.883692 ], [ -92.311909, 42.882832 ], [ -92.310911, 42.882582 ], [ -92.310859, 42.882334 ], [ -92.311068, 42.881501 ], [ -92.310758, 42.880695 ], [ -92.311387, 42.880255 ], [ -92.312635, 42.879962 ], [ -92.312885, 42.87908 ], [ -92.310428, 42.876763 ], [ -92.308675, 42.876891 ], [ -92.308021, 42.878406 ], [ -92.302989, 42.878366 ], [ -92.302267, 42.880189 ], [ -92.304128, 42.880202 ], [ -92.304066, 42.883837 ], [ -92.307956, 42.883859 ], [ -92.307877, 42.887519 ], [ -92.317436, 42.887601 ] ] ] } }
]
}
