{
"type": "FeatureCollection",
"name": "50657",
"crs": { "type": "name", "properties": { "name": "urn:ogc:def:crs:OGC:1.3:CRS84" } },
"features": [
{ "type": "Feature", "properties": { "Name": "", "Description": "" }, "geometry": { "type": "Polygon", "coordinates": [ [ [ -92.678847, 42.347615 ], [ -92.679433, 42.347226 ], [ -92.677737, 42.345991 ], [ -92.677477, 42.345211 ], [ -92.675658, 42.344554 ], [ -92.675701, 42.340237 ], [ -92.672064, 42.340224 ], [ -92.672051, 42.341468 ], [ -92.67076, 42.341483 ], [ -92.670722, 42.345093 ], [ -92.670723, 42.346794 ], [ -92.67237, 42.347797 ], [ -92.675485, 42.347958 ], [ -92.678847, 42.347615 ] ] ] } }
]
}
