{
"type": "FeatureCollection",
"name": "50831",
"crs": { "type": "name", "properties": { "name": "urn:ogc:def:crs:OGC:1.3:CRS84" } },
"features": [
{ "type": "Feature", "properties": { "Name": "", "Description": "" }, "geometry": { "type": "Polygon", "coordinates": [ [ [ -94.228789, 40.952079 ], [ -94.228791, 40.944788 ], [ -94.224039, 40.944812 ], [ -94.223582, 40.948381 ], [ -94.222095, 40.948464 ], [ -94.222083, 40.949506 ], [ -94.214498, 40.949479 ], [ -94.214467, 40.952112 ], [ -94.228789, 40.952079 ] ] ] } }
]
}
