{
"type": "FeatureCollection",
"name": "51015",
"crs": { "type": "name", "properties": { "name": "urn:ogc:def:crs:OGC:1.3:CRS84" } },
"features": [
{ "type": "Feature", "properties": { "Name": "", "Description": "" }, "geometry": { "type": "Polygon", "coordinates": [ [ [ -96.089447, 42.336059 ], [ -96.090457, 42.3333 ], [ -96.089298, 42.330015 ], [ -96.088296, 42.32925 ], [ -96.085325, 42.32878 ], [ -96.072442, 42.328523 ], [ -96.072442, 42.339713 ], [ -96.072442, 42.347825 ], [ -96.078009, 42.347824 ], [ -96.078286, 42.35153 ], [ -96.078189, 42.353596 ], [ -96.080678, 42.352076 ], [ -96.084639, 42.35091 ], [ -96.084685, 42.351963 ], [ -96.086214, 42.351665 ], [ -96.086775, 42.350423 ], [ -96.088665, 42.34952 ], [ -96.08772, 42.347701 ], [ -96.086342, 42.347805 ], [ -96.08879, 42.345068 ], [ -96.090316, 42.33875 ], [ -96.089447, 42.336059 ] ] ] } }
]
}
