{
"type": "FeatureCollection",
"name": "51045",
"crs": { "type": "name", "properties": { "name": "urn:ogc:def:crs:OGC:1.3:CRS84" } },
"features": [
{ "type": "Feature", "properties": { "Name": "", "Description": "" }, "geometry": { "type": "Polygon", "coordinates": [ [ [ -96.060905, 42.820244 ], [ -96.060973, 42.818772 ], [ -96.056088, 42.818189 ], [ -96.054593, 42.81925 ], [ -96.054511, 42.822448 ], [ -96.055847, 42.822435 ], [ -96.055914, 42.821313 ], [ -96.059581, 42.821319 ], [ -96.059526, 42.822422 ], [ -96.060808, 42.822423 ], [ -96.060883, 42.820719 ], [ -96.060905, 42.820244 ] ] ] } }
]
}
