{
"type": "FeatureCollection",
"name": "51432",
"crs": { "type": "name", "properties": { "name": "urn:ogc:def:crs:OGC:1.3:CRS84" } },
"features": [
{ "type": "Feature", "properties": { "Name": "", "Description": "" }, "geometry": { "type": "Polygon", "coordinates": [ [ [ -95.147388, 41.908246 ], [ -95.14858, 41.906946 ], [ -95.138499, 41.906941 ], [ -95.13157, 41.906941 ], [ -95.131447, 41.914056 ], [ -95.13844, 41.91412 ], [ -95.138385, 41.913441 ], [ -95.140482, 41.913529 ], [ -95.142398, 41.912477 ], [ -95.144697, 41.908727 ], [ -95.147388, 41.908246 ] ] ] } }
]
}
