{
"type": "FeatureCollection",
"name": "51452",
"crs": { "type": "name", "properties": { "name": "urn:ogc:def:crs:OGC:1.3:CRS84" } },
"features": [
{ "type": "Feature", "properties": { "Name": "", "Description": "" }, "geometry": { "type": "Polygon", "coordinates": [ [ [ -94.798327, 42.123305 ], [ -94.798432, 42.110898 ], [ -94.783752, 42.110792 ], [ -94.769011, 42.110748 ], [ -94.768999, 42.114345 ], [ -94.768974, 42.123193 ], [ -94.769139, 42.134054 ], [ -94.78371, 42.134075 ], [ -94.798193, 42.134102 ], [ -94.798327, 42.123305 ] ] ] } }
]
}
