{
"type": "FeatureCollection",
"name": "51460",
"crs": { "type": "name", "properties": { "name": "urn:ogc:def:crs:OGC:1.3:CRS84" } },
"features": [
{ "type": "Feature", "properties": { "Name": "", "Description": "" }, "geometry": { "type": "Polygon", "coordinates": [ [ [ -95.579706, 42.131598 ], [ -95.579678, 42.124448 ], [ -95.576173, 42.124336 ], [ -95.574882, 42.124358 ], [ -95.572106, 42.126427 ], [ -95.57003, 42.127235 ], [ -95.569424, 42.127386 ], [ -95.567416, 42.128975 ], [ -95.564787, 42.132712 ], [ -95.56147, 42.135567 ], [ -95.56067, 42.135591 ], [ -95.560178, 42.138764 ], [ -95.574933, 42.138811 ], [ -95.574936, 42.131571 ], [ -95.579706, 42.131598 ] ] ] } }
]
}
