{
"type": "FeatureCollection",
"name": "51651",
"crs": { "type": "name", "properties": { "name": "urn:ogc:def:crs:OGC:1.3:CRS84" } },
"features": [
{ "type": "Feature", "properties": { "Name": "", "Description": "" }, "geometry": { "type": "Polygon", "coordinates": [ [ [ -95.03985, 40.658679 ], [ -95.039931, 40.656747 ], [ -95.037544, 40.656728 ], [ -95.037715, 40.652262 ], [ -95.03039, 40.651995 ], [ -95.030451, 40.655618 ], [ -95.031411, 40.658388 ], [ -95.035251, 40.663128 ], [ -95.037046, 40.663139 ], [ -95.035593, 40.662743 ], [ -95.035067, 40.662031 ], [ -95.035109, 40.660365 ], [ -95.039786, 40.660419 ], [ -95.039824, 40.659416 ], [ -95.037299, 40.659405 ], [ -95.037465, 40.659238 ], [ -95.037484, 40.658647 ], [ -95.03985, 40.658679 ] ] ] } }
]
}
