{
"type": "FeatureCollection",
"name": "52036",
"crs": { "type": "name", "properties": { "name": "urn:ogc:def:crs:OGC:1.3:CRS84" } },
"features": [
{ "type": "Feature", "properties": { "Name": "", "Description": "" }, "geometry": { "type": "Polygon", "coordinates": [ [ [ -91.351352, 42.476335 ], [ -91.351139, 42.469998 ], [ -91.345056, 42.470037 ], [ -91.337793, 42.470155 ], [ -91.332291, 42.470423 ], [ -91.326506, 42.470679 ], [ -91.326608, 42.473912 ], [ -91.336466, 42.473896 ], [ -91.337665, 42.474472 ], [ -91.341384, 42.474543 ], [ -91.341486, 42.476798 ], [ -91.34322, 42.477022 ], [ -91.351352, 42.476335 ] ] ] } }
]
}
