{
"type": "FeatureCollection",
"name": "52056",
"crs": { "type": "name", "properties": { "name": "urn:ogc:def:crs:OGC:1.3:CRS84" } },
"features": [
{ "type": "Feature", "properties": { "Name": "", "Description": "" }, "geometry": { "type": "Polygon", "coordinates": [ [ [ -91.082067, 42.603744 ], [ -91.082068, 42.602601 ], [ -91.07925, 42.602587 ], [ -91.079257, 42.598958 ], [ -91.074702, 42.59895 ], [ -91.074499, 42.596918 ], [ -91.077513, 42.596961 ], [ -91.078052, 42.595321 ], [ -91.074184, 42.595306 ], [ -91.074035, 42.598326 ], [ -91.072878, 42.598956 ], [ -91.06889, 42.598977 ], [ -91.068643, 42.602588 ], [ -91.068971, 42.60428 ], [ -91.064441, 42.604331 ], [ -91.064402, 42.609922 ], [ -91.074257, 42.609864 ], [ -91.074939, 42.607136 ], [ -91.076691, 42.607153 ], [ -91.076692, 42.606195 ], [ -91.07921, 42.60623 ], [ -91.079253, 42.603732 ], [ -91.082067, 42.603744 ] ] ] } }
]
}
