{
"type": "FeatureCollection",
"name": "52071",
"crs": { "type": "name", "properties": { "name": "urn:ogc:def:crs:OGC:1.3:CRS84" } },
"features": [
{ "type": "Feature", "properties": { "Name": "", "Description": "" }, "geometry": { "type": "Polygon", "coordinates": [ [ [ -90.548888, 42.367332 ], [ -90.548812, 42.363802 ], [ -90.548819, 42.356472 ], [ -90.547189, 42.356422 ], [ -90.543542, 42.357989 ], [ -90.541571, 42.359467 ], [ -90.540615, 42.358939 ], [ -90.540084, 42.358528 ], [ -90.535454, 42.358246 ], [ -90.535527, 42.361088 ], [ -90.535549, 42.362964 ], [ -90.535804, 42.367318 ], [ -90.545253, 42.367442 ], [ -90.545209, 42.364794 ], [ -90.548888, 42.367332 ] ] ] } }
]
}
