{
"type": "FeatureCollection",
"name": "52252",
"crs": { "type": "name", "properties": { "name": "urn:ogc:def:crs:OGC:1.3:CRS84" } },
"features": [
{ "type": "Feature", "properties": { "Name": "", "Description": "" }, "geometry": { "type": "Polygon", "coordinates": [ [ [ -91.247626, 42.194194 ], [ -91.247672, 42.1871 ], [ -91.238343, 42.187079 ], [ -91.232838, 42.187317 ], [ -91.22774, 42.186815 ], [ -91.226637, 42.18779 ], [ -91.223064, 42.188765 ], [ -91.221702, 42.191608 ], [ -91.21853, 42.194272 ], [ -91.209072, 42.208812 ], [ -91.228575, 42.208869 ], [ -91.228956, 42.194142 ], [ -91.247626, 42.194194 ] ] ] } }
]
}
