{
"type": "FeatureCollection",
"name": "52568",
"crs": { "type": "name", "properties": { "name": "urn:ogc:def:crs:OGC:1.3:CRS84" } },
"features": [
{ "type": "Feature", "properties": { "Name": "", "Description": "" }, "geometry": { "type": "Polygon", "coordinates": [ [ [ -92.256672, 41.176947 ], [ -92.256663, 41.173321 ], [ -92.247087, 41.17336 ], [ -92.247085, 41.184186 ], [ -92.251927, 41.184192 ], [ -92.251915, 41.179874 ], [ -92.253043, 41.17987 ], [ -92.253047, 41.176958 ], [ -92.256672, 41.176947 ] ] ] } }
]
}
