{
"type": "FeatureCollection",
"name": "52631",
"crs": { "type": "name", "properties": { "name": "urn:ogc:def:crs:OGC:1.3:CRS84" } },
"features": [
{ "type": "Feature", "properties": { "Name": "", "Description": "" }, "geometry": { "type": "Polygon", "coordinates": [ [ [ -91.622166, 40.784676 ], [ -91.62215, 40.781947 ], [ -91.610511, 40.781951 ], [ -91.610509, 40.78087 ], [ -91.602922, 40.781266 ], [ -91.60291, 40.782778 ], [ -91.602917, 40.783702 ], [ -91.605559, 40.784678 ], [ -91.61259, 40.784684 ], [ -91.622166, 40.784676 ] ] ] } }
]
}
