{
"type": "FeatureCollection",
"name": "52652",
"crs": { "type": "name", "properties": { "name": "urn:ogc:def:crs:OGC:1.3:CRS84" } },
"features": [
{ "type": "Feature", "properties": { "Name": "", "Description": "" }, "geometry": { "type": "Polygon", "coordinates": [ [ [ -91.564168, 41.105213 ], [ -91.563893, 41.090488 ], [ -91.544963, 41.090421 ], [ -91.545035, 41.095614 ], [ -91.544663, 41.098881 ], [ -91.54226, 41.105155 ], [ -91.545949, 41.105204 ], [ -91.545927, 41.104267 ], [ -91.548348, 41.104253 ], [ -91.548374, 41.105192 ], [ -91.564168, 41.105213 ] ] ] } }
]
}
