{
"type": "FeatureCollection",
"name": "52759",
"crs": { "type": "name", "properties": { "name": "urn:ogc:def:crs:OGC:1.3:CRS84" } },
"features": [
{ "type": "Feature", "properties": { "Name": "", "Description": "" }, "geometry": { "type": "Polygon", "coordinates": [ [ [ -90.818395, 41.458969 ], [ -90.817568, 41.456872 ], [ -90.814468, 41.45717 ], [ -90.802915, 41.456895 ], [ -90.803067, 41.457832 ], [ -90.80398, 41.459236 ], [ -90.806872, 41.4594 ], [ -90.80678, 41.464087 ], [ -90.806491, 41.46571 ], [ -90.812197, 41.465677 ], [ -90.812316, 41.458954 ], [ -90.818395, 41.458969 ] ] ] } }
]
}
