{
"type": "FeatureCollection",
"name": "52771",
"crs": { "type": "name", "properties": { "name": "urn:ogc:def:crs:OGC:1.3:CRS84" } },
"features": [
{ "type": "Feature", "properties": { "Name": "", "Description": "" }, "geometry": { "type": "Polygon", "coordinates": [ [ [ -90.27225, 42.033427 ], [ -90.272241, 42.026813 ], [ -90.271357, 42.026202 ], [ -90.267394, 42.025829 ], [ -90.267329, 42.011784 ], [ -90.249091, 42.011739 ], [ -90.24765, 42.010464 ], [ -90.247638, 42.002494 ], [ -90.248439, 42.000804 ], [ -90.244824, 42.001448 ], [ -90.240778, 42.001353 ], [ -90.239678, 42.004411 ], [ -90.243055, 42.010479 ], [ -90.24419, 42.011745 ], [ -90.244099, 42.013832 ], [ -90.24597, 42.014792 ], [ -90.247375, 42.018421 ], [ -90.247187, 42.019291 ], [ -90.250433, 42.022788 ], [ -90.250661, 42.027455 ], [ -90.253905, 42.030475 ], [ -90.255561, 42.029981 ], [ -90.258687, 42.030798 ], [ -90.2604, 42.033383 ], [ -90.262482, 42.0334 ], [ -90.27225, 42.033427 ] ] ] } }
]
}
