{
"type": "FeatureCollection",
"name": "53099",
"crs": { "type": "name", "properties": { "name": "urn:ogc:def:crs:OGC:1.3:CRS84" } },
"features": [
{ "type": "Feature", "properties": { "Name": "", "Description": "" }, "geometry": { "type": "Polygon", "coordinates": [ [ [ -88.528114, 43.377842 ], [ -88.528201, 43.375398 ], [ -88.524757, 43.373648 ], [ -88.524401, 43.373331 ], [ -88.523041, 43.374103 ], [ -88.522013, 43.375298 ], [ -88.521355, 43.375269 ], [ -88.519086, 43.372139 ], [ -88.517994, 43.371635 ], [ -88.517569, 43.371133 ], [ -88.521077, 43.376401 ], [ -88.521316, 43.377079 ], [ -88.522054, 43.378327 ], [ -88.522771, 43.379643 ], [ -88.524425, 43.384911 ], [ -88.526428, 43.390765 ], [ -88.528085, 43.389499 ], [ -88.528114, 43.377842 ] ] ] } }
]
}
