{
"type": "FeatureCollection",
"name": "53127",
"crs": { "type": "name", "properties": { "name": "urn:ogc:def:crs:OGC:1.3:CRS84" } },
"features": [
{ "type": "Feature", "properties": { "Name": "", "Description": "" }, "geometry": { "type": "Polygon", "coordinates": [ [ [ -88.385916, 42.963252 ], [ -88.387761, 42.961787 ], [ -88.385361, 42.960609 ], [ -88.3854, 42.956068 ], [ -88.385633, 42.945816 ], [ -88.383455, 42.94724 ], [ -88.379864, 42.950315 ], [ -88.376755, 42.954304 ], [ -88.375188, 42.957561 ], [ -88.373086, 42.95725 ], [ -88.370483, 42.957823 ], [ -88.368707, 42.959667 ], [ -88.370373, 42.961235 ], [ -88.370328, 42.963612 ], [ -88.365578, 42.963682 ], [ -88.363867, 42.964177 ], [ -88.36443, 42.965016 ], [ -88.363883, 42.965314 ], [ -88.365759, 42.967522 ], [ -88.365684, 42.968515 ], [ -88.366482, 42.970056 ], [ -88.369629, 42.968028 ], [ -88.371212, 42.966536 ], [ -88.371245, 42.966536 ], [ -88.37076, 42.967402 ], [ -88.373928, 42.967408 ], [ -88.373871, 42.966573 ], [ -88.38357, 42.966675 ], [ -88.385916, 42.963252 ] ] ] } }
]
}
