{
"type": "FeatureCollection",
"name": "53157",
"crs": { "type": "name", "properties": { "name": "urn:ogc:def:crs:OGC:1.3:CRS84" } },
"features": [
{ "type": "Feature", "properties": { "Name": "", "Description": "" }, "geometry": { "type": "Polygon", "coordinates": [ [ [ -88.371761, 42.540319 ], [ -88.369947, 42.538729 ], [ -88.37068, 42.538159 ], [ -88.367039, 42.535045 ], [ -88.365857, 42.536073 ], [ -88.366639, 42.536756 ], [ -88.366618, 42.538326 ], [ -88.367494, 42.538325 ], [ -88.36752, 42.53745 ], [ -88.369189, 42.538326 ], [ -88.369345, 42.540306 ], [ -88.371761, 42.540319 ] ] ] } }
]
}
