{
"type": "FeatureCollection",
"name": "53176",
"crs": { "type": "name", "properties": { "name": "urn:ogc:def:crs:OGC:1.3:CRS84" } },
"features": [
{ "type": "Feature", "properties": { "Name": "", "Description": "" }, "geometry": { "type": "Polygon", "coordinates": [ [ [ -88.423106, 42.646364 ], [ -88.423128, 42.640319 ], [ -88.41365, 42.640208 ], [ -88.411163, 42.640214 ], [ -88.411147, 42.641658 ], [ -88.409943, 42.641664 ], [ -88.409942, 42.640212 ], [ -88.39937, 42.639933 ], [ -88.40433, 42.641521 ], [ -88.406324, 42.64163 ], [ -88.408662, 42.644179 ], [ -88.406864, 42.646542 ], [ -88.413602, 42.646403 ], [ -88.413611, 42.645915 ], [ -88.423106, 42.646364 ] ] ] } }
]
}
