{
"type": "FeatureCollection",
"name": "53812",
"crs": { "type": "name", "properties": { "name": "urn:ogc:def:crs:OGC:1.3:CRS84" } },
"features": [
{ "type": "Feature", "properties": { "Name": "", "Description": "" }, "geometry": { "type": "Polygon", "coordinates": [ [ [ -90.611195, 42.574102 ], [ -90.610903, 42.574008 ], [ -90.608963, 42.573448 ], [ -90.60086, 42.573504 ], [ -90.598572, 42.580182 ], [ -90.597122, 42.58094 ], [ -90.598568, 42.580906 ], [ -90.598061, 42.581123 ], [ -90.597452, 42.581521 ], [ -90.596921, 42.582053 ], [ -90.596435, 42.582806 ], [ -90.59578, 42.583832 ], [ -90.593689, 42.587235 ], [ -90.593259, 42.588136 ], [ -90.601289, 42.58811 ], [ -90.602819, 42.588538 ], [ -90.605495, 42.583921 ], [ -90.611195, 42.574102 ] ] ] } }
]
}
