{
"type": "FeatureCollection",
"name": "53942",
"crs": { "type": "name", "properties": { "name": "urn:ogc:def:crs:OGC:1.3:CRS84" } },
"features": [
{ "type": "Feature", "properties": { "Name": "", "Description": "" }, "geometry": { "type": "Polygon", "coordinates": [ [ [ -90.184252, 43.458386 ], [ -90.183446, 43.458147 ], [ -90.178063, 43.458206 ], [ -90.16656, 43.457108 ], [ -90.164893, 43.456185 ], [ -90.163723, 43.454402 ], [ -90.16002, 43.453139 ], [ -90.15543, 43.453147 ], [ -90.155538, 43.45393 ], [ -90.15547, 43.46043 ], [ -90.155461, 43.469091 ], [ -90.152898, 43.47479 ], [ -90.167823, 43.474792 ], [ -90.16769, 43.467517 ], [ -90.174243, 43.467552 ], [ -90.174886, 43.467493 ], [ -90.176426, 43.466944 ], [ -90.182655, 43.460525 ], [ -90.184252, 43.458386 ] ] ] } }
]
}
