{
"type": "FeatureCollection",
"name": "53940",
"crs": { "type": "name", "properties": { "name": "urn:ogc:def:crs:OGC:1.3:CRS84" } },
"features": [
{ "type": "Feature", "properties": { "Name": "", "Description": "" }, "geometry": { "type": "Polygon", "coordinates": [ [ [ -89.795645, 43.593156 ], [ -89.795788, 43.589181 ], [ -89.794039, 43.589153 ], [ -89.793942, 43.590215 ], [ -89.792134, 43.590156 ], [ -89.792117, 43.590714 ], [ -89.792004, 43.591278 ], [ -89.793869, 43.591343 ], [ -89.793816, 43.592211 ], [ -89.793722, 43.593931 ], [ -89.795645, 43.593156 ] ] ] } }
]
}
