{
"type": "FeatureCollection",
"name": "54152",
"crs": { "type": "name", "properties": { "name": "urn:ogc:def:crs:OGC:1.3:CRS84" } },
"features": [
{ "type": "Feature", "properties": { "Name": "", "Description": "" }, "geometry": { "type": "Polygon", "coordinates": [ [ [ -88.479822, 44.565606 ], [ -88.48177, 44.564591 ], [ -88.473469, 44.564818 ], [ -88.473502, 44.559488 ], [ -88.465966, 44.559611 ], [ -88.465924, 44.561412 ], [ -88.46345, 44.56149 ], [ -88.463449, 44.559673 ], [ -88.459304, 44.559776 ], [ -88.468136, 44.573676 ], [ -88.468358, 44.573978 ], [ -88.476075, 44.573822 ], [ -88.475651, 44.571485 ], [ -88.477707, 44.569706 ], [ -88.480554, 44.568723 ], [ -88.479839, 44.567143 ], [ -88.48145, 44.566928 ], [ -88.479822, 44.565606 ] ] ] } }
]
}
