{
"type": "FeatureCollection",
"name": "54215",
"crs": { "type": "name", "properties": { "name": "urn:ogc:def:crs:OGC:1.3:CRS84" } },
"features": [
{ "type": "Feature", "properties": { "Name": "", "Description": "" }, "geometry": { "type": "Polygon", "coordinates": [ [ [ -87.811916, 44.225341 ], [ -87.811875, 44.221779 ], [ -87.804314, 44.221961 ], [ -87.804274, 44.218356 ], [ -87.801748, 44.218387 ], [ -87.801838, 44.225667 ], [ -87.792017, 44.225567 ], [ -87.792049, 44.227365 ], [ -87.797085, 44.227433 ], [ -87.79712, 44.229237 ], [ -87.799492, 44.229255 ], [ -87.799534, 44.232839 ], [ -87.80187, 44.232854 ], [ -87.804371, 44.232852 ], [ -87.804363, 44.229209 ], [ -87.806877, 44.229145 ], [ -87.806876, 44.227313 ], [ -87.811832, 44.227165 ], [ -87.811916, 44.225341 ] ] ] } }
]
}
