{
"type": "FeatureCollection",
"name": "54464",
"crs": { "type": "name", "properties": { "name": "urn:ogc:def:crs:OGC:1.3:CRS84" } },
"features": [
{ "type": "Feature", "properties": { "Name": "", "Description": "" }, "geometry": { "type": "Polygon", "coordinates": [ [ [ -89.022301, 45.058729 ], [ -89.021865, 45.055047 ], [ -89.019302, 45.051792 ], [ -89.015064, 45.051238 ], [ -89.012279, 45.051167 ], [ -89.013584, 45.055762 ], [ -89.015277, 45.057553 ], [ -89.017814, 45.057581 ], [ -89.018367, 45.058754 ], [ -89.022301, 45.058729 ] ] ] } }
]
}
