{
"type": "FeatureCollection",
"name": "54926",
"crs": { "type": "name", "properties": { "name": "urn:ogc:def:crs:OGC:1.3:CRS84" } },
"features": [
{ "type": "Feature", "properties": { "Name": "", "Description": "" }, "geometry": { "type": "Polygon", "coordinates": [ [ [ -89.024346, 44.618933 ], [ -89.024381, 44.611725 ], [ -89.011504, 44.611933 ], [ -89.011733, 44.617669 ], [ -89.015153, 44.618879 ], [ -89.015229, 44.619918 ], [ -89.016909, 44.619513 ], [ -89.021948, 44.619696 ], [ -89.022339, 44.619625 ], [ -89.023176, 44.619332 ], [ -89.023934, 44.619045 ], [ -89.024346, 44.618933 ] ] ] } }
]
}
