{
"type": "FeatureCollection",
"name": "54978",
"crs": { "type": "name", "properties": { "name": "urn:ogc:def:crs:OGC:1.3:CRS84" } },
"features": [
{ "type": "Feature", "properties": { "Name": "", "Description": "" }, "geometry": { "type": "Polygon", "coordinates": [ [ [ -88.940456, 44.800658 ], [ -88.940139, 44.783039 ], [ -88.905168, 44.782967 ], [ -88.905045, 44.775793 ], [ -88.898833, 44.775808 ], [ -88.898992, 44.789773 ], [ -88.88697, 44.789833 ], [ -88.886748, 44.792974 ], [ -88.890084, 44.79503 ], [ -88.889774, 44.797264 ], [ -88.899112, 44.797191 ], [ -88.89921, 44.804291 ], [ -88.891545, 44.804703 ], [ -88.892472, 44.807723 ], [ -88.889179, 44.811459 ], [ -88.907138, 44.81163 ], [ -88.908858, 44.811662 ], [ -88.909524, 44.809718 ], [ -88.909629, 44.80852 ], [ -88.909577, 44.804083 ], [ -88.919776, 44.804197 ], [ -88.91983, 44.802004 ], [ -88.92159, 44.800794 ], [ -88.92746, 44.800729 ], [ -88.932193, 44.802271 ], [ -88.940456, 44.800658 ] ] ] } }
]
}
