{
"type": "FeatureCollection",
"name": "55796",
"crs": { "type": "name", "properties": { "name": "urn:ogc:def:crs:OGC:1.3:CRS84" } },
"features": [
{ "type": "Feature", "properties": { "Name": "", "Description": "" }, "geometry": { "type": "Polygon", "coordinates": [ [ [ -91.803218, 47.928739 ], [ -91.802953, 47.925964 ], [ -91.802357, 47.925869 ], [ -91.801146, 47.924257 ], [ -91.797966, 47.924267 ], [ -91.795713, 47.926174 ], [ -91.792633, 47.930175 ], [ -91.790355, 47.930673 ], [ -91.790434, 47.933211 ], [ -91.791892, 47.932542 ], [ -91.795642, 47.933887 ], [ -91.797996, 47.932431 ], [ -91.797996, 47.932021 ], [ -91.800198, 47.930928 ], [ -91.803218, 47.928739 ] ] ] } }
]
}
