{
"type": "FeatureCollection",
"name": "56563",
"crs": { "type": "name", "properties": { "name": "urn:ogc:def:crs:OGC:1.3:CRS84" } },
"features": [
{ "type": "Feature", "properties": { "Name": "", "Description": "" }, "geometry": { "type": "Polygon", "coordinates": [ [ [ -96.762768, 46.867208 ], [ -96.762801, 46.865113 ], [ -96.75322, 46.8651 ], [ -96.749453, 46.865107 ], [ -96.747829, 46.866267 ], [ -96.747844, 46.868243 ], [ -96.74965, 46.86825 ], [ -96.749663, 46.869274 ], [ -96.751886, 46.869299 ], [ -96.751891, 46.868246 ], [ -96.753157, 46.868248 ], [ -96.762763, 46.868243 ], [ -96.762768, 46.867208 ] ] ] } }
]
}
