{
"type": "FeatureCollection",
"name": "57007",
"crs": { "type": "name", "properties": { "name": "urn:ogc:def:crs:OGC:1.3:CRS84" } },
"features": [
{ "type": "Feature", "properties": { "Name": "", "Description": "" }, "geometry": { "type": "Polygon", "coordinates": [ [ [ -96.788392, 44.318763 ], [ -96.788451, 44.314151 ], [ -96.778308, 44.314147 ], [ -96.777996, 44.31931 ], [ -96.780751, 44.320029 ], [ -96.782543, 44.320633 ], [ -96.782215, 44.325835 ], [ -96.788368, 44.325871 ], [ -96.78832, 44.32118 ], [ -96.788392, 44.318763 ] ] ] } }
]
}
