{
"type": "FeatureCollection",
"name": "57354",
"crs": { "type": "name", "properties": { "name": "urn:ogc:def:crs:OGC:1.3:CRS84" } },
"features": [
{ "type": "Feature", "properties": { "Name": "", "Description": "" }, "geometry": { "type": "Polygon", "coordinates": [ [ [ -97.854555, 43.197879 ], [ -97.854458, 43.191332 ], [ -97.854374, 43.183437 ], [ -97.838584, 43.183414 ], [ -97.838562, 43.186352 ], [ -97.838265, 43.186437 ], [ -97.836875, 43.18612 ], [ -97.83577, 43.185932 ], [ -97.834277, 43.185492 ], [ -97.829412, 43.184234 ], [ -97.829686, 43.197961 ], [ -97.854555, 43.197879 ] ] ] } }
]
}
