{
"type": "FeatureCollection",
"name": "57659",
"crs": { "type": "name", "properties": { "name": "urn:ogc:def:crs:OGC:1.3:CRS84" } },
"features": [
{ "type": "Feature", "properties": { "Name": "", "Description": "" }, "geometry": { "type": "Polygon", "coordinates": [ [ [ -101.142284, 45.922085 ], [ -101.142273, 45.920165 ], [ -101.137668, 45.920108 ], [ -101.134026, 45.919695 ], [ -101.1115, 45.91504 ], [ -101.107338, 45.913899 ], [ -101.100405, 45.911366 ], [ -101.100711, 45.910794 ], [ -101.100709, 45.905335 ], [ -101.100659, 45.837982 ], [ -101.101012, 45.83703 ], [ -101.109375, 45.82711 ], [ -101.10979, 45.826342 ], [ -101.110059, 45.818528 ], [ -101.079895, 45.818377 ], [ -101.079894, 45.818613 ], [ -101.079743, 45.904097 ], [ -101.079774, 45.906784 ], [ -101.08003, 45.920448 ], [ -101.080003, 45.934361 ], [ -101.074108, 45.934462 ], [ -101.070724, 45.933799 ], [ -101.068039, 45.934517 ], [ -101.059729, 45.934513 ], [ -101.059622881506996, 45.943919484295499 ], [ -101.079772618242998, 45.943881570234502 ], [ -101.101334, 45.943841 ], [ -101.106826, 45.943984 ], [ -101.142213607791007, 45.9438424297688 ], [ -101.142284, 45.922085 ] ] ] } }
]
}
