{
"type": "FeatureCollection",
"name": "57737",
"crs": { "type": "name", "properties": { "name": "urn:ogc:def:crs:OGC:1.3:CRS84" } },
"features": [
{ "type": "Feature", "properties": { "Name": "", "Description": "" }, "geometry": { "type": "Polygon", "coordinates": [ [ [ -102.56316, 44.662363 ], [ -102.562873, 44.575367 ], [ -102.562372, 44.445094 ], [ -102.548738, 44.44509 ], [ -102.546725, 44.445416 ], [ -102.543985, 44.445091 ], [ -102.534198, 44.445114 ], [ -102.528055, 44.444315 ], [ -102.518927, 44.445684 ], [ -102.516104, 44.445136 ], [ -102.50181, 44.44513 ], [ -102.501777, 44.448776 ], [ -102.503046, 44.452958 ], [ -102.501724, 44.456094 ], [ -102.501722, 44.458407 ], [ -102.497575, 44.462134 ], [ -102.495415, 44.465039 ], [ -102.492947, 44.465007 ], [ -102.491079, 44.465853 ], [ -102.490407, 44.467121 ], [ -102.490348, 44.469222 ], [ -102.484599, 44.469411 ], [ -102.483837, 44.471212 ], [ -102.481751, 44.472449 ], [ -102.481135, 44.478742 ], [ -102.481746, 44.485741 ], [ -102.484235, 44.488312 ], [ -102.483655, 44.490357 ], [ -102.483875, 44.491928 ], [ -102.482398, 44.497157 ], [ -102.482185, 44.502586 ], [ -102.481584, 44.503914 ], [ -102.481695, 44.516961 ], [ -102.48274, 44.520131 ], [ -102.482511, 44.523443 ], [ -102.482937, 44.526617 ], [ -102.48659, 44.528865 ], [ -102.48095, 44.528489 ], [ -102.480215, 44.528855 ], [ -102.480418, 44.534407 ], [ -102.478624, 44.535366 ], [ -102.476319, 44.535752 ], [ -102.465618, 44.535736 ], [ -102.462881, 44.537079 ], [ -102.462502, 44.537895 ], [ -102.462407, 44.5774 ], [ -102.462705, 44.580683 ], [ -102.465207, 44.578727 ], [ -102.469968, 44.576658 ], [ -102.473996, 44.576032 ], [ -102.481716, 44.575959 ], [ -102.48177, 44.575956 ], [ -102.482617, 44.655996 ], [ -102.487842, 44.660233 ], [ -102.491436, 44.662596 ], [ -102.491917, 44.662826 ], [ -102.529401, 44.662587 ], [ -102.532594, 44.662877 ], [ -102.536087, 44.662552 ], [ -102.56316, 44.662363 ] ] ] } }
]
}
