{
"type": "FeatureCollection",
"name": "58236",
"crs": { "type": "name", "properties": { "name": "urn:ogc:def:crs:OGC:1.3:CRS84" } },
"features": [
{ "type": "Feature", "properties": { "Name": "", "Description": "" }, "geometry": { "type": "Polygon", "coordinates": [ [ [ -97.622368, 48.71959 ], [ -97.622597, 48.717667 ], [ -97.556876, 48.717761 ], [ -97.53504, 48.717787 ], [ -97.535398, 48.717337 ], [ -97.53539, 48.702551 ], [ -97.523178, 48.70256 ], [ -97.446787, 48.702861 ], [ -97.446378, 48.707991 ], [ -97.447284, 48.707984 ], [ -97.447321, 48.717812 ], [ -97.447458, 48.732114 ], [ -97.467837, 48.732416 ], [ -97.512532, 48.73229 ], [ -97.556861, 48.732493 ], [ -97.556771, 48.723902 ], [ -97.566001, 48.724017 ], [ -97.569109, 48.724453 ], [ -97.579123, 48.724344 ], [ -97.580333, 48.722631 ], [ -97.59021, 48.722406 ], [ -97.597151, 48.720992 ], [ -97.611343, 48.719625 ], [ -97.622368, 48.71959 ] ] ] } }
]
}
