{
"type": "FeatureCollection",
"name": "58310",
"crs": { "type": "name", "properties": { "name": "urn:ogc:def:crs:OGC:1.3:CRS84" } },
"features": [
{ "type": "Feature", "properties": { "Name": "", "Description": "" }, "geometry": { "type": "Polygon", "coordinates": [ [ [ -99.580469, 48.602832 ], [ -99.580448, 48.597296 ], [ -99.577605, 48.596496 ], [ -99.575766, 48.595206 ], [ -99.57375, 48.591405 ], [ -99.572955, 48.588531 ], [ -99.57456, 48.586039 ], [ -99.576757, 48.58568 ], [ -99.580257, 48.587369 ], [ -99.580412, 48.545014 ], [ -99.579625, 48.544938 ], [ -99.547449, 48.544917 ], [ -99.493189, 48.544834 ], [ -99.493153, 48.602791 ], [ -99.471549, 48.602656 ], [ -99.471564, 48.617225 ], [ -99.493131, 48.617269 ], [ -99.5149, 48.617258 ], [ -99.514947, 48.573826 ], [ -99.547684, 48.573864 ], [ -99.547779, 48.588339 ], [ -99.548319, 48.588438 ], [ -99.558641, 48.588451 ], [ -99.55862, 48.602816 ], [ -99.580469, 48.602832 ] ] ] } }
]
}
