{
"type": "FeatureCollection",
"name": "58313",
"crs": { "type": "name", "properties": { "name": "urn:ogc:def:crs:OGC:1.3:CRS84" } },
"features": [
{ "type": "Feature", "properties": { "Name": "", "Description": "" }, "geometry": { "type": "Polygon", "coordinates": [ [ [ -100.042387, 48.163001 ], [ -100.042384, 48.16041 ], [ -100.041257, 48.16069 ], [ -100.040267, 48.161192 ], [ -100.03923, 48.16298 ], [ -100.031441, 48.162929 ], [ -100.031382, 48.170189 ], [ -100.042354, 48.170244 ], [ -100.042353, 48.168752 ], [ -100.040845, 48.168781 ], [ -100.039158, 48.16866 ], [ -100.03887, 48.1685 ], [ -100.038863, 48.166627 ], [ -100.042371, 48.166631 ], [ -100.042387, 48.163001 ] ] ] } }
]
}
