{
"type": "FeatureCollection",
"name": "58644",
"crs": { "type": "name", "properties": { "name": "urn:ogc:def:crs:OGC:1.3:CRS84" } },
"features": [
{ "type": "Feature", "properties": { "Name": "", "Description": "" }, "geometry": { "type": "Polygon", "coordinates": [ [ [ -102.420183, 47.155276 ], [ -102.420055, 47.126046 ], [ -102.302561, 47.125965 ], [ -102.302369, 47.140119 ], [ -102.293407, 47.140283 ], [ -102.292717, 47.141767 ], [ -102.29346, 47.146448 ], [ -102.29281, 47.147991 ], [ -102.292738, 47.154871 ], [ -102.293132, 47.15538 ], [ -102.358158, 47.155312 ], [ -102.362234, 47.155433 ], [ -102.384113, 47.155369 ], [ -102.385423, 47.155188 ], [ -102.397725, 47.155286 ], [ -102.399077, 47.154921 ], [ -102.401431, 47.155236 ], [ -102.420183, 47.155276 ] ] ] } }
]
}
