{
"type": "FeatureCollection",
"name": "59083",
"crs": { "type": "name", "properties": { "name": "urn:ogc:def:crs:OGC:1.3:CRS84" } },
"features": [
{ "type": "Feature", "properties": { "Name": "", "Description": "" }, "geometry": { "type": "Polygon", "coordinates": [ [ [ -107.734347, 46.496276 ], [ -107.734274, 46.481807 ], [ -107.413447, 46.482379 ], [ -107.415538, 46.485406 ], [ -107.412575, 46.493005 ], [ -107.41004, 46.494455 ], [ -107.40873, 46.495987 ], [ -107.407856, 46.496272 ], [ -107.385051, 46.500091 ], [ -107.383649, 46.50045 ], [ -107.378042, 46.503477 ], [ -107.377607, 46.505547 ], [ -107.378555, 46.509729 ], [ -107.378062, 46.512218 ], [ -107.378053, 46.575647 ], [ -107.376544, 46.576427 ], [ -107.376324, 46.577893 ], [ -107.375068, 46.578408 ], [ -107.376244, 46.583184 ], [ -107.407383, 46.580285 ], [ -107.410244, 46.580269 ], [ -107.422329, 46.581526 ], [ -107.424103, 46.581878 ], [ -107.425669, 46.582492 ], [ -107.435327, 46.58725 ], [ -107.457933, 46.601539 ], [ -107.459694, 46.602445 ], [ -107.472097, 46.606348 ], [ -107.491583, 46.613416 ], [ -107.492797, 46.613741 ], [ -107.505007, 46.615125 ], [ -107.509559, 46.615286 ], [ -107.526078, 46.614523 ], [ -107.532476, 46.614551 ], [ -107.540951, 46.615551 ], [ -107.546952, 46.616998 ], [ -107.550816, 46.618262 ], [ -107.578542, 46.627661 ], [ -107.579992, 46.628241 ], [ -107.588797, 46.63398 ], [ -107.590971, 46.6351 ], [ -107.594421, 46.636391 ], [ -107.59735, 46.637112 ], [ -107.602102, 46.637645 ], [ -107.713868, 46.637008 ], [ -107.713368, 46.496294 ], [ -107.734347, 46.496276 ] ] ] } }
]
}
