{
"type": "FeatureCollection",
"name": "59273",
"crs": { "type": "name", "properties": { "name": "urn:ogc:def:crs:OGC:1.3:CRS84" } },
"features": [
{ "type": "Feature", "properties": { "Name": "", "Description": "" }, "geometry": { "type": "Polygon", "coordinates": [ [ [ -107.057498, 48.284277 ], [ -107.056055, 48.28259 ], [ -107.056702, 48.281015 ], [ -107.055944, 48.279281 ], [ -107.057148, 48.276213 ], [ -107.0573, 48.273286 ], [ -107.05436, 48.272387 ], [ -107.050166, 48.26694 ], [ -107.045492, 48.262221 ], [ -107.044404, 48.259729 ], [ -107.041877, 48.258908 ], [ -107.038768, 48.25885 ], [ -107.034365, 48.255443 ], [ -107.03092, 48.252366 ], [ -107.026414, 48.250396 ], [ -107.021469, 48.246027 ], [ -107.014389, 48.244975 ], [ -107.00734, 48.248239 ], [ -107.002688, 48.247026 ], [ -107.000623, 48.247583 ], [ -106.997538, 48.247024 ], [ -106.99552, 48.247231 ], [ -106.993843, 48.246295 ], [ -106.963297, 48.246217 ], [ -106.955977, 48.246584 ], [ -106.952867, 48.250469 ], [ -106.955023, 48.251313 ], [ -106.9537, 48.252088 ], [ -106.949509, 48.251233 ], [ -106.946777, 48.249076 ], [ -106.940276, 48.246175 ], [ -106.935556, 48.24597 ], [ -106.933709, 48.245376 ], [ -106.927449, 48.24236 ], [ -106.922559, 48.241217 ], [ -106.919686, 48.240143 ], [ -106.913991, 48.238761 ], [ -106.913931, 48.260842 ], [ -106.845883, 48.260885 ], [ -106.845676, 48.323516 ], [ -106.845593, 48.341326 ], [ -106.849348, 48.344404 ], [ -106.849019, 48.347236 ], [ -106.851243, 48.347893 ], [ -106.853867, 48.346268 ], [ -106.858735, 48.344069 ], [ -106.862509, 48.343317 ], [ -106.866261, 48.343629 ], [ -106.867028, 48.344301 ], [ -106.865601, 48.347131 ], [ -106.866884, 48.348559 ], [ -106.86909, 48.349129 ], [ -106.871551, 48.348782 ], [ -106.876071, 48.346156 ], [ -106.881138, 48.346094 ], [ -106.882752, 48.346634 ], [ -106.882736, 48.348279 ], [ -106.881069, 48.349091 ], [ -106.876851, 48.348442 ], [ -106.875173, 48.349614 ], [ -106.875896, 48.350903 ], [ -106.878409, 48.352341 ], [ -106.879834, 48.354171 ], [ -106.883055, 48.355609 ], [ -106.883911, 48.354708 ], [ -106.882656, 48.35216 ], [ -106.88503, 48.347106 ], [ -106.887742, 48.346212 ], [ -106.890053, 48.347382 ], [ -106.891385, 48.349947 ], [ -106.891152, 48.352016 ], [ -106.890301, 48.353343 ], [ -106.888133, 48.354903 ], [ -106.887552, 48.356078 ], [ -106.888446, 48.358289 ], [ -106.887193, 48.359901 ], [ -106.883918, 48.361416 ], [ -106.883947, 48.362965 ], [ -106.885532, 48.363665 ], [ -106.887227, 48.363152 ], [ -106.89058, 48.362181 ], [ -106.893712, 48.362637 ], [ -106.896853, 48.361777 ], [ -106.900977, 48.358282 ], [ -106.902933, 48.35744 ], [ -106.904514, 48.358191 ], [ -106.90566, 48.360838 ], [ -106.906705, 48.362004 ], [ -106.910884, 48.363054 ], [ -106.91461, 48.362367 ], [ -106.916873, 48.359839 ], [ -106.918692, 48.359751 ], [ -106.924896, 48.361728 ], [ -106.927325, 48.363489 ], [ -106.925307, 48.364962 ], [ -106.922135, 48.365106 ], [ -106.921799, 48.367059 ], [ -106.924211, 48.370325 ], [ -106.923047, 48.374047 ], [ -106.923449, 48.374984 ], [ -106.926805, 48.376072 ], [ -106.928275, 48.374952 ], [ -106.928661, 48.373401 ], [ -106.931848, 48.372166 ], [ -106.934671, 48.372184 ], [ -106.935813, 48.373894 ], [ -106.933995, 48.375341 ], [ -106.934555, 48.376922 ], [ -106.93948, 48.377312 ], [ -106.941956, 48.378542 ], [ -106.945311, 48.378928 ], [ -106.947825, 48.377467 ], [ -106.948078, 48.374993 ], [ -106.951305, 48.374944 ], [ -106.951834, 48.375942 ], [ -106.951029, 48.378643 ], [ -106.952174, 48.380596 ], [ -106.953429, 48.380818 ], [ -106.954684, 48.379593 ], [ -106.954112, 48.376972 ], [ -106.954575, 48.376098 ], [ -106.957652, 48.376016 ], [ -106.958838, 48.379407 ], [ -106.960456, 48.37998 ], [ -106.964726, 48.380597 ], [ -106.965043, 48.376729 ], [ -106.966294, 48.37595 ], [ -106.974915, 48.37277 ], [ -106.976569, 48.37161 ], [ -106.968927, 48.373217 ], [ -106.960425, 48.373484 ], [ -106.955593, 48.372818 ], [ -106.94882, 48.371396 ], [ -106.945519, 48.370363 ], [ -106.939564, 48.369009 ], [ -106.93691, 48.367979 ], [ -106.930791, 48.364013 ], [ -106.914334, 48.355736 ], [ -106.913101, 48.35532 ], [ -106.916787, 48.353645 ], [ -106.917474, 48.352256 ], [ -106.920775, 48.351608 ], [ -106.922164, 48.350234 ], [ -106.927075, 48.350283 ], [ -106.92916, 48.351219 ], [ -106.930986, 48.350026 ], [ -106.930095, 48.348488 ], [ -106.932291, 48.34634 ], [ -106.932908, 48.343895 ], [ -106.932051, 48.342515 ], [ -106.933011, 48.341703 ], [ -106.933012, 48.337807 ], [ -106.934451, 48.331264 ], [ -106.935239, 48.33019 ], [ -106.943749, 48.328251 ], [ -106.947758, 48.327685 ], [ -106.948821, 48.326388 ], [ -106.953648, 48.325294 ], [ -106.957494, 48.325199 ], [ -106.96311, 48.321273 ], [ -106.964708, 48.318805 ], [ -106.966579, 48.314239 ], [ -106.965208, 48.311155 ], [ -106.970686, 48.308297 ], [ -106.976165, 48.307335 ], [ -106.979452, 48.307083 ], [ -106.984177, 48.305824 ], [ -106.98989, 48.300293 ], [ -106.99163, 48.294215 ], [ -106.995532, 48.292454 ], [ -106.995665, 48.289644 ], [ -106.999623, 48.291238 ], [ -107.004169, 48.293981 ], [ -107.00815, 48.297864 ], [ -107.014956, 48.303917 ], [ -107.020669, 48.304403 ], [ -107.025182, 48.305654 ], [ -107.027416, 48.305618 ], [ -107.043951, 48.307217 ], [ -107.050322, 48.307393 ], [ -107.046151, 48.303894 ], [ -107.048097, 48.300768 ], [ -107.050621, 48.299335 ], [ -107.051607, 48.295936 ], [ -107.053208, 48.292742 ], [ -107.052895, 48.29094 ], [ -107.055047, 48.289365 ], [ -107.055384, 48.287586 ], [ -107.057498, 48.284277 ] ] ] } }
]
}
