{
"type": "FeatureCollection",
"name": "59316",
"crs": { "type": "name", "properties": { "name": "urn:ogc:def:crs:OGC:1.3:CRS84" } },
"features": [
{ "type": "Feature", "properties": { "Name": "", "Description": "" }, "geometry": { "type": "Polygon", "coordinates": [ [ [ -105.189531, 45.292178 ], [ -105.190665, 45.290601 ], [ -105.18532, 45.286691 ], [ -105.182025, 45.28466 ], [ -105.179833, 45.284197 ], [ -105.176738, 45.281889 ], [ -105.175282, 45.278071 ], [ -105.174344, 45.273429 ], [ -105.172822, 45.271874 ], [ -105.171302, 45.265975 ], [ -105.168358, 45.259869 ], [ -105.16797, 45.257514 ], [ -105.164508, 45.254244 ], [ -105.164056, 45.251523 ], [ -105.162018, 45.249986 ], [ -105.158329, 45.245483 ], [ -105.157425, 45.242373 ], [ -105.155516, 45.241915 ], [ -105.150821, 45.245344 ], [ -105.147744, 45.248041 ], [ -105.14577, 45.248109 ], [ -105.138582, 45.249539 ], [ -105.133371, 45.249407 ], [ -105.130655, 45.246799 ], [ -105.129262, 45.248307 ], [ -105.126156, 45.246911 ], [ -105.124242, 45.246819 ], [ -105.121133, 45.244832 ], [ -105.118706, 45.245245 ], [ -105.114304, 45.245041 ], [ -105.110095, 45.243488 ], [ -105.106796, 45.246439 ], [ -105.105469, 45.246531 ], [ -105.101326, 45.245412 ], [ -105.09974, 45.24571 ], [ -105.095789, 45.24283 ], [ -105.09527, 45.241207 ], [ -105.093813, 45.240704 ], [ -105.093037, 45.24187 ], [ -105.090578, 45.241963 ], [ -105.0876, 45.241049 ], [ -105.085044, 45.241369 ], [ -105.082002, 45.240292 ], [ -105.076082, 45.235141 ], [ -105.074561, 45.234728 ], [ -105.074496, 45.232625 ], [ -105.06935, 45.23194 ], [ -105.066016, 45.230567 ], [ -105.063914, 45.230203 ], [ -105.06045, 45.230833 ], [ -105.056166, 45.230586 ], [ -105.056777, 45.228008 ], [ -105.05882, 45.224957 ], [ -105.058811, 45.221371 ], [ -105.06211, 45.217928 ], [ -105.06371, 45.21293 ], [ -105.063677, 45.206443 ], [ -105.063013, 45.204484 ], [ -105.058521, 45.20221 ], [ -105.055022, 45.198495 ], [ -105.054947, 45.191671 ], [ -105.053667, 45.188474 ], [ -105.053012, 45.183548 ], [ -105.052339, 45.181177 ], [ -105.048921, 45.175651 ], [ -105.047803, 45.168165 ], [ -105.046931, 45.166619 ], [ -105.04423, 45.16501 ], [ -105.045085, 45.161815 ], [ -105.038408, 45.157883 ], [ -105.03832, 45.156306 ], [ -105.038317, 45.178045 ], [ -104.988787, 45.178014 ], [ -104.990367, 45.183066 ], [ -104.991795, 45.184924 ], [ -104.992481, 45.187688 ], [ -104.990901, 45.188177 ], [ -104.988602, 45.187651 ], [ -104.987493, 45.193433 ], [ -104.98807, 45.196908 ], [ -104.990201, 45.199031 ], [ -104.992106, 45.199625 ], [ -104.993203, 45.201064 ], [ -104.997175, 45.20241 ], [ -104.998014, 45.203231 ], [ -104.998526, 45.208397 ], [ -105.003413, 45.213287 ], [ -105.003572, 45.214202 ], [ -105.001504, 45.215258 ], [ -104.997893, 45.219105 ], [ -104.995691, 45.222388 ], [ -104.995796, 45.226816 ], [ -104.994722, 45.230575 ], [ -104.993211, 45.232813 ], [ -104.992524, 45.235022 ], [ -104.99046, 45.238201 ], [ -104.988152, 45.23927 ], [ -104.987901, 45.243213 ], [ -104.984815, 45.247077 ], [ -105.022892, 45.265044 ], [ -104.977593, 45.264978 ], [ -104.977458, 45.352027 ], [ -104.943573, 45.351984 ], [ -104.944671, 45.353617 ], [ -104.948166, 45.356405 ], [ -104.948636, 45.359108 ], [ -104.950361, 45.361348 ], [ -104.953902, 45.36347 ], [ -104.955553, 45.365194 ], [ -104.959893, 45.367387 ], [ -104.96161, 45.370102 ], [ -104.968311, 45.373576 ], [ -104.975204, 45.385986 ], [ -104.976852, 45.390407 ], [ -104.976867, 45.39416 ], [ -104.985245, 45.417928 ], [ -104.98542, 45.428183 ], [ -104.983297, 45.435943 ], [ -104.982215, 45.437685 ], [ -104.97991, 45.439132 ], [ -104.972213, 45.443283 ], [ -104.967314, 45.444421 ], [ -104.965722, 45.445251 ], [ -104.9618, 45.44618 ], [ -104.96032, 45.447569 ], [ -104.960488, 45.449697 ], [ -104.96458, 45.459911 ], [ -104.96484, 45.461166 ], [ -104.963199, 45.467403 ], [ -104.961641, 45.469437 ], [ -104.959282, 45.470819 ], [ -104.95743, 45.470118 ], [ -104.958748, 45.471145 ], [ -104.957002, 45.472891 ], [ -104.956891, 45.476186 ], [ -104.959072, 45.479979 ], [ -104.961522, 45.481744 ], [ -104.958787, 45.487154 ], [ -104.958469, 45.490043 ], [ -104.960324, 45.493339 ], [ -104.962489, 45.498915 ], [ -104.964912, 45.50148 ], [ -104.975847, 45.506204 ], [ -104.979976, 45.510616 ], [ -104.981518, 45.511355 ], [ -104.981488, 45.489611 ], [ -104.985112, 45.485309 ], [ -104.98836, 45.482564 ], [ -104.989846, 45.482212 ], [ -104.996682, 45.483905 ], [ -105.000111, 45.483727 ], [ -105.005629, 45.481177 ], [ -105.014118, 45.477862 ], [ -105.019993, 45.475772 ], [ -105.022296, 45.4743 ], [ -105.028071, 45.471982 ], [ -105.031162, 45.469835 ], [ -105.034493, 45.465881 ], [ -105.035774, 45.464997 ], [ -105.038654, 45.464435 ], [ -105.045931, 45.462374 ], [ -105.053339, 45.457002 ], [ -105.060334, 45.454164 ], [ -105.063616, 45.455775 ], [ -105.068028, 45.45712 ], [ -105.070331, 45.456889 ], [ -105.074581, 45.458028 ], [ -105.076948, 45.46095 ], [ -105.078144, 45.464353 ], [ -105.078618, 45.467349 ], [ -105.076902, 45.472165 ], [ -105.077299, 45.473084 ], [ -105.079192, 45.47134 ], [ -105.083298, 45.470532 ], [ -105.084218, 45.467918 ], [ -105.083865, 45.458634 ], [ -105.084138, 45.455356 ], [ -105.088207, 45.457218 ], [ -105.09333, 45.458304 ], [ -105.095631, 45.457799 ], [ -105.097696, 45.458287 ], [ -105.09592, 45.456492 ], [ -105.095958, 45.455459 ], [ -105.099187, 45.454507 ], [ -105.101803, 45.451653 ], [ -105.102847, 45.451191 ], [ -105.108304, 45.446332 ], [ -105.113513, 45.446156 ], [ -105.110742, 45.443941 ], [ -105.110503, 45.440628 ], [ -105.111277, 45.439484 ], [ -105.115229, 45.43841 ], [ -105.116161, 45.43569 ], [ -105.115413, 45.434295 ], [ -105.116385, 45.433059 ], [ -105.115767, 45.431757 ], [ -105.115649, 45.427348 ], [ -105.116357, 45.426433 ], [ -105.118556, 45.425902 ], [ -105.120667, 45.426908 ], [ -105.124353, 45.427342 ], [ -105.126891, 45.426449 ], [ -105.12941, 45.427657 ], [ -105.132048, 45.424653 ], [ -105.140274, 45.421598 ], [ -105.141836, 45.419971 ], [ -105.145411, 45.418867 ], [ -105.144701, 45.415367 ], [ -105.141684, 45.412463 ], [ -105.141752, 45.408279 ], [ -105.142338, 45.406267 ], [ -105.140261, 45.406312 ], [ -105.137536, 45.405076 ], [ -105.13494, 45.404526 ], [ -105.134096, 45.403863 ], [ -105.134035, 45.400593 ], [ -105.133096, 45.397597 ], [ -105.130794, 45.39595 ], [ -105.128133, 45.395537 ], [ -105.126253, 45.392816 ], [ -105.12261, 45.390599 ], [ -105.120956, 45.391903 ], [ -105.116802, 45.391105 ], [ -105.113979, 45.391266 ], [ -105.111416, 45.392595 ], [ -105.104437, 45.393357 ], [ -105.101118, 45.39183 ], [ -105.09826, 45.385302 ], [ -105.100892, 45.37971 ], [ -105.10107, 45.377374 ], [ -105.100016, 45.374989 ], [ -105.102058, 45.372334 ], [ -105.106694, 45.369589 ], [ -105.112434, 45.367414 ], [ -105.113763, 45.36618 ], [ -105.115155, 45.361585 ], [ -105.115184, 45.358726 ], [ -105.115894, 45.354724 ], [ -105.117868, 45.351041 ], [ -105.118417, 45.348754 ], [ -105.116179, 45.348023 ], [ -105.113516, 45.343292 ], [ -105.111247, 45.344276 ], [ -105.109691, 45.3459 ], [ -105.107426, 45.351228 ], [ -105.105806, 45.352373 ], [ -105.103374, 45.353037 ], [ -105.09812, 45.351848 ], [ -105.097438, 45.349174 ], [ -105.094649, 45.349083 ], [ -105.08907, 45.346364 ], [ -105.086021, 45.343986 ], [ -105.086441, 45.340054 ], [ -105.077786, 45.340512 ], [ -105.074187, 45.340307 ], [ -105.071918, 45.33937 ], [ -105.068514, 45.33985 ], [ -105.062029, 45.338593 ], [ -105.056, 45.336946 ], [ -105.052142, 45.337152 ], [ -105.048511, 45.336671 ], [ -105.047248, 45.333265 ], [ -105.05036, 45.331916 ], [ -105.052888, 45.331756 ], [ -105.056616, 45.330179 ], [ -105.059047, 45.328647 ], [ -105.060344, 45.328647 ], [ -105.066211, 45.326315 ], [ -105.068124, 45.326338 ], [ -105.070587, 45.32524 ], [ -105.075481, 45.325148 ], [ -105.077003, 45.323022 ], [ -105.076776, 45.320575 ], [ -105.075641, 45.316985 ], [ -105.076029, 45.313052 ], [ -105.078556, 45.310514 ], [ -105.078556, 45.308159 ], [ -105.076903, 45.305599 ], [ -105.086103, 45.302373 ], [ -105.087689, 45.300201 ], [ -105.091026, 45.298302 ], [ -105.094176, 45.29805 ], [ -105.154371, 45.319493 ], [ -105.158239, 45.32059 ], [ -105.164148, 45.321405 ], [ -105.167566, 45.32085 ], [ -105.167659, 45.319774 ], [ -105.169839, 45.318221 ], [ -105.170482, 45.316414 ], [ -105.173069, 45.315797 ], [ -105.174819, 45.312825 ], [ -105.176926, 45.311224 ], [ -105.179519, 45.308389 ], [ -105.179746, 45.307269 ], [ -105.183764, 45.302285 ], [ -105.183603, 45.30121 ], [ -105.180882, 45.298671 ], [ -105.181076, 45.297162 ], [ -105.183668, 45.295814 ], [ -105.183927, 45.29419 ], [ -105.185838, 45.292727 ], [ -105.189531, 45.292178 ] ] ] } }
]
}
