{
"type": "FeatureCollection",
"name": "59319",
"crs": { "type": "name", "properties": { "name": "urn:ogc:def:crs:OGC:1.3:CRS84" } },
"features": [
{ "type": "Feature", "properties": { "Name": "", "Description": "" }, "geometry": { "type": "Polygon", "coordinates": [ [ [ -104.458928, 45.436492 ], [ -104.445985, 45.436475 ], [ -104.444469, 45.435153 ], [ -104.43817, 45.431953 ], [ -104.434403, 45.430352 ], [ -104.430929, 45.42946 ], [ -104.426156, 45.426945 ], [ -104.423429, 45.424681 ], [ -104.418398, 45.421365 ], [ -104.415574, 45.419924 ], [ -104.411127, 45.418323 ], [ -104.406648, 45.41775 ], [ -104.405544, 45.418527 ], [ -104.40564, 45.420128 ], [ -104.400704, 45.421475 ], [ -104.396159, 45.421382 ], [ -104.392684, 45.422112 ], [ -104.388952, 45.421242 ], [ -104.385902, 45.419274 ], [ -104.383987, 45.418588 ], [ -104.381455, 45.418655 ], [ -104.375505, 45.417727 ], [ -104.369036, 45.419708 ], [ -104.350014, 45.420088 ], [ -104.343465, 45.420912 ], [ -104.340121, 45.421 ], [ -104.334656, 45.419811 ], [ -104.323749, 45.419926 ], [ -104.308356, 45.41654 ], [ -104.301148, 45.415372 ], [ -104.292901, 45.413265 ], [ -104.284829, 45.408538 ], [ -104.27847, 45.404329 ], [ -104.274609, 45.403093 ], [ -104.261272, 45.400322 ], [ -104.254555, 45.400433 ], [ -104.246543, 45.399702 ], [ -104.241004, 45.397662 ], [ -104.2382, 45.397032 ], [ -104.234058, 45.396774 ], [ -104.233111, 45.39607 ], [ -104.22893, 45.394929 ], [ -104.225241, 45.392866 ], [ -104.216334, 45.387061 ], [ -104.209031, 45.383398 ], [ -104.196539, 45.379771 ], [ -104.19001, 45.37498 ], [ -104.191604, 45.374772 ], [ -104.195332, 45.372821 ], [ -104.199266, 45.371932 ], [ -104.200324, 45.370665 ], [ -104.201034, 45.368064 ], [ -104.202431, 45.366245 ], [ -104.203629, 45.365791 ], [ -104.21508, 45.363784 ], [ -104.219456, 45.364334 ], [ -104.220195, 45.362103 ], [ -104.223642, 45.359513 ], [ -104.234096, 45.357094 ], [ -104.237764, 45.35555 ], [ -104.241238, 45.350447 ], [ -104.246682, 45.347313 ], [ -104.249241, 45.345094 ], [ -104.249143, 45.343951 ], [ -104.241103, 45.344 ], [ -104.240937, 45.340502 ], [ -104.231407, 45.340483 ], [ -104.229332, 45.340667 ], [ -104.2269, 45.340051 ], [ -104.223529, 45.34028 ], [ -104.220994, 45.339889 ], [ -104.219832, 45.338978 ], [ -104.219019, 45.334817 ], [ -104.218046, 45.333446 ], [ -104.217182, 45.330288 ], [ -104.212417, 45.328215 ], [ -104.208406, 45.327079 ], [ -104.206574, 45.325506 ], [ -104.206224, 45.322425 ], [ -104.205401, 45.321011 ], [ -104.199308, 45.315593 ], [ -104.198465, 45.310449 ], [ -104.195702, 45.308344 ], [ -104.193851, 45.307301 ], [ -104.19119, 45.307011 ], [ -104.188397, 45.305711 ], [ -104.183462, 45.305017 ], [ -104.177583, 45.300806 ], [ -104.16804, 45.297771 ], [ -104.162515, 45.298053 ], [ -104.160797, 45.299445 ], [ -104.156758, 45.300213 ], [ -104.152983, 45.300036 ], [ -104.15757, 45.295087 ], [ -104.174693, 45.280431 ], [ -104.181266, 45.275988 ], [ -104.177074, 45.273244 ], [ -104.171142, 45.271285 ], [ -104.1685, 45.271611 ], [ -104.164248, 45.270899 ], [ -104.160506, 45.271102 ], [ -104.157247, 45.271832 ], [ -104.155994, 45.273751 ], [ -104.152897, 45.274777 ], [ -104.144839, 45.270568 ], [ -104.140308, 45.268485 ], [ -104.131665, 45.266698 ], [ -104.12801, 45.262215 ], [ -104.125496, 45.25707 ], [ -104.123363, 45.254442 ], [ -104.125051, 45.25108 ], [ -104.122837, 45.24922 ], [ -104.116653, 45.246296 ], [ -104.113576, 45.243417 ], [ -104.103314, 45.238414 ], [ -104.100464, 45.235534 ], [ -104.104211, 45.23525 ], [ -104.116888, 45.23539 ], [ -104.117787, 45.235067 ], [ -104.120058, 45.233224 ], [ -104.123204, 45.2283 ], [ -104.121877, 45.227478 ], [ -104.117735, 45.226405 ], [ -104.113691, 45.225973 ], [ -104.110843, 45.225082 ], [ -104.106475, 45.224878 ], [ -104.104534, 45.223942 ], [ -104.106796, 45.221632 ], [ -104.105921, 45.219117 ], [ -104.101034, 45.216604 ], [ -104.09673, 45.213153 ], [ -104.095953, 45.211781 ], [ -104.095175, 45.207895 ], [ -104.096692, 45.203482 ], [ -104.094944, 45.200441 ], [ -104.096722, 45.198749 ], [ -104.104711, 45.20117 ], [ -104.107104, 45.200941 ], [ -104.110887, 45.199247 ], [ -104.113988, 45.195542 ], [ -104.108391, 45.192092 ], [ -104.103766, 45.190974 ], [ -104.100693, 45.18926 ], [ -104.099815, 45.185894 ], [ -104.097931, 45.184142 ], [ -104.098898, 45.181797 ], [ -104.098219, 45.179475 ], [ -104.093274, 45.178346 ], [ -104.086454, 45.174392 ], [ -104.081573, 45.172738 ], [ -104.075723, 45.169305 ], [ -104.074852, 45.166504 ], [ -104.072558, 45.162724 ], [ -104.067583, 45.158401 ], [ -104.064803, 45.158189 ], [ -104.057433, 45.158587 ], [ -104.049419, 45.157634 ], [ -104.040030874392997, 45.154818011063099 ], [ -104.040135756493001, 45.212890762041603 ], [ -104.040358, 45.335946 ], [ -104.040265, 45.345356 ], [ -104.040114, 45.374214 ], [ -104.04041, 45.393474 ], [ -104.040643339523001, 45.433264710664602 ], [ -104.040816, 45.462708 ], [ -104.041416448326004, 45.480494064798798 ], [ -104.041764, 45.490789 ], [ -104.041274, 45.499994 ], [ -104.041145, 45.503367 ], [ -104.041717, 45.539122 ], [ -104.041716272732003, 45.539242196580197 ], [ -104.093811, 45.539089 ], [ -104.093427, 45.535816 ], [ -104.09395, 45.528141 ], [ -104.091026, 45.520694 ], [ -104.096428, 45.519974 ], [ -104.098804, 45.51934 ], [ -104.098733, 45.520708 ], [ -104.101036, 45.521015 ], [ -104.102964, 45.522189 ], [ -104.10528, 45.519274 ], [ -104.106889, 45.519921 ], [ -104.109238, 45.519306 ], [ -104.110831, 45.52094 ], [ -104.113228, 45.521301 ], [ -104.113478, 45.522316 ], [ -104.117912, 45.522632 ], [ -104.120612, 45.521835 ], [ -104.119507, 45.524963 ], [ -104.119743, 45.53778 ], [ -104.119436, 45.538959 ], [ -104.124632, 45.539218 ], [ -104.125275, 45.539518 ], [ -104.150393, 45.553447 ], [ -104.166188, 45.553526 ], [ -104.171084, 45.55557 ], [ -104.171539, 45.557319 ], [ -104.171811, 45.566635 ], [ -104.172928, 45.567668 ], [ -104.232857, 45.567837 ], [ -104.238883, 45.567128 ], [ -104.252045, 45.566975 ], [ -104.253495, 45.567163 ], [ -104.258966, 45.566593 ], [ -104.261315, 45.564649 ], [ -104.261218, 45.563597 ], [ -104.268774, 45.558387 ], [ -104.268352, 45.556055 ], [ -104.266175, 45.552808 ], [ -104.263053, 45.550978 ], [ -104.264453, 45.549904 ], [ -104.269986, 45.548854 ], [ -104.272035, 45.546391 ], [ -104.269304, 45.544255 ], [ -104.266666, 45.54331 ], [ -104.262138, 45.544214 ], [ -104.261255, 45.545809 ], [ -104.259333, 45.546558 ], [ -104.2536, 45.54723 ], [ -104.252167, 45.546861 ], [ -104.250037, 45.541222 ], [ -104.252033, 45.539958 ], [ -104.250766, 45.538627 ], [ -104.251901, 45.536793 ], [ -104.247976, 45.537678 ], [ -104.245239, 45.536897 ], [ -104.243706, 45.535568 ], [ -104.240313, 45.531442 ], [ -104.239333, 45.529608 ], [ -104.227934, 45.527511 ], [ -104.227019, 45.525311 ], [ -104.224836, 45.523797 ], [ -104.221581, 45.523604 ], [ -104.223249, 45.519665 ], [ -104.223297, 45.517545 ], [ -104.224157, 45.515449 ], [ -104.223722, 45.512775 ], [ -104.226535, 45.511911 ], [ -104.227573, 45.507416 ], [ -104.229589, 45.502783 ], [ -104.229933, 45.49558 ], [ -104.226934, 45.492239 ], [ -104.228505, 45.489801 ], [ -104.228674, 45.487066 ], [ -104.222147, 45.479846 ], [ -104.251769, 45.479906 ], [ -104.319018, 45.479862 ], [ -104.324082, 45.480954 ], [ -104.329247, 45.483475 ], [ -104.334849, 45.487714 ], [ -104.338006, 45.48961 ], [ -104.339271, 45.489297 ], [ -104.343489, 45.489679 ], [ -104.343837, 45.487397 ], [ -104.345292, 45.486212 ], [ -104.344986, 45.483565 ], [ -104.341724, 45.483069 ], [ -104.338952, 45.482046 ], [ -104.337746, 45.479935 ], [ -104.365429, 45.479983 ], [ -104.364098, 45.484312 ], [ -104.361547, 45.488325 ], [ -104.358058, 45.490231 ], [ -104.3517, 45.49299 ], [ -104.349353, 45.493314 ], [ -104.346484, 45.494579 ], [ -104.344593, 45.494902 ], [ -104.346468, 45.495964 ], [ -104.351373, 45.497298 ], [ -104.353238, 45.499786 ], [ -104.356624, 45.501872 ], [ -104.358935, 45.503814 ], [ -104.360284, 45.505567 ], [ -104.364518, 45.508848 ], [ -104.36736, 45.509707 ], [ -104.369392, 45.511173 ], [ -104.370678, 45.51144 ], [ -104.377394, 45.51175 ], [ -104.381698, 45.511686 ], [ -104.40718, 45.515593 ], [ -104.411762, 45.51567 ], [ -104.458928, 45.436492 ] ] ] } }
]
}
