{
"type": "FeatureCollection",
"name": "59345",
"crs": { "type": "name", "properties": { "name": "urn:ogc:def:crs:OGC:1.3:CRS84" } },
"features": [
{ "type": "Feature", "properties": { "Name": "", "Description": "" }, "geometry": { "type": "Polygon", "coordinates": [ [ [ -105.437953, 45.817143 ], [ -105.442423, 45.788433 ], [ -105.315048, 45.788187 ], [ -105.282472, 45.787717 ], [ -105.282672, 45.747297 ], [ -105.280515, 45.749124 ], [ -105.277314, 45.749642 ], [ -105.276398, 45.75172 ], [ -105.274047, 45.750471 ], [ -105.270424, 45.750417 ], [ -105.268238, 45.749222 ], [ -105.266738, 45.747213 ], [ -105.262004, 45.747491 ], [ -105.261022, 45.750331 ], [ -105.258442, 45.750401 ], [ -105.253838, 45.749684 ], [ -105.251647, 45.751548 ], [ -105.246331, 45.752095 ], [ -105.243818, 45.754495 ], [ -105.23999, 45.756665 ], [ -105.239992, 45.758921 ], [ -105.198038, 45.758874 ], [ -105.198056, 45.744298 ], [ -105.199086, 45.729781 ], [ -105.201549, 45.729772 ], [ -105.200858, 45.726322 ], [ -105.199172, 45.722947 ], [ -105.189409, 45.720268 ], [ -105.183825, 45.721043 ], [ -105.180264, 45.722484 ], [ -105.178145, 45.722447 ], [ -105.178179, 45.703679 ], [ -105.180228, 45.700465 ], [ -105.177228, 45.70049 ], [ -105.177234, 45.697798 ], [ -105.177225, 45.684638 ], [ -105.179809, 45.685062 ], [ -105.183535, 45.686385 ], [ -105.189567, 45.686404 ], [ -105.189427, 45.685351 ], [ -105.193422, 45.685468 ], [ -105.194657, 45.68685 ], [ -105.19799, 45.683011 ], [ -105.200643, 45.681432 ], [ -105.202718, 45.678935 ], [ -105.203014, 45.676948 ], [ -105.20589, 45.673548 ], [ -105.210701, 45.672079 ], [ -105.212527, 45.672993 ], [ -105.218484, 45.672373 ], [ -105.221192, 45.672605 ], [ -105.223215, 45.671877 ], [ -105.228342, 45.671365 ], [ -105.232483, 45.669809 ], [ -105.234177, 45.667888 ], [ -105.235153, 45.66519 ], [ -105.235379, 45.66192 ], [ -105.238573, 45.660959 ], [ -105.238876, 45.658482 ], [ -105.238884, 45.652134 ], [ -105.241071, 45.648063 ], [ -105.2396, 45.64356 ], [ -105.236601, 45.642647 ], [ -105.234222, 45.642945 ], [ -105.231614, 45.64226 ], [ -105.226136, 45.638673 ], [ -105.221445, 45.638469 ], [ -105.219233, 45.637647 ], [ -105.210489, 45.632969 ], [ -105.206557, 45.630161 ], [ -105.205058, 45.631221 ], [ -105.203051, 45.630426 ], [ -105.197925, 45.627291 ], [ -105.197889, 45.612784 ], [ -105.203427, 45.612781 ], [ -105.203468, 45.605563 ], [ -105.193151, 45.605565 ], [ -105.193156, 45.583831 ], [ -105.110572, 45.583839 ], [ -105.110585, 45.544143 ], [ -105.079445, 45.544144 ], [ -105.079413, 45.529656 ], [ -104.981539, 45.529661 ], [ -104.981474, 45.705589 ], [ -104.981975, 45.755208 ], [ -104.98194, 45.786982 ], [ -104.939289, 45.786964 ], [ -104.939258, 45.853824 ], [ -104.944295, 45.857116 ], [ -104.945677, 45.858567 ], [ -104.954394, 45.859024 ], [ -104.959245, 45.858013 ], [ -104.963782, 45.85935 ], [ -104.966991, 45.86227 ], [ -104.970455, 45.861565 ], [ -104.97027, 45.863561 ], [ -104.973191, 45.862133 ], [ -104.976718, 45.863888 ], [ -104.978233, 45.863004 ], [ -104.978484, 45.861512 ], [ -104.980454, 45.861094 ], [ -104.982145, 45.863634 ], [ -104.980049, 45.86572 ], [ -104.976563, 45.866368 ], [ -104.97618, 45.86909 ], [ -104.976832, 45.869968 ], [ -104.9812, 45.871019 ], [ -104.98201, 45.872347 ], [ -104.980848, 45.872951 ], [ -104.982754, 45.877166 ], [ -104.980804, 45.879131 ], [ -104.981005, 45.879994 ], [ -104.983696, 45.879068 ], [ -104.990891, 45.878843 ], [ -104.992582, 45.878542 ], [ -104.993864, 45.874998 ], [ -104.995197, 45.87373 ], [ -104.998095, 45.874702 ], [ -105.001582, 45.874886 ], [ -105.002355, 45.874495 ], [ -105.002884, 45.872507 ], [ -105.001042, 45.86968 ], [ -105.000041, 45.864765 ], [ -105.001815, 45.863681 ], [ -105.007444, 45.862687 ], [ -105.008342, 45.860771 ], [ -105.008941, 45.854169 ], [ -105.011544, 45.853139 ], [ -105.017213, 45.853943 ], [ -105.019194, 45.852832 ], [ -105.021037, 45.850851 ], [ -105.020206, 45.848983 ], [ -105.018109, 45.846907 ], [ -105.013717, 45.845354 ], [ -105.011848, 45.843865 ], [ -105.01106, 45.841825 ], [ -105.01283, 45.836439 ], [ -105.01342, 45.835591 ], [ -105.015452, 45.834216 ], [ -105.020206, 45.833779 ], [ -105.022348, 45.831475 ], [ -105.024356, 45.831024 ], [ -105.030677, 45.83159 ], [ -105.033459, 45.831149 ], [ -105.038592, 45.833649 ], [ -105.04062, 45.833573 ], [ -105.041019, 45.833218 ], [ -105.041306, 45.829547 ], [ -105.042644, 45.827598 ], [ -105.044342, 45.822559 ], [ -105.044072, 45.818881 ], [ -105.044723, 45.817542 ], [ -105.04718, 45.815373 ], [ -105.047962, 45.813136 ], [ -105.051327, 45.81114 ], [ -105.052999, 45.809026 ], [ -105.060015, 45.805577 ], [ -105.063023, 45.80317 ], [ -105.062698, 45.801073 ], [ -105.060686, 45.800531 ], [ -105.056847, 45.800993 ], [ -105.05416, 45.800239 ], [ -105.051498, 45.796754 ], [ -105.050418, 45.796444 ], [ -105.048561, 45.794043 ], [ -105.049999, 45.792028 ], [ -105.054278, 45.790205 ], [ -105.058356, 45.789879 ], [ -105.060068, 45.789137 ], [ -105.062238, 45.787217 ], [ -105.06428, 45.786167 ], [ -105.068059, 45.786338 ], [ -105.07032, 45.78569 ], [ -105.07098, 45.78496 ], [ -105.071158, 45.780762 ], [ -105.073199, 45.775597 ], [ -105.075885, 45.772546 ], [ -105.076573, 45.770009 ], [ -105.079333, 45.766981 ], [ -105.081481, 45.764048 ], [ -105.082818, 45.760419 ], [ -105.086577, 45.75618 ], [ -105.087604, 45.752277 ], [ -105.09005, 45.752555 ], [ -105.11383, 45.758675 ], [ -105.116192, 45.759097 ], [ -105.129901, 45.762839 ], [ -105.130933, 45.763238 ], [ -105.136874, 45.766492 ], [ -105.140492, 45.769033 ], [ -105.145878, 45.770789 ], [ -105.149542, 45.773731 ], [ -105.153614, 45.775579 ], [ -105.163258, 45.781228 ], [ -105.164347, 45.782837 ], [ -105.167469, 45.78547 ], [ -105.163854, 45.786314 ], [ -105.158135, 45.785352 ], [ -105.157677, 45.786426 ], [ -105.155935, 45.787484 ], [ -105.146934, 45.787431 ], [ -105.145653, 45.789482 ], [ -105.14395, 45.790148 ], [ -105.147673, 45.792093 ], [ -105.151005, 45.794837 ], [ -105.146611, 45.796855 ], [ -105.145239, 45.796656 ], [ -105.142197, 45.794593 ], [ -105.14062, 45.794688 ], [ -105.139467, 45.793046 ], [ -105.137005, 45.793208 ], [ -105.135187, 45.794142 ], [ -105.134412, 45.795531 ], [ -105.132376, 45.796793 ], [ -105.12796, 45.797747 ], [ -105.126241, 45.798772 ], [ -105.125181, 45.801387 ], [ -105.12505, 45.802279 ], [ -105.129243, 45.802757 ], [ -105.133308, 45.804917 ], [ -105.138096, 45.809551 ], [ -105.141637, 45.81117 ], [ -105.146589, 45.815007 ], [ -105.145948, 45.819512 ], [ -105.146499, 45.821157 ], [ -105.14527, 45.824156 ], [ -105.145491, 45.825578 ], [ -105.143871, 45.828151 ], [ -105.140417, 45.830795 ], [ -105.143224, 45.831994 ], [ -105.148378, 45.834873 ], [ -105.147326, 45.836412 ], [ -105.149739, 45.838322 ], [ -105.152547, 45.839155 ], [ -105.15565, 45.838845 ], [ -105.157706, 45.837892 ], [ -105.162637, 45.837999 ], [ -105.166696, 45.836565 ], [ -105.167495, 45.840493 ], [ -105.167165, 45.841823 ], [ -105.16337, 45.842897 ], [ -105.161832, 45.843857 ], [ -105.15951, 45.843902 ], [ -105.157023, 45.845456 ], [ -105.153752, 45.845478 ], [ -105.15267, 45.847512 ], [ -105.148515, 45.848128 ], [ -105.142396, 45.851143 ], [ -105.141348, 45.852378 ], [ -105.138436, 45.852788 ], [ -105.135949, 45.853861 ], [ -105.131495, 45.857929 ], [ -105.128943, 45.863015 ], [ -105.127591, 45.864787 ], [ -105.129587, 45.866912 ], [ -105.12906, 45.868567 ], [ -105.126301, 45.869179 ], [ -105.125168, 45.870051 ], [ -105.119226, 45.871545 ], [ -105.118056, 45.872532 ], [ -105.116027, 45.877413 ], [ -105.116697, 45.879365 ], [ -105.115731, 45.881608 ], [ -105.111124, 45.883152 ], [ -105.108748, 45.887241 ], [ -105.107115, 45.888649 ], [ -105.105101, 45.894379 ], [ -105.104546, 45.897776 ], [ -105.099352, 45.903949 ], [ -105.094203, 45.905962 ], [ -105.090142, 45.90697 ], [ -105.087819, 45.908432 ], [ -105.087228, 45.914183 ], [ -105.086547, 45.916704 ], [ -105.086896, 45.919728 ], [ -105.088022, 45.923317 ], [ -105.087565, 45.92622 ], [ -105.087535, 45.93157 ], [ -105.089634, 45.938085 ], [ -105.090914, 45.941125 ], [ -105.090784, 45.944143 ], [ -105.088985, 45.950498 ], [ -105.089706, 45.951253 ], [ -105.085117, 45.94755 ], [ -105.078486, 45.948034 ], [ -105.073787, 45.949842 ], [ -105.067938, 45.951005 ], [ -105.063546, 45.9514 ], [ -105.055516, 45.954724 ], [ -105.046387, 45.956934 ], [ -105.036507, 45.961073 ], [ -105.032997, 45.962363 ], [ -105.039787, 45.975379 ], [ -105.041707, 45.978187 ], [ -105.061965, 46.004601 ], [ -105.06596, 46.011745 ], [ -105.069871, 46.019691 ], [ -105.070961, 46.026582 ], [ -105.072063, 46.030314 ], [ -105.074996, 46.036044 ], [ -105.076021, 46.038902 ], [ -105.079074, 46.042007 ], [ -105.083546, 46.045532 ], [ -105.092143, 46.050081 ], [ -105.093594, 46.051144 ], [ -105.101887, 46.059691 ], [ -105.103332, 46.060896 ], [ -105.120725, 46.072355 ], [ -105.124107, 46.075165 ], [ -105.132855, 46.088538 ], [ -105.134316, 46.089712 ], [ -105.142208, 46.089722 ], [ -105.14685, 46.088796 ], [ -105.151924, 46.085238 ], [ -105.15588, 46.083256 ], [ -105.157447, 46.083002 ], [ -105.158265, 46.081256 ], [ -105.160784, 46.079334 ], [ -105.162738, 46.078728 ], [ -105.165368, 46.075222 ], [ -105.167701, 46.072928 ], [ -105.168761, 46.071247 ], [ -105.172661, 46.067354 ], [ -105.176148, 46.06254 ], [ -105.17597, 46.06103 ], [ -105.177361, 46.057755 ], [ -105.178762, 46.056357 ], [ -105.178706, 46.054583 ], [ -105.180502, 46.052435 ], [ -105.181124, 46.052961 ], [ -105.187381, 46.052759 ], [ -105.190525, 46.05173 ], [ -105.191703, 46.052577 ], [ -105.191993, 46.054178 ], [ -105.194482, 46.054065 ], [ -105.196182, 46.052488 ], [ -105.195907, 46.04906 ], [ -105.200131, 46.047689 ], [ -105.201572, 46.047667 ], [ -105.203668, 46.048719 ], [ -105.205141, 46.048262 ], [ -105.206982, 46.046668 ], [ -105.206983, 46.045756 ], [ -105.269426, 46.045767 ], [ -105.269429, 46.060261 ], [ -105.290232, 46.060269 ], [ -105.290271, 46.074758 ], [ -105.314252, 46.074762 ], [ -105.314607, 46.136452 ], [ -105.321831, 46.136478 ], [ -105.321624, 46.139639 ], [ -105.320108, 46.140385 ], [ -105.319272, 46.139332 ], [ -105.315728, 46.137417 ], [ -105.31385, 46.138064 ], [ -105.313976, 46.139875 ], [ -105.315704, 46.142421 ], [ -105.312792, 46.144445 ], [ -105.310637, 46.144555 ], [ -105.309003, 46.145575 ], [ -105.311931, 46.147573 ], [ -105.310929, 46.148972 ], [ -105.310289, 46.151742 ], [ -105.30579, 46.152834 ], [ -105.306784, 46.155484 ], [ -105.307937, 46.156153 ], [ -105.307108, 46.157278 ], [ -105.305213, 46.157722 ], [ -105.301534, 46.157398 ], [ -105.299229, 46.154315 ], [ -105.296331, 46.155389 ], [ -105.295375, 46.158259 ], [ -105.298155, 46.15725 ], [ -105.300468, 46.157398 ], [ -105.301462, 46.158331 ], [ -105.301107, 46.159631 ], [ -105.301793, 46.16232 ], [ -105.299456, 46.161913 ], [ -105.297798, 46.162835 ], [ -105.298611, 46.16363 ], [ -105.303877, 46.164975 ], [ -105.303664, 46.166484 ], [ -105.300308, 46.166495 ], [ -105.300386, 46.167603 ], [ -105.302747, 46.169408 ], [ -105.302415, 46.170944 ], [ -105.298901, 46.170867 ], [ -105.30082, 46.172936 ], [ -105.300211, 46.174022 ], [ -105.296358, 46.173094 ], [ -105.293087, 46.174551 ], [ -105.295605, 46.175098 ], [ -105.300084, 46.176981 ], [ -105.302667, 46.178515 ], [ -105.304487, 46.178859 ], [ -105.30632, 46.175987 ], [ -105.31289, 46.169625 ], [ -105.315719, 46.165031 ], [ -105.31586, 46.158226 ], [ -105.317099, 46.156324 ], [ -105.320176, 46.154412 ], [ -105.321101, 46.153101 ], [ -105.322376, 46.144732 ], [ -105.32308, 46.142866 ], [ -105.324845, 46.140709 ], [ -105.329992, 46.137526 ], [ -105.330848, 46.136485 ], [ -105.404639, 46.136527 ], [ -105.40464, 46.139422 ], [ -105.438868, 46.139293 ], [ -105.439123, 45.961071 ], [ -105.437953, 45.817143 ] ] ] } }
]
}
