{
"type": "FeatureCollection",
"name": "59435",
"crs": { "type": "name", "properties": { "name": "urn:ogc:def:crs:OGC:1.3:CRS84" } },
"features": [
{ "type": "Feature", "properties": { "Name": "", "Description": "" }, "geometry": { "type": "Polygon", "coordinates": [ [ [ -112.189132, 48.647279 ], [ -112.189123, 48.63891 ], [ -112.189114, 48.578645 ], [ -112.189102, 48.566473 ], [ -112.184587, 48.566466 ], [ -112.184784, 48.477578 ], [ -112.181793, 48.477763 ], [ -112.179361, 48.47726 ], [ -112.177148, 48.47547 ], [ -112.177437, 48.471787 ], [ -112.175743, 48.468356 ], [ -112.174532, 48.467348 ], [ -112.170357, 48.465965 ], [ -112.167216, 48.465393 ], [ -112.164564, 48.465384 ], [ -112.159605, 48.463641 ], [ -112.155861, 48.463646 ], [ -112.153619, 48.464571 ], [ -112.153032, 48.466118 ], [ -112.153878, 48.467948 ], [ -112.153466, 48.46997 ], [ -112.151928, 48.471408 ], [ -112.142331, 48.468019 ], [ -112.139803, 48.467281 ], [ -112.133736, 48.466861 ], [ -112.131425, 48.464812 ], [ -112.13334, 48.461416 ], [ -112.132958, 48.460389 ], [ -112.13099, 48.459832 ], [ -112.127073, 48.461865 ], [ -112.125869, 48.461941 ], [ -112.124218, 48.460541 ], [ -112.122854, 48.455891 ], [ -112.120422, 48.455477 ], [ -112.119039, 48.456796 ], [ -112.11615, 48.456227 ], [ -112.114865, 48.452829 ], [ -112.114832, 48.450736 ], [ -112.113072, 48.448664 ], [ -112.110247, 48.447548 ], [ -112.107956, 48.448574 ], [ -112.10668, 48.450413 ], [ -112.099419, 48.449961 ], [ -112.09816, 48.447863 ], [ -112.096552, 48.446656 ], [ -112.099408, 48.443307 ], [ -112.097614, 48.441139 ], [ -112.094297, 48.440646 ], [ -112.089618, 48.441423 ], [ -112.083223, 48.442896 ], [ -112.081751, 48.442191 ], [ -112.081857, 48.439368 ], [ -112.081274, 48.437874 ], [ -112.076995, 48.435226 ], [ -112.074483, 48.435554 ], [ -112.071873, 48.436675 ], [ -112.070979, 48.438912 ], [ -112.073519, 48.442402 ], [ -112.073026, 48.444071 ], [ -112.067057, 48.445191 ], [ -112.064656, 48.444936 ], [ -112.066415, 48.441894 ], [ -112.06436, 48.439672 ], [ -112.062437, 48.441185 ], [ -112.060708, 48.443524 ], [ -112.061819, 48.446642 ], [ -112.060629, 48.447913 ], [ -112.057042, 48.447134 ], [ -112.054359, 48.447348 ], [ -112.049654, 48.448661 ], [ -112.046478, 48.448709 ], [ -112.044759, 48.450217 ], [ -112.044343, 48.452375 ], [ -112.04242, 48.452937 ], [ -112.041025, 48.452322 ], [ -112.036888, 48.451789 ], [ -112.036026, 48.450255 ], [ -112.039123, 48.447977 ], [ -112.038526, 48.44616 ], [ -112.034267, 48.447352 ], [ -112.028734, 48.450646 ], [ -112.028146, 48.451855 ], [ -112.02583, 48.452352 ], [ -112.019777, 48.451523 ], [ -112.018779, 48.449566 ], [ -112.023712, 48.447952 ], [ -112.025553, 48.446351 ], [ -112.023567, 48.443009 ], [ -112.019181, 48.442367 ], [ -112.016874, 48.443359 ], [ -112.01606, 48.448773 ], [ -112.013822, 48.45066 ], [ -112.01149, 48.449332 ], [ -112.008443, 48.449551 ], [ -112.004436, 48.448886 ], [ -112.003796, 48.44747 ], [ -112.007637, 48.44539 ], [ -112.008931, 48.443288 ], [ -112.008126, 48.441862 ], [ -112.000861, 48.4422 ], [ -111.996073, 48.439915 ], [ -111.993126, 48.4394 ], [ -111.990944, 48.438355 ], [ -111.988616, 48.4379 ], [ -111.983646, 48.438126 ], [ -111.980505, 48.436894 ], [ -111.979311, 48.438134 ], [ -111.981802, 48.440112 ], [ -111.981794, 48.440727 ], [ -111.978646, 48.44109 ], [ -111.976914, 48.439346 ], [ -111.976401, 48.436999 ], [ -111.98079, 48.433302 ], [ -111.981267, 48.431623 ], [ -111.981058, 48.428739 ], [ -111.982549, 48.427938 ], [ -111.985682, 48.429203 ], [ -111.987239, 48.42873 ], [ -111.986915, 48.426021 ], [ -111.985793, 48.425084 ], [ -111.982628, 48.424038 ], [ -111.982732, 48.420106 ], [ -111.980472, 48.418007 ], [ -111.97669, 48.417081 ], [ -111.972975, 48.417329 ], [ -111.971806, 48.418328 ], [ -111.973242, 48.421678 ], [ -111.97157, 48.423198 ], [ -111.969716, 48.423006 ], [ -111.969328, 48.422184 ], [ -111.970167, 48.419924 ], [ -111.970002, 48.41829 ], [ -111.967726, 48.416174 ], [ -111.966095, 48.415598 ], [ -111.963335, 48.415577 ], [ -111.96084, 48.41679 ], [ -111.959349, 48.418358 ], [ -111.957364, 48.418781 ], [ -111.95546, 48.418068 ], [ -111.952091, 48.418502 ], [ -111.95205, 48.420767 ], [ -111.953979, 48.42148 ], [ -111.959326, 48.421155 ], [ -111.959754, 48.421775 ], [ -111.958676, 48.423206 ], [ -111.954639, 48.424507 ], [ -111.950742, 48.424787 ], [ -111.945164, 48.426998 ], [ -111.942906, 48.42719 ], [ -111.937748, 48.425347 ], [ -111.935276, 48.425797 ], [ -111.934097, 48.426795 ], [ -111.935375, 48.428435 ], [ -111.940517, 48.429224 ], [ -111.941118, 48.429839 ], [ -111.936701, 48.431681 ], [ -111.931856, 48.431155 ], [ -111.930207, 48.431955 ], [ -111.929318, 48.431226 ], [ -111.926227, 48.430672 ], [ -111.920434, 48.431516 ], [ -111.917448, 48.431097 ], [ -111.917858, 48.432793 ], [ -111.915523, 48.432798 ], [ -111.91553, 48.436422 ], [ -111.912515, 48.436431 ], [ -111.910271, 48.439057 ], [ -111.906206, 48.442279 ], [ -111.899426, 48.443684 ], [ -111.899385, 48.450977 ], [ -111.884008, 48.450996 ], [ -111.8839, 48.466142 ], [ -111.88406, 48.468907 ], [ -111.885153, 48.4735 ], [ -111.887285, 48.478848 ], [ -111.887585, 48.481717 ], [ -111.886738, 48.485605 ], [ -111.88423, 48.492088 ], [ -111.88377, 48.49485 ], [ -111.883621, 48.499768 ], [ -111.884085, 48.499775 ], [ -111.884258, 48.494342 ], [ -111.922305, 48.494328 ], [ -111.927218, 48.495231 ], [ -112.040342, 48.495822 ], [ -112.043606, 48.496667 ], [ -112.047081, 48.495845 ], [ -112.093155, 48.496024 ], [ -112.096273, 48.495828 ], [ -112.096191, 48.49819 ], [ -112.096761, 48.499308 ], [ -112.098681, 48.499608 ], [ -112.099022, 48.510064 ], [ -112.120817, 48.510627 ], [ -112.121009, 48.555698 ], [ -112.096342, 48.555719 ], [ -112.094455, 48.555619 ], [ -112.091542, 48.555244 ], [ -112.077553, 48.552872 ], [ -112.077482, 48.553496 ], [ -112.043914, 48.547841 ], [ -112.040937, 48.547495 ], [ -112.036278, 48.547603 ], [ -112.02295, 48.548478 ], [ -112.017541, 48.548059 ], [ -111.993785, 48.544452 ], [ -111.975414, 48.535123 ], [ -111.971685, 48.536572 ], [ -111.964913, 48.533699 ], [ -111.954988, 48.529787 ], [ -111.951444, 48.52977 ], [ -111.945463, 48.531015 ], [ -111.944122, 48.530995 ], [ -111.941057, 48.530611 ], [ -111.913898, 48.525781 ], [ -111.911115, 48.526796 ], [ -111.910397, 48.528145 ], [ -111.908756, 48.542589 ], [ -111.909453, 48.544941 ], [ -111.911558, 48.547018 ], [ -111.919216, 48.552535 ], [ -111.926249, 48.555928 ], [ -111.931349, 48.55752 ], [ -111.933112, 48.559892 ], [ -111.933192, 48.562749 ], [ -111.931725, 48.56636 ], [ -111.932004, 48.567571 ], [ -111.934184, 48.570879 ], [ -111.936861, 48.577957 ], [ -111.938416, 48.579257 ], [ -111.941003, 48.580441 ], [ -111.952143, 48.584899 ], [ -111.953628, 48.585924 ], [ -111.985545, 48.614007 ], [ -111.989154, 48.618188 ], [ -111.990108, 48.619713 ], [ -111.99548, 48.630642 ], [ -112.000982, 48.643711 ], [ -112.002353, 48.648147 ], [ -112.00446, 48.653297 ], [ -112.058401, 48.65333 ], [ -112.058374, 48.740131 ], [ -112.123979, 48.74022 ], [ -112.123864, 48.653347 ], [ -112.144237, 48.653363 ], [ -112.145848, 48.653116 ], [ -112.156657, 48.649701 ], [ -112.177431, 48.649725 ], [ -112.179189, 48.649573 ], [ -112.186864, 48.647583 ], [ -112.189132, 48.647279 ] ] ] } }
]
}
