{
"type": "FeatureCollection",
"name": "59625",
"crs": { "type": "name", "properties": { "name": "urn:ogc:def:crs:OGC:1.3:CRS84" } },
"features": [
{ "type": "Feature", "properties": { "Name": "", "Description": "" }, "geometry": { "type": "Polygon", "coordinates": [ [ [ -112.041153, 46.601327 ], [ -112.0411, 46.598264 ], [ -112.040334, 46.598338 ], [ -112.039797, 46.598878 ], [ -112.03603, 46.599163 ], [ -112.036115, 46.602333 ], [ -112.041029, 46.605131 ], [ -112.041153, 46.601327 ] ] ] } }
]
}
