{
"type": "FeatureCollection",
"name": "59812",
"crs": { "type": "name", "properties": { "name": "urn:ogc:def:crs:OGC:1.3:CRS84" } },
"features": [
{ "type": "Feature", "properties": { "Name": "", "Description": "" }, "geometry": { "type": "Polygon", "coordinates": [ [ [ -113.989229, 46.860071 ], [ -113.989233, 46.857091 ], [ -113.983349, 46.857125 ], [ -113.98304, 46.8572 ], [ -113.982251, 46.857837 ], [ -113.980987, 46.860637 ], [ -113.980221, 46.862148 ], [ -113.975886, 46.863039 ], [ -113.9767, 46.863355 ], [ -113.978969, 46.864202 ], [ -113.980148, 46.864669 ], [ -113.980474, 46.864445 ], [ -113.984254, 46.865029 ], [ -113.986857, 46.864993 ], [ -113.986875, 46.863516 ], [ -113.989231, 46.863055 ], [ -113.989229, 46.860071 ] ] ] } }
]
}
