{
"type": "FeatureCollection",
"name": "60183",
"crs": { "type": "name", "properties": { "name": "urn:ogc:def:crs:OGC:1.3:CRS84" } },
"features": [
{ "type": "Feature", "properties": { "Name": "", "Description": "" }, "geometry": { "type": "Polygon", "coordinates": [ [ [ -88.421851, 41.944408 ], [ -88.422386, 41.943418 ], [ -88.421784, 41.938087 ], [ -88.416255, 41.938512 ], [ -88.415479, 41.936679 ], [ -88.404662, 41.938011 ], [ -88.404596, 41.934288 ], [ -88.403214, 41.933648 ], [ -88.401379, 41.934668 ], [ -88.40276, 41.938246 ], [ -88.400394, 41.938127 ], [ -88.397849, 41.93749 ], [ -88.397202, 41.939187 ], [ -88.397724, 41.941579 ], [ -88.398959, 41.943438 ], [ -88.399728, 41.944253 ], [ -88.401382, 41.945382 ], [ -88.408975, 41.941784 ], [ -88.405093, 41.94015 ], [ -88.404691, 41.939576 ], [ -88.421851, 41.944408 ] ] ] } }
]
}
