{
"type": "FeatureCollection",
"name": "60208",
"crs": { "type": "name", "properties": { "name": "urn:ogc:def:crs:OGC:1.3:CRS84" } },
"features": [
{ "type": "Feature", "properties": { "Name": "", "Description": "" }, "geometry": { "type": "Polygon", "coordinates": [ [ [ -87.678563, 42.055032 ], [ -87.678234, 42.054579 ], [ -87.678031, 42.053849 ], [ -87.677207, 42.05384 ], [ -87.677249, 42.052063 ], [ -87.677334, 42.051058 ], [ -87.678086, 42.04945 ], [ -87.676386, 42.048994 ], [ -87.675619, 42.048788 ], [ -87.67598, 42.049833 ], [ -87.675617, 42.050581 ], [ -87.674389, 42.050181 ], [ -87.671642871337198, 42.0508422469997 ], [ -87.671061333811707, 42.051941561792603 ], [ -87.670860095376895, 42.052321974712903 ], [ -87.670512, 42.05298 ], [ -87.670874859544298, 42.055025 ], [ -87.671462, 42.058334 ], [ -87.673473520316094, 42.061545011828898 ], [ -87.674194, 42.061556 ], [ -87.674139, 42.058859 ], [ -87.676733, 42.058562 ], [ -87.674938, 42.055558 ], [ -87.677175, 42.055631 ], [ -87.677185, 42.055015 ], [ -87.678563, 42.055032 ] ] ] } }
]
}
