{
"type": "FeatureCollection",
"name": "60939",
"crs": { "type": "name", "properties": { "name": "urn:ogc:def:crs:OGC:1.3:CRS84" } },
"features": [
{ "type": "Feature", "properties": { "Name": "", "Description": "" }, "geometry": { "type": "Polygon", "coordinates": [ [ [ -87.787014, 40.567345 ], [ -87.790316, 40.559928 ], [ -87.784275, 40.560043 ], [ -87.768474, 40.560207 ], [ -87.765508, 40.55985 ], [ -87.765585, 40.562418 ], [ -87.767522, 40.567235 ], [ -87.766531, 40.570873 ], [ -87.76749, 40.572773 ], [ -87.770549, 40.574627 ], [ -87.77646, 40.574652 ], [ -87.77673, 40.574813 ], [ -87.778891, 40.574653 ], [ -87.779581, 40.574928 ], [ -87.781771, 40.576484 ], [ -87.782832, 40.576591 ], [ -87.783827, 40.574384 ], [ -87.784778, 40.574375 ], [ -87.784724, 40.572387 ], [ -87.787014, 40.567345 ] ] ] } }
]
}
