{
"type": "FeatureCollection",
"name": "60956",
"crs": { "type": "name", "properties": { "name": "urn:ogc:def:crs:OGC:1.3:CRS84" } },
"features": [
{ "type": "Feature", "properties": { "Name": "", "Description": "" }, "geometry": { "type": "Polygon", "coordinates": [ [ [ -87.720014, 40.973175 ], [ -87.720265, 40.97013 ], [ -87.719916, 40.966446 ], [ -87.717772, 40.966282 ], [ -87.718239, 40.962851 ], [ -87.712667, 40.963167 ], [ -87.712177, 40.963856 ], [ -87.712691, 40.964942 ], [ -87.712757, 40.971088 ], [ -87.717554, 40.970957 ], [ -87.717587, 40.973203 ], [ -87.720014, 40.973175 ] ] ] } }
]
}
