{
"type": "FeatureCollection",
"name": "60967",
"crs": { "type": "name", "properties": { "name": "urn:ogc:def:crs:OGC:1.3:CRS84" } },
"features": [
{ "type": "Feature", "properties": { "Name": "", "Description": "" }, "geometry": { "type": "Polygon", "coordinates": [ [ [ -87.595553, 40.609727 ], [ -87.597771, 40.606024 ], [ -87.585651, 40.60616 ], [ -87.585967, 40.613743 ], [ -87.577075, 40.614053 ], [ -87.575391, 40.617466 ], [ -87.562179, 40.617874 ], [ -87.562751, 40.63272 ], [ -87.56604, 40.63232 ], [ -87.571119, 40.635027 ], [ -87.573761, 40.637999 ], [ -87.575985, 40.638607 ], [ -87.58004, 40.636938 ], [ -87.584721, 40.637714 ], [ -87.586613, 40.63602 ], [ -87.588626, 40.637141 ], [ -87.591859, 40.635226 ], [ -87.594421, 40.635139 ], [ -87.595945, 40.63349 ], [ -87.59563, 40.617193 ], [ -87.590843, 40.614567 ], [ -87.590787, 40.613569 ], [ -87.594233, 40.613452 ], [ -87.596304, 40.614316 ], [ -87.595553, 40.609727 ] ] ] } }
]
}
