{
"type": "FeatureCollection",
"name": "61233",
"crs": { "type": "name", "properties": { "name": "urn:ogc:def:crs:OGC:1.3:CRS84" } },
"features": [
{ "type": "Feature", "properties": { "Name": "", "Description": "" }, "geometry": { "type": "Polygon", "coordinates": [ [ [ -90.300337, 41.291915 ], [ -90.300377, 41.287853 ], [ -90.300309, 41.287771 ], [ -90.294751, 41.287722 ], [ -90.294987, 41.289772 ], [ -90.292212, 41.289724 ], [ -90.29233, 41.288694 ], [ -90.292795, 41.287695 ], [ -90.290538, 41.287687 ], [ -90.281226, 41.287525 ], [ -90.281257, 41.290684 ], [ -90.283725, 41.290706 ], [ -90.283911, 41.291297 ], [ -90.2839, 41.291778 ], [ -90.28388, 41.293837 ], [ -90.282776, 41.29383 ], [ -90.282198, 41.294013 ], [ -90.281245, 41.294853 ], [ -90.281208, 41.29591 ], [ -90.286564, 41.29596 ], [ -90.28649, 41.302137 ], [ -90.290667, 41.302166 ], [ -90.299548, 41.302245 ], [ -90.299866, 41.302286 ], [ -90.300219, 41.295814 ], [ -90.294857, 41.296041 ], [ -90.294891, 41.293926 ], [ -90.292184, 41.293907 ], [ -90.292187, 41.291828 ], [ -90.300337, 41.291915 ] ] ] } }
]
}
