{
"type": "FeatureCollection",
"name": "61371",
"crs": { "type": "name", "properties": { "name": "urn:ogc:def:crs:OGC:1.3:CRS84" } },
"features": [
{ "type": "Feature", "properties": { "Name": "", "Description": "" }, "geometry": { "type": "Polygon", "coordinates": [ [ [ -89.024194, 41.498615 ], [ -89.025247, 41.497614 ], [ -89.021968, 41.49757 ], [ -89.021866, 41.495337 ], [ -89.019814, 41.495761 ], [ -89.01709, 41.495708 ], [ -89.017161, 41.498527 ], [ -89.017257, 41.505234 ], [ -89.022998, 41.499969 ], [ -89.024315, 41.498617 ], [ -89.024194, 41.498615 ] ] ] } }
]
}
