{
"type": "FeatureCollection",
"name": "62026",
"crs": { "type": "name", "properties": { "name": "urn:ogc:def:crs:OGC:1.3:CRS84" } },
"features": [
{ "type": "Feature", "properties": { "Name": "", "Description": "" }, "geometry": { "type": "Polygon", "coordinates": [ [ [ -90.01404, 38.80114 ], [ -90.012622, 38.796689 ], [ -90.010812, 38.787026 ], [ -90.008616, 38.780898 ], [ -90.008569, 38.780348 ], [ -90.007772, 38.779332 ], [ -90.007622, 38.778478 ], [ -90.007349, 38.778527 ], [ -90.006772, 38.778796 ], [ -90.004506, 38.780321 ], [ -89.993973, 38.784556 ], [ -89.992874, 38.785006 ], [ -89.9943, 38.78648 ], [ -89.994451, 38.791274 ], [ -89.995125, 38.793723 ], [ -89.994248, 38.795472 ], [ -89.996284, 38.797 ], [ -89.997947, 38.797403 ], [ -90.00288, 38.796635 ], [ -90.005326, 38.799636 ], [ -90.0083, 38.800909 ], [ -90.010691, 38.802638 ], [ -90.012161, 38.801769 ], [ -90.01404, 38.80114 ] ] ] } }
]
}
