{
"type": "FeatureCollection",
"name": "62256",
"crs": { "type": "name", "properties": { "name": "urn:ogc:def:crs:OGC:1.3:CRS84" } },
"features": [
{ "type": "Feature", "properties": { "Name": "", "Description": "" }, "geometry": { "type": "Polygon", "coordinates": [ [ [ -90.236608, 38.224426 ], [ -90.236641, 38.222143 ], [ -90.23604, 38.221907 ], [ -90.234877, 38.22317 ], [ -90.234211, 38.222162 ], [ -90.231975, 38.222966 ], [ -90.230222, 38.223031 ], [ -90.229863, 38.223778 ], [ -90.23145, 38.225285 ], [ -90.228967, 38.227962 ], [ -90.226451, 38.22825 ], [ -90.226607, 38.23167 ], [ -90.228339, 38.231657 ], [ -90.228457, 38.231141 ], [ -90.229459, 38.230103 ], [ -90.229626, 38.229109 ], [ -90.231317, 38.228192 ], [ -90.23188, 38.227418 ], [ -90.233786, 38.225792 ], [ -90.23401, 38.226052 ], [ -90.234232, 38.225334 ], [ -90.236455, 38.225292 ], [ -90.236608, 38.224426 ] ] ] } }
]
}
