{
"type": "FeatureCollection",
"name": "62464",
"crs": { "type": "name", "properties": { "name": "urn:ogc:def:crs:OGC:1.3:CRS84" } },
"features": [
{ "type": "Feature", "properties": { "Name": "", "Description": "" }, "geometry": { "type": "Polygon", "coordinates": [ [ [ -87.843307, 39.003259 ], [ -87.843262, 38.99858 ], [ -87.835761, 38.997504 ], [ -87.833489, 38.994808 ], [ -87.831036, 38.993633 ], [ -87.827751, 38.992901 ], [ -87.82605, 38.992833 ], [ -87.823951, 38.994362 ], [ -87.823848, 38.990048 ], [ -87.814716, 38.990026 ], [ -87.810064, 38.990092 ], [ -87.810212, 38.997155 ], [ -87.810441, 38.997662 ], [ -87.810513, 39.001099 ], [ -87.810544, 39.004235 ], [ -87.812494, 39.003895 ], [ -87.815211, 39.003788 ], [ -87.824583, 39.003552 ], [ -87.841759, 39.003445 ], [ -87.843307, 39.003259 ] ] ] } }
]
}
