{
"type": "FeatureCollection",
"name": "63365",
"crs": { "type": "name", "properties": { "name": "urn:ogc:def:crs:OGC:1.3:CRS84" } },
"features": [
{ "type": "Feature", "properties": { "Name": "", "Description": "" }, "geometry": { "type": "Polygon", "coordinates": [ [ [ -90.881821, 38.709178 ], [ -90.88109, 38.70826 ], [ -90.87949, 38.70823 ], [ -90.878562, 38.705897 ], [ -90.87716, 38.70358 ], [ -90.874196, 38.705155 ], [ -90.874148, 38.708188 ], [ -90.864916, 38.708072 ], [ -90.86545, 38.712776 ], [ -90.86786, 38.7136 ], [ -90.86948, 38.7135 ], [ -90.871193, 38.713335 ], [ -90.872395, 38.71298 ], [ -90.877146, 38.711249 ], [ -90.87829, 38.7108 ], [ -90.87851, 38.71222 ], [ -90.881072, 38.711798 ], [ -90.881821, 38.709178 ] ] ] } }
]
}
