{
"type": "FeatureCollection",
"name": "63466",
"crs": { "type": "name", "properties": { "name": "urn:ogc:def:crs:OGC:1.3:CRS84" } },
"features": [
{ "type": "Feature", "properties": { "Name": "", "Description": "" }, "geometry": { "type": "Polygon", "coordinates": [ [ [ -91.628395, 40.272927 ], [ -91.62855, 40.267987 ], [ -91.627431, 40.266078 ], [ -91.627149, 40.261922 ], [ -91.625683, 40.258322 ], [ -91.612913, 40.257881 ], [ -91.609573, 40.260012 ], [ -91.608142, 40.263881 ], [ -91.60695, 40.264871 ], [ -91.605918, 40.266849 ], [ -91.604232, 40.267934 ], [ -91.599927, 40.267251 ], [ -91.599727, 40.267676 ], [ -91.603764, 40.269333 ], [ -91.605412, 40.269025 ], [ -91.60785, 40.269579 ], [ -91.609431, 40.270537 ], [ -91.610727, 40.272817 ], [ -91.613017, 40.273962 ], [ -91.61717, 40.274767 ], [ -91.621204, 40.274525 ], [ -91.624111, 40.272749 ], [ -91.628395, 40.272927 ] ] ] } }
]
}
