{
"type": "FeatureCollection",
"name": "63840",
"crs": { "type": "name", "properties": { "name": "urn:ogc:def:crs:OGC:1.3:CRS84" } },
"features": [
{ "type": "Feature", "properties": { "Name": "", "Description": "" }, "geometry": { "type": "Polygon", "coordinates": [ [ [ -89.892249, 36.193931 ], [ -89.892266, 36.190214 ], [ -89.889928, 36.19023 ], [ -89.885276, 36.189231 ], [ -89.884956, 36.187122 ], [ -89.883374, 36.186292 ], [ -89.881326, 36.187992 ], [ -89.878664, 36.187086 ], [ -89.878671, 36.190363 ], [ -89.87744, 36.190353 ], [ -89.877446, 36.193047 ], [ -89.878721, 36.193934 ], [ -89.892249, 36.193931 ] ] ] } }
]
}
