{
"type": "FeatureCollection",
"name": "63950",
"crs": { "type": "name", "properties": { "name": "urn:ogc:def:crs:OGC:1.3:CRS84" } },
"features": [
{ "type": "Feature", "properties": { "Name": "", "Description": "" }, "geometry": { "type": "Polygon", "coordinates": [ [ [ -90.480234, 37.279664 ], [ -90.480251, 37.277711 ], [ -90.479378, 37.27724 ], [ -90.472045, 37.276473 ], [ -90.471537, 37.276231 ], [ -90.465254, 37.271571 ], [ -90.463323, 37.270956 ], [ -90.458308, 37.272041 ], [ -90.458299, 37.271756 ], [ -90.454131, 37.27262 ], [ -90.45183, 37.270633 ], [ -90.452178, 37.268658 ], [ -90.453262, 37.266609 ], [ -90.455631, 37.264902 ], [ -90.458441, 37.264513 ], [ -90.459026, 37.26424 ], [ -90.460319, 37.263906 ], [ -90.461754, 37.262862 ], [ -90.462378, 37.261049 ], [ -90.462123, 37.257974 ], [ -90.462764, 37.256354 ], [ -90.462788, 37.254771 ], [ -90.461843, 37.252825 ], [ -90.461038, 37.251636 ], [ -90.460093, 37.248935 ], [ -90.459716, 37.248141 ], [ -90.458355, 37.24815 ], [ -90.458516, 37.232731 ], [ -90.468275, 37.232664 ], [ -90.468952, 37.230686 ], [ -90.467386, 37.229799 ], [ -90.465599, 37.226467 ], [ -90.46628, 37.226434 ], [ -90.460009, 37.224946 ], [ -90.456515, 37.22312 ], [ -90.45493, 37.226191 ], [ -90.454651, 37.226184 ], [ -90.453311, 37.229031 ], [ -90.453075, 37.231584 ], [ -90.455313, 37.248439 ], [ -90.455192, 37.250592 ], [ -90.45421, 37.252789 ], [ -90.451416, 37.256827 ], [ -90.449172, 37.257015 ], [ -90.445174, 37.256718 ], [ -90.440708, 37.255241 ], [ -90.438441, 37.255269 ], [ -90.436215, 37.254538 ], [ -90.43333, 37.253015 ], [ -90.430285, 37.250155 ], [ -90.427559, 37.248078 ], [ -90.425806, 37.247802 ], [ -90.419114, 37.247915 ], [ -90.415593, 37.248305 ], [ -90.41441, 37.248877 ], [ -90.414724, 37.250924 ], [ -90.412896, 37.252583 ], [ -90.408677, 37.254532 ], [ -90.407767, 37.256449 ], [ -90.405321, 37.256733 ], [ -90.403294, 37.256194 ], [ -90.400479, 37.254333 ], [ -90.399798, 37.252799 ], [ -90.394748, 37.250897 ], [ -90.39281, 37.248973 ], [ -90.391048, 37.248357 ], [ -90.388699, 37.247752 ], [ -90.387074, 37.248463 ], [ -90.385823, 37.247913 ], [ -90.385217, 37.272681 ], [ -90.38924, 37.271192 ], [ -90.391156, 37.27244 ], [ -90.393842, 37.272545 ], [ -90.396039, 37.270979 ], [ -90.398355, 37.271153 ], [ -90.400537, 37.272099 ], [ -90.401985, 37.271438 ], [ -90.406953, 37.271755 ], [ -90.408042, 37.272669 ], [ -90.408676, 37.27463 ], [ -90.411181, 37.274465 ], [ -90.416551, 37.274982 ], [ -90.420564, 37.276408 ], [ -90.426327, 37.280112 ], [ -90.430373, 37.280362 ], [ -90.431188, 37.281465 ], [ -90.434958, 37.280893 ], [ -90.431504, 37.288356 ], [ -90.427978, 37.295288 ], [ -90.429354, 37.300157 ], [ -90.430839, 37.301826 ], [ -90.434056, 37.301898 ], [ -90.436915, 37.302519 ], [ -90.438359, 37.301333 ], [ -90.441659, 37.301366 ], [ -90.442291, 37.300059 ], [ -90.445336, 37.299702 ], [ -90.447866, 37.298153 ], [ -90.450718, 37.297208 ], [ -90.453358, 37.29774 ], [ -90.456973, 37.297542 ], [ -90.459405, 37.296493 ], [ -90.459832, 37.295175 ], [ -90.462058, 37.292088 ], [ -90.467, 37.290692 ], [ -90.46946, 37.289171 ], [ -90.470579, 37.287517 ], [ -90.473946, 37.284545 ], [ -90.475712, 37.283468 ], [ -90.479786, 37.282111 ], [ -90.480234, 37.279664 ] ] ] } }
]
}
