{
"type": "FeatureCollection",
"name": "64028",
"crs": { "type": "name", "properties": { "name": "urn:ogc:def:crs:OGC:1.3:CRS84" } },
"features": [
{ "type": "Feature", "properties": { "Name": "", "Description": "" }, "geometry": { "type": "Polygon", "coordinates": [ [ [ -94.839745, 39.295412 ], [ -94.839784, 39.288984 ], [ -94.837251, 39.284503 ], [ -94.834923, 39.281271 ], [ -94.834234, 39.280276 ], [ -94.833908, 39.279906 ], [ -94.831242, 39.277548 ], [ -94.827839, 39.2746 ], [ -94.827014, 39.273887 ], [ -94.825815, 39.275225 ], [ -94.82442, 39.275374 ], [ -94.821335, 39.274514 ], [ -94.81807, 39.274668 ], [ -94.816121, 39.275882 ], [ -94.817251, 39.278287 ], [ -94.817027, 39.278281 ], [ -94.818876, 39.279606 ], [ -94.820684, 39.281826 ], [ -94.821762, 39.28493 ], [ -94.82157, 39.287396 ], [ -94.819603, 39.290912 ], [ -94.818208, 39.290825 ], [ -94.815357, 39.288863 ], [ -94.814716, 39.287085 ], [ -94.813552, 39.285973 ], [ -94.812281, 39.285855 ], [ -94.810615, 39.28633 ], [ -94.809864, 39.286836 ], [ -94.810112, 39.288191 ], [ -94.812769, 39.291123 ], [ -94.815517, 39.295543 ], [ -94.816193, 39.296241 ], [ -94.810998, 39.296235 ], [ -94.808904, 39.297398 ], [ -94.807248, 39.299086 ], [ -94.805143, 39.302086 ], [ -94.800934, 39.30523 ], [ -94.799566, 39.306765 ], [ -94.80103, 39.307435 ], [ -94.80469, 39.30579 ], [ -94.808095, 39.306801 ], [ -94.810329, 39.308381 ], [ -94.812064, 39.310471 ], [ -94.813265, 39.311615 ], [ -94.813165, 39.312314 ], [ -94.812355, 39.31279 ], [ -94.807915, 39.314227 ], [ -94.806504, 39.315956 ], [ -94.806737, 39.31772 ], [ -94.811583, 39.318663 ], [ -94.815015, 39.317957 ], [ -94.815974, 39.318011 ], [ -94.817027, 39.318502 ], [ -94.817879, 39.319814 ], [ -94.822428, 39.31957 ], [ -94.825682, 39.318355 ], [ -94.82575, 39.307308 ], [ -94.822116, 39.307069 ], [ -94.820294, 39.305721 ], [ -94.816563, 39.304261 ], [ -94.816357, 39.298944 ], [ -94.816706, 39.295756 ], [ -94.83514, 39.29592 ], [ -94.838581, 39.295761 ], [ -94.838587, 39.295412 ], [ -94.839745, 39.295412 ] ] ] } }
]
}
