{
"type": "FeatureCollection",
"name": "64868",
"crs": { "type": "name", "properties": { "name": "urn:ogc:def:crs:OGC:1.3:CRS84" } },
"features": [
{ "type": "Feature", "properties": { "Name": "", "Description": "" }, "geometry": { "type": "Polygon", "coordinates": [ [ [ -94.618140772192803, 36.705387227807201 ], [ -94.61813, 36.701423 ], [ -94.618025, 36.66943 ], [ -94.618019516158697, 36.667946072546201 ], [ -94.618019424289599, 36.667921212770501 ], [ -94.618017670715801, 36.667446695683097 ], [ -94.617, 36.666389 ], [ -94.613155, 36.668904 ], [ -94.612714, 36.670586 ], [ -94.608382, 36.672596 ], [ -94.604218, 36.675758 ], [ -94.604851, 36.680338 ], [ -94.605922, 36.683156 ], [ -94.609072, 36.685605 ], [ -94.607841, 36.703234 ], [ -94.608326, 36.704198 ], [ -94.61194, 36.707342 ], [ -94.612221, 36.70837 ], [ -94.613131, 36.708406 ], [ -94.61642, 36.707475 ], [ -94.618140772192803, 36.705387227807201 ] ] ] } }
]
}
