{
"type": "FeatureCollection",
"name": "65409",
"crs": { "type": "name", "properties": { "name": "urn:ogc:def:crs:OGC:1.3:CRS84" } },
"features": [
{ "type": "Feature", "properties": { "Name": "", "Description": "" }, "geometry": { "type": "Polygon", "coordinates": [ [ [ -91.787038, 37.95143 ], [ -91.787299, 37.947288 ], [ -91.786029, 37.94696 ], [ -91.785129, 37.945946 ], [ -91.779286, 37.947617 ], [ -91.777363, 37.947564 ], [ -91.777136, 37.95151 ], [ -91.77356, 37.951481 ], [ -91.773559, 37.952326 ], [ -91.772554, 37.952344 ], [ -91.771491, 37.953182 ], [ -91.771127, 37.956586 ], [ -91.773475, 37.956639 ], [ -91.773479, 37.956978 ], [ -91.776842, 37.956411 ], [ -91.777094, 37.955146 ], [ -91.777098, 37.95375 ], [ -91.775099, 37.953709 ], [ -91.775099, 37.952357 ], [ -91.777117, 37.952368 ], [ -91.77765, 37.952368 ], [ -91.777639, 37.951952 ], [ -91.778683, 37.951962 ], [ -91.778673, 37.951489 ], [ -91.783801, 37.951431 ], [ -91.787038, 37.95143 ] ] ] } }
]
}
