{
"type": "FeatureCollection",
"name": "65666",
"crs": { "type": "name", "properties": { "name": "urn:ogc:def:crs:OGC:1.3:CRS84" } },
"features": [
{ "type": "Feature", "properties": { "Name": "", "Description": "" }, "geometry": { "type": "Polygon", "coordinates": [ [ [ -92.371134, 36.583431 ], [ -92.371298, 36.566514 ], [ -92.3675, 36.56562 ], [ -92.36619, 36.56462 ], [ -92.3634, 36.56344 ], [ -92.36192, 36.56184 ], [ -92.358767, 36.562609 ], [ -92.359278, 36.565609 ], [ -92.358418, 36.569288 ], [ -92.356431, 36.5706 ], [ -92.354357, 36.573447 ], [ -92.354172, 36.575865 ], [ -92.352419, 36.578042 ], [ -92.352257, 36.579781 ], [ -92.353013, 36.58116 ], [ -92.352663, 36.583886 ], [ -92.335665, 36.583769 ], [ -92.3411, 36.58558 ], [ -92.3457, 36.58894 ], [ -92.35544, 36.58873 ], [ -92.36036, 36.589 ], [ -92.36372, 36.58725 ], [ -92.36466, 36.58725 ], [ -92.3712, 36.58929 ], [ -92.371134, 36.583431 ] ] ] } }
]
}
