{
"type": "FeatureCollection",
"name": "65675",
"crs": { "type": "name", "properties": { "name": "urn:ogc:def:crs:OGC:1.3:CRS84" } },
"features": [
{ "type": "Feature", "properties": { "Name": "", "Description": "" }, "geometry": { "type": "Polygon", "coordinates": [ [ [ -93.497416, 36.930414 ], [ -93.497252, 36.929882 ], [ -93.493928, 36.928684 ], [ -93.490079, 36.928651 ], [ -93.490083, 36.929903 ], [ -93.486481, 36.930016 ], [ -93.486498, 36.931391 ], [ -93.488757, 36.931391 ], [ -93.488735, 36.933 ], [ -93.495575, 36.933262 ], [ -93.497123, 36.9319 ], [ -93.497416, 36.930414 ] ] ] } }
]
}
