{
"type": "FeatureCollection",
"name": "65688",
"crs": { "type": "name", "properties": { "name": "urn:ogc:def:crs:OGC:1.3:CRS84" } },
"features": [
{ "type": "Feature", "properties": { "Name": "", "Description": "" }, "geometry": { "type": "Polygon", "coordinates": [ [ [ -91.700239, 36.64942 ], [ -91.700693, 36.64714 ], [ -91.689042, 36.646322 ], [ -91.68696, 36.646408 ], [ -91.686288, 36.649742 ], [ -91.694254, 36.653622 ], [ -91.695865, 36.653702 ], [ -91.695869, 36.649844 ], [ -91.697571, 36.649878 ], [ -91.697577, 36.650934 ], [ -91.700101, 36.650928 ], [ -91.700239, 36.64942 ] ] ] } }
]
}
