{
"type": "FeatureCollection",
"name": "65726",
"crs": { "type": "name", "properties": { "name": "urn:ogc:def:crs:OGC:1.3:CRS84" } },
"features": [
{ "type": "Feature", "properties": { "Name": "", "Description": "" }, "geometry": { "type": "Polygon", "coordinates": [ [ [ -93.254996, 36.609151 ], [ -93.25402, 36.608444 ], [ -93.252197, 36.608235 ], [ -93.245633, 36.610619 ], [ -93.24545, 36.610863 ], [ -93.243674, 36.612001 ], [ -93.239112, 36.613515 ], [ -93.237111, 36.613394 ], [ -93.236464, 36.613512 ], [ -93.239031, 36.615838 ], [ -93.239004, 36.620268 ], [ -93.237188, 36.622975 ], [ -93.239895, 36.624173 ], [ -93.243294, 36.624185 ], [ -93.243907, 36.626344 ], [ -93.243575, 36.628064 ], [ -93.241042, 36.632343 ], [ -93.242368, 36.633477 ], [ -93.244534, 36.63123 ], [ -93.245223, 36.625722 ], [ -93.246102, 36.625253 ], [ -93.244437, 36.622467 ], [ -93.242932, 36.617885 ], [ -93.242961, 36.615753 ], [ -93.244267, 36.613507 ], [ -93.247705, 36.610869 ], [ -93.250193, 36.609802 ], [ -93.254996, 36.609151 ] ] ] } }
]
}
