{
"type": "FeatureCollection",
"name": "65741",
"crs": { "type": "name", "properties": { "name": "urn:ogc:def:crs:OGC:1.3:CRS84" } },
"features": [
{ "type": "Feature", "properties": { "Name": "", "Description": "" }, "geometry": { "type": "Polygon", "coordinates": [ [ [ -92.415484, 36.798427 ], [ -92.415771, 36.797974 ], [ -92.414269, 36.796251 ], [ -92.414262, 36.794753 ], [ -92.412723, 36.793517 ], [ -92.411044, 36.790054 ], [ -92.409912, 36.78923 ], [ -92.409005, 36.78874 ], [ -92.406003, 36.789914 ], [ -92.403509, 36.789986 ], [ -92.402029, 36.793111 ], [ -92.400034, 36.793021 ], [ -92.397819, 36.79148 ], [ -92.396035, 36.789263 ], [ -92.394655, 36.789111 ], [ -92.392403, 36.789791 ], [ -92.38924, 36.794694 ], [ -92.386521, 36.797946 ], [ -92.385275, 36.798193 ], [ -92.383217, 36.799589 ], [ -92.403328, 36.799865 ], [ -92.409844, 36.799955 ], [ -92.413963, 36.800035 ], [ -92.415113, 36.800057 ], [ -92.415484, 36.798427 ] ] ] } }
]
}
