{
"type": "FeatureCollection",
"name": "65897",
"crs": { "type": "name", "properties": { "name": "urn:ogc:def:crs:OGC:1.3:CRS84" } },
"features": [
{ "type": "Feature", "properties": { "Name": "", "Description": "" }, "geometry": { "type": "Polygon", "coordinates": [ [ [ -93.28541, 37.19795 ], [ -93.28542, 37.19679 ], [ -93.28317, 37.19677 ], [ -93.2832, 37.19572 ], [ -93.277625, 37.195709 ], [ -93.277691, 37.196721 ], [ -93.2762, 37.1966 ], [ -93.276286, 37.196848 ], [ -93.2761, 37.20033 ], [ -93.27605, 37.20248 ], [ -93.27605, 37.20268 ], [ -93.276059, 37.203245 ], [ -93.27608, 37.20388 ], [ -93.28216, 37.20405 ], [ -93.2822, 37.20277 ], [ -93.28528, 37.20278 ], [ -93.28536, 37.20015 ], [ -93.28541, 37.19795 ] ] ] } }
]
}
