{
"type": "FeatureCollection",
"name": "66160",
"crs": { "type": "name", "properties": { "name": "urn:ogc:def:crs:OGC:1.3:CRS84" } },
"features": [
{ "type": "Feature", "properties": { "Name": "", "Description": "" }, "geometry": { "type": "Polygon", "coordinates": [ [ [ -94.611809, 39.055033 ], [ -94.611815, 39.053713 ], [ -94.611458, 39.054042 ], [ -94.607382659580594, 39.054365598650001 ], [ -94.607369223468197, 39.055390383153501 ], [ -94.607343791930205, 39.057330069669398 ], [ -94.611755, 39.05738 ], [ -94.611809, 39.055033 ] ] ] } }
]
}
