{
"type": "FeatureCollection",
"name": "66251",
"crs": { "type": "name", "properties": { "name": "urn:ogc:def:crs:OGC:1.3:CRS84" } },
"features": [
{ "type": "Feature", "properties": { "Name": "", "Description": "" }, "geometry": { "type": "Polygon", "coordinates": [ [ [ -94.66326, 38.917278 ], [ -94.662558, 38.915183 ], [ -94.66303, 38.912844 ], [ -94.658257, 38.912967 ], [ -94.658278, 38.913614 ], [ -94.655478, 38.914101 ], [ -94.655681, 38.916353 ], [ -94.656586, 38.918579 ], [ -94.65427, 38.922005 ], [ -94.658187, 38.921965 ], [ -94.660168, 38.920571 ], [ -94.661676, 38.917858 ], [ -94.66326, 38.917278 ] ] ] } }
]
}
