{
"type": "FeatureCollection",
"name": "66742",
"crs": { "type": "name", "properties": { "name": "urn:ogc:def:crs:OGC:1.3:CRS84" } },
"features": [
{ "type": "Feature", "properties": { "Name": "", "Description": "" }, "geometry": { "type": "Polygon", "coordinates": [ [ [ -95.35077, 37.920354 ], [ -95.350762, 37.917403 ], [ -95.346145, 37.917397 ], [ -95.34611, 37.922001 ], [ -95.342141, 37.921989 ], [ -95.342121, 37.923153 ], [ -95.346644, 37.923153 ], [ -95.346639, 37.922017 ], [ -95.349618, 37.922048 ], [ -95.35077, 37.920354 ] ] ] } }
]
}
