{
"type": "FeatureCollection",
"name": "66961",
"crs": { "type": "name", "properties": { "name": "urn:ogc:def:crs:OGC:1.3:CRS84" } },
"features": [
{ "type": "Feature", "properties": { "Name": "", "Description": "" }, "geometry": { "type": "Polygon", "coordinates": [ [ [ -97.791221, 39.697254 ], [ -97.789585, 39.69636 ], [ -97.785189, 39.691208 ], [ -97.784453, 39.689319 ], [ -97.784835, 39.686347 ], [ -97.788251, 39.682592 ], [ -97.78708, 39.682698 ], [ -97.762806, 39.682754 ], [ -97.763002, 39.697284 ], [ -97.77407, 39.697275 ], [ -97.775872, 39.711779 ], [ -97.781994, 39.7118 ], [ -97.781862, 39.697282 ], [ -97.791221, 39.697254 ] ] ] } }
]
}
