{
"type": "FeatureCollection",
"name": "67102",
"crs": { "type": "name", "properties": { "name": "urn:ogc:def:crs:OGC:1.3:CRS84" } },
"features": [
{ "type": "Feature", "properties": { "Name": "", "Description": "" }, "geometry": { "type": "Polygon", "coordinates": [ [ [ -96.86772, 37.041163 ], [ -96.867469028200901, 36.999216962459997 ], [ -96.822900021844404, 36.999182085314203 ], [ -96.822791, 36.999182 ], [ -96.795199, 36.99886 ], [ -96.79206, 36.99918 ], [ -96.749838, 36.998988 ], [ -96.74127, 36.999239 ], [ -96.73659, 36.999286 ], [ -96.731983004127301, 36.999283353112503 ], [ -96.710584670910293, 36.999271058988199 ], [ -96.711052, 37.003202 ], [ -96.710598, 37.012593 ], [ -96.710851, 37.041237 ], [ -96.714175, 37.041724 ], [ -96.714612, 37.056143 ], [ -96.732244, 37.056022 ], [ -96.786778, 37.055731 ], [ -96.786775, 37.070251 ], [ -96.769118, 37.070398 ], [ -96.769904, 37.102752 ], [ -96.77126, 37.110761 ], [ -96.77483, 37.110486 ], [ -96.778049, 37.109682 ], [ -96.798355, 37.103749 ], [ -96.801269, 37.103075 ], [ -96.804054, 37.102784 ], [ -96.814731, 37.102508 ], [ -96.818148, 37.1014 ], [ -96.820033, 37.100123 ], [ -96.823818, 37.095711 ], [ -96.822928, 37.072721 ], [ -96.822903, 37.055481 ], [ -96.822917, 37.049662 ], [ -96.824184, 37.048604 ], [ -96.840904, 37.048466 ], [ -96.840914, 37.041174 ], [ -96.86772, 37.041163 ] ] ] } }
]
}
