{
"type": "FeatureCollection",
"name": "67221",
"crs": { "type": "name", "properties": { "name": "urn:ogc:def:crs:OGC:1.3:CRS84" } },
"features": [
{ "type": "Feature", "properties": { "Name": "", "Description": "" }, "geometry": { "type": "Polygon", "coordinates": [ [ [ -97.278198, 37.64162 ], [ -97.274959, 37.638861 ], [ -97.271319, 37.638929 ], [ -97.271114, 37.635381 ], [ -97.262011, 37.635395 ], [ -97.261776, 37.620077 ], [ -97.260429, 37.621668 ], [ -97.259206, 37.626457 ], [ -97.255582, 37.628468 ], [ -97.254946, 37.626082 ], [ -97.252277, 37.625408 ], [ -97.246272, 37.626911 ], [ -97.244937, 37.627983 ], [ -97.244769, 37.631598 ], [ -97.251452, 37.631859 ], [ -97.247326, 37.640545 ], [ -97.24447, 37.642541 ], [ -97.244471, 37.642825 ], [ -97.262121, 37.642915 ], [ -97.273949, 37.642543 ], [ -97.27394, 37.641692 ], [ -97.278198, 37.64162 ] ] ] } }
]
}
