{
"type": "FeatureCollection",
"name": "67627",
"crs": { "type": "name", "properties": { "name": "urn:ogc:def:crs:OGC:1.3:CRS84" } },
"features": [
{ "type": "Feature", "properties": { "Name": "", "Description": "" }, "geometry": { "type": "Polygon", "coordinates": [ [ [ -99.223747, 38.929204 ], [ -99.223709, 38.928287 ], [ -99.221369, 38.927131 ], [ -99.219699, 38.927567 ], [ -99.219786, 38.925964 ], [ -99.221252, 38.926422 ], [ -99.221486, 38.925231 ], [ -99.219522, 38.924454 ], [ -99.220811, 38.923355 ], [ -99.219843, 38.922073 ], [ -99.221894, 38.920791 ], [ -99.219052, 38.920929 ], [ -99.21952, 38.919899 ], [ -99.221717, 38.918364 ], [ -99.220573, 38.916442 ], [ -99.218288, 38.916351 ], [ -99.218892, 38.914756 ], [ -99.206163, 38.914771 ], [ -99.206026, 38.929283 ], [ -99.223747, 38.929204 ] ] ] } }
]
}
