{
"type": "FeatureCollection",
"name": "68056",
"crs": { "type": "name", "properties": { "name": "urn:ogc:def:crs:OGC:1.3:CRS84" } },
"features": [
{ "type": "Feature", "properties": { "Name": "", "Description": "" }, "geometry": { "type": "Polygon", "coordinates": [ [ [ -95.907354, 41.142047 ], [ -95.907313, 41.139531 ], [ -95.902516, 41.13951 ], [ -95.902663, 41.141251 ], [ -95.901567, 41.14129 ], [ -95.901609, 41.14276 ], [ -95.902526, 41.142731 ], [ -95.903467, 41.143519 ], [ -95.905074, 41.143488 ], [ -95.904799, 41.141178 ], [ -95.905682, 41.141166 ], [ -95.907354, 41.142047 ] ] ] } }
]
}
