{
"type": "FeatureCollection",
"name": "68182",
"crs": { "type": "name", "properties": { "name": "urn:ogc:def:crs:OGC:1.3:CRS84" } },
"features": [
{ "type": "Feature", "properties": { "Name": "", "Description": "" }, "geometry": { "type": "Polygon", "coordinates": [ [ [ -96.016462, 41.259637 ], [ -96.016372, 41.256411 ], [ -96.015709, 41.256036 ], [ -96.015503, 41.255987 ], [ -96.014626, 41.255778 ], [ -96.009114, 41.255884 ], [ -96.008963, 41.255786 ], [ -96.00874, 41.255741 ], [ -96.008325, 41.255732 ], [ -96.00798, 41.255662 ], [ -96.00719, 41.255343 ], [ -96.007046, 41.255564 ], [ -96.006962, 41.255883 ], [ -96.004955, 41.256584 ], [ -96.004935, 41.259595 ], [ -96.012993, 41.259637 ], [ -96.016462, 41.259637 ] ] ] } }
]
}
