{
"type": "FeatureCollection",
"name": "68330",
"crs": { "type": "name", "properties": { "name": "urn:ogc:def:crs:OGC:1.3:CRS84" } },
"features": [
{ "type": "Feature", "properties": { "Name": "", "Description": "" }, "geometry": { "type": "Polygon", "coordinates": [ [ [ -97.352812, 40.718486 ], [ -97.354626, 40.716324 ], [ -97.351905, 40.715839 ], [ -97.351213, 40.715842 ], [ -97.350517, 40.715841 ], [ -97.350533, 40.71314 ], [ -97.349156, 40.713137 ], [ -97.349366, 40.698595 ], [ -97.339407, 40.698564 ], [ -97.330312, 40.698567 ], [ -97.330144, 40.705656 ], [ -97.330064, 40.713108 ], [ -97.346715, 40.713125 ], [ -97.346691, 40.714125 ], [ -97.349154, 40.714182 ], [ -97.349159, 40.715833 ], [ -97.349154, 40.716595 ], [ -97.349147, 40.717253 ], [ -97.349151, 40.719184 ], [ -97.350538, 40.71862 ], [ -97.351885, 40.718629 ], [ -97.352812, 40.718486 ] ] ] } }
]
}
