{
"type": "FeatureCollection",
"name": "68429",
"crs": { "type": "name", "properties": { "name": "urn:ogc:def:crs:OGC:1.3:CRS84" } },
"features": [
{ "type": "Feature", "properties": { "Name": "", "Description": "" }, "geometry": { "type": "Polygon", "coordinates": [ [ [ -97.444497, 40.074362 ], [ -97.44445, 40.059876 ], [ -97.444448, 40.054769 ], [ -97.442892, 40.055305 ], [ -97.442475, 40.054582 ], [ -97.438075, 40.054719 ], [ -97.436233, 40.055467 ], [ -97.435794, 40.054523 ], [ -97.434309, 40.055756 ], [ -97.432464, 40.05572 ], [ -97.431285, 40.053769 ], [ -97.43241, 40.053104 ], [ -97.433862, 40.053639 ], [ -97.435342, 40.052682 ], [ -97.434861, 40.050443 ], [ -97.436511, 40.049848 ], [ -97.435991, 40.047756 ], [ -97.434779, 40.047317 ], [ -97.429636, 40.053262 ], [ -97.427926, 40.054357 ], [ -97.424982, 40.055002 ], [ -97.400717, 40.059032 ], [ -97.390895, 40.059376 ], [ -97.386283, 40.059935 ], [ -97.36909, 40.059952 ], [ -97.369198510194394, 40.002059879411497 ], [ -97.369103, 40.00206 ], [ -97.350896, 40.00193 ], [ -97.350491343271401, 40.001959830464003 ], [ -97.349978, 40.012213 ], [ -97.349953, 40.020037 ], [ -97.34926, 40.021484 ], [ -97.349956, 40.023691 ], [ -97.350012, 40.030956 ], [ -97.331131, 40.03092 ], [ -97.331222, 40.05614 ], [ -97.331236, 40.059763 ], [ -97.332854, 40.059773 ], [ -97.332845, 40.06082 ], [ -97.331238, 40.060807 ], [ -97.331248, 40.063455 ], [ -97.33139, 40.088954 ], [ -97.369118, 40.089047 ], [ -97.369144, 40.110851 ], [ -97.388205, 40.110776 ], [ -97.388152, 40.103521 ], [ -97.397943, 40.103528 ], [ -97.407098, 40.103555 ], [ -97.407039, 40.096406 ], [ -97.406957, 40.089047 ], [ -97.406764, 40.07437 ], [ -97.425502, 40.074282 ], [ -97.444497, 40.074362 ] ] ] } }
]
}
