{
"type": "FeatureCollection",
"name": "68588",
"crs": { "type": "name", "properties": { "name": "urn:ogc:def:crs:OGC:1.3:CRS84" } },
"features": [
{ "type": "Feature", "properties": { "Name": "", "Description": "" }, "geometry": { "type": "Polygon", "coordinates": [ [ [ -96.698152, 40.822714 ], [ -96.698158, 40.820865 ], [ -96.6965, 40.820857 ], [ -96.696075, 40.823627 ], [ -96.695313, 40.824486 ], [ -96.694167, 40.824477 ], [ -96.694284, 40.828146 ], [ -96.696531, 40.827572 ], [ -96.698119, 40.826593 ], [ -96.698126, 40.825944 ], [ -96.698152, 40.822714 ] ] ] } }
]
}
