{
"type": "FeatureCollection",
"name": "70148",
"crs": { "type": "name", "properties": { "name": "urn:ogc:def:crs:OGC:1.3:CRS84" } },
"features": [
{ "type": "Feature", "properties": { "Name": "", "Description": "" }, "geometry": { "type": "Polygon", "coordinates": [ [ [ -90.07372, 30.028868 ], [ -90.074293, 30.02769 ], [ -90.072274, 30.026357 ], [ -90.07098, 30.023359 ], [ -90.065177, 30.023999 ], [ -90.061516, 30.025237 ], [ -90.061691, 30.02755 ], [ -90.061905, 30.030239 ], [ -90.06209, 30.030728 ], [ -90.061788, 30.030899 ], [ -90.061989, 30.033431 ], [ -90.064845, 30.033761 ], [ -90.064916, 30.033966 ], [ -90.06564, 30.032819 ], [ -90.06737, 30.033317 ], [ -90.072983, 30.032474 ], [ -90.074233, 30.031241 ], [ -90.07372, 30.028868 ] ] ] } }
]
}
