{
"type": "FeatureCollection",
"name": "70310",
"crs": { "type": "name", "properties": { "name": "urn:ogc:def:crs:OGC:1.3:CRS84" } },
"features": [
{ "type": "Feature", "properties": { "Name": "", "Description": "" }, "geometry": { "type": "Polygon", "coordinates": [ [ [ -90.805975, 29.787862 ], [ -90.806339, 29.786168 ], [ -90.802015, 29.783947 ], [ -90.800829, 29.786148 ], [ -90.802567, 29.786811 ], [ -90.801388, 29.79062 ], [ -90.800924, 29.791846 ], [ -90.799991, 29.795317 ], [ -90.798753, 29.795004 ], [ -90.798595, 29.795506 ], [ -90.803306, 29.79677 ], [ -90.803492, 29.796184 ], [ -90.805493, 29.789376 ], [ -90.805975, 29.787862 ] ] ] } }
]
}
