{
"type": "FeatureCollection",
"name": "70522",
"crs": { "type": "name", "properties": { "name": "urn:ogc:def:crs:OGC:1.3:CRS84" } },
"features": [
{ "type": "Feature", "properties": { "Name": "", "Description": "" }, "geometry": { "type": "Polygon", "coordinates": [ [ [ -91.442735, 29.749523 ], [ -91.443363, 29.748857 ], [ -91.440408, 29.746863 ], [ -91.435598, 29.744822 ], [ -91.434452, 29.745341 ], [ -91.434625, 29.744207 ], [ -91.434439, 29.743662 ], [ -91.430939, 29.740445 ], [ -91.423603, 29.735487 ], [ -91.423073, 29.739586 ], [ -91.4255, 29.742877 ], [ -91.427805, 29.744703 ], [ -91.432143, 29.74474 ], [ -91.431046, 29.749115 ], [ -91.431575, 29.749777 ], [ -91.431246, 29.75032 ], [ -91.430354, 29.75202 ], [ -91.429592, 29.754833 ], [ -91.428376, 29.759783 ], [ -91.436692, 29.760794 ], [ -91.437084, 29.760849 ], [ -91.439245, 29.750291 ], [ -91.439411, 29.749814 ], [ -91.442735, 29.749523 ] ] ] } }
]
}
