{
"type": "FeatureCollection",
"name": "70551",
"crs": { "type": "name", "properties": { "name": "urn:ogc:def:crs:OGC:1.3:CRS84" } },
"features": [
{ "type": "Feature", "properties": { "Name": "", "Description": "" }, "geometry": { "type": "Polygon", "coordinates": [ [ [ -91.997958, 30.464002 ], [ -91.998124, 30.463006 ], [ -91.994878, 30.463767 ], [ -91.990992, 30.465156 ], [ -91.984647, 30.468277 ], [ -91.98538, 30.464076 ], [ -91.986877, 30.464287 ], [ -91.988483, 30.455273 ], [ -91.984441, 30.454719 ], [ -91.983607, 30.459576 ], [ -91.982279, 30.459501 ], [ -91.981878, 30.459901 ], [ -91.980026, 30.460195 ], [ -91.978528, 30.47023 ], [ -91.966793, 30.468811 ], [ -91.966058, 30.471661 ], [ -91.968877, 30.472951 ], [ -91.976047, 30.475441 ], [ -91.977565, 30.475182 ], [ -91.97926, 30.474197 ], [ -91.979999, 30.473403 ], [ -91.982726, 30.470835 ], [ -91.986287, 30.468391 ], [ -91.993181, 30.464929 ], [ -91.997958, 30.464002 ] ] ] } }
]
}
