{
"type": "FeatureCollection",
"name": "70813",
"crs": { "type": "name", "properties": { "name": "urn:ogc:def:crs:OGC:1.3:CRS84" } },
"features": [
{ "type": "Feature", "properties": { "Name": "", "Description": "" }, "geometry": { "type": "Polygon", "coordinates": [ [ [ -91.20427, 30.531911 ], [ -91.20312, 30.524512 ], [ -91.197453, 30.519983 ], [ -91.196219, 30.520101 ], [ -91.197347, 30.523223 ], [ -91.193339, 30.523396 ], [ -91.193354, 30.524715 ], [ -91.191108, 30.525574 ], [ -91.190521, 30.532829 ], [ -91.195962, 30.532673 ], [ -91.201404, 30.532526 ], [ -91.20427, 30.531911 ] ] ] } }
]
}
