{
"type": "FeatureCollection",
"name": "71009",
"crs": { "type": "name", "properties": { "name": "urn:ogc:def:crs:OGC:1.3:CRS84" } },
"features": [
{ "type": "Feature", "properties": { "Name": "", "Description": "" }, "geometry": { "type": "Polygon", "coordinates": [ [ [ -93.897616, 32.577532 ], [ -93.897641, 32.575733 ], [ -93.887732, 32.574601 ], [ -93.885801, 32.57412 ], [ -93.88538, 32.574492 ], [ -93.885544, 32.574876 ], [ -93.888655, 32.577441 ], [ -93.89116, 32.580314 ], [ -93.888009, 32.580036 ], [ -93.889761, 32.583681 ], [ -93.893282, 32.581482 ], [ -93.892616, 32.580638 ], [ -93.891583, 32.578809 ], [ -93.893429, 32.57768 ], [ -93.895743, 32.578698 ], [ -93.894595, 32.580665 ], [ -93.896778, 32.579698 ], [ -93.897616, 32.577532 ] ] ] } }
]
}
