{
"type": "FeatureCollection",
"name": "71002",
"crs": { "type": "name", "properties": { "name": "urn:ogc:def:crs:OGC:1.3:CRS84" } },
"features": [
{ "type": "Feature", "properties": { "Name": "", "Description": "" }, "geometry": { "type": "Polygon", "coordinates": [ [ [ -93.187138, 32.148509 ], [ -93.186755, 32.148077 ], [ -93.186529, 32.147785 ], [ -93.18671, 32.145443 ], [ -93.185663, 32.14294 ], [ -93.181229, 32.141208 ], [ -93.180246, 32.140107 ], [ -93.178585, 32.13993 ], [ -93.176381, 32.137048 ], [ -93.177668, 32.136153 ], [ -93.175806, 32.134734 ], [ -93.173505, 32.134645 ], [ -93.174501, 32.133397 ], [ -93.174301, 32.132116 ], [ -93.172969, 32.131867 ], [ -93.173958, 32.130681 ], [ -93.17149, 32.12981 ], [ -93.171244, 32.127952 ], [ -93.169138, 32.127567 ], [ -93.168252, 32.128348 ], [ -93.168039, 32.125157 ], [ -93.166787, 32.122664 ], [ -93.16501, 32.121026 ], [ -93.163157, 32.115702 ], [ -93.160979, 32.11376 ], [ -93.158304, 32.113456 ], [ -93.156825, 32.112527 ], [ -93.157336, 32.11113 ], [ -93.155779, 32.109596 ], [ -93.154882, 32.107197 ], [ -93.152395, 32.104512 ], [ -93.152208, 32.102621 ], [ -93.152796, 32.102506 ], [ -93.157146, 32.09913 ], [ -93.159485, 32.098706 ], [ -93.159375, 32.096727 ], [ -93.161456, 32.095809 ], [ -93.161705, 32.094254 ], [ -93.162303, 32.093411 ], [ -93.164306, 32.093317 ], [ -93.163222, 32.089364 ], [ -93.162951, 32.086894 ], [ -93.161117, 32.083897 ], [ -93.161996, 32.083605 ], [ -93.16002, 32.081592 ], [ -93.156738, 32.081359 ], [ -93.157217, 32.080084 ], [ -93.153665, 32.077075 ], [ -93.149132, 32.075443 ], [ -93.102652, 32.075263 ], [ -93.103824, 32.076977 ], [ -93.104091, 32.081989 ], [ -93.104738, 32.085184 ], [ -93.108502, 32.086523 ], [ -93.112509, 32.085898 ], [ -93.11714, 32.084884 ], [ -93.119989, 32.085469 ], [ -93.123547, 32.085244 ], [ -93.124297, 32.085648 ], [ -93.114796, 32.100006 ], [ -93.11384, 32.100251 ], [ -93.109931, 32.099646 ], [ -93.1073, 32.098719 ], [ -93.105019, 32.097201 ], [ -93.103986, 32.097932 ], [ -93.102009, 32.097851 ], [ -93.100818, 32.096033 ], [ -93.100211, 32.094904 ], [ -93.09859, 32.094915 ], [ -93.094319, 32.093575 ], [ -93.092955, 32.092321 ], [ -93.090629, 32.091831 ], [ -93.084428, 32.094043 ], [ -93.081062, 32.093891 ], [ -93.078697, 32.092698 ], [ -93.073975, 32.093853 ], [ -93.073206, 32.093401 ], [ -93.070861, 32.094347 ], [ -93.066844, 32.093628 ], [ -93.06482, 32.09414 ], [ -93.063095, 32.092934 ], [ -93.061157, 32.092605 ], [ -93.059251, 32.091329 ], [ -93.058056, 32.091158 ], [ -93.055989, 32.09151 ], [ -93.054516, 32.091455 ], [ -93.050222, 32.092649 ], [ -93.050196, 32.093519 ], [ -93.049483, 32.118719 ], [ -93.066996, 32.118969 ], [ -93.066493, 32.125149 ], [ -93.066562, 32.148155 ], [ -93.083352, 32.14827 ], [ -93.097793, 32.148369 ], [ -93.098496, 32.148328 ], [ -93.100622, 32.148241 ], [ -93.117199, 32.148307 ], [ -93.117902, 32.148457 ], [ -93.187138, 32.148509 ] ] ] } }
]
}
