{
"type": "FeatureCollection",
"name": "71066",
"crs": { "type": "name", "properties": { "name": "urn:ogc:def:crs:OGC:1.3:CRS84" } },
"features": [
{ "type": "Feature", "properties": { "Name": "", "Description": "" }, "geometry": { "type": "Polygon", "coordinates": [ [ [ -93.201171, 31.875141 ], [ -93.201671, 31.87411 ], [ -93.197703, 31.872338 ], [ -93.19631, 31.874674 ], [ -93.195846, 31.874488 ], [ -93.195744, 31.876728 ], [ -93.197134, 31.877126 ], [ -93.199774, 31.875474 ], [ -93.201171, 31.875141 ] ] ] } }
]
}
