{
"type": "FeatureCollection",
"name": "71218",
"crs": { "type": "name", "properties": { "name": "urn:ogc:def:crs:OGC:1.3:CRS84" } },
"features": [
{ "type": "Feature", "properties": { "Name": "", "Description": "" }, "geometry": { "type": "Polygon", "coordinates": [ [ [ -91.79564, 32.356214 ], [ -91.795697, 32.346964 ], [ -91.794652, 32.343967 ], [ -91.792999, 32.345093 ], [ -91.785239, 32.345216 ], [ -91.783339, 32.345714 ], [ -91.77971, 32.348813 ], [ -91.777351, 32.348846 ], [ -91.776507, 32.353296 ], [ -91.782188, 32.355562 ], [ -91.784019, 32.355994 ], [ -91.785786, 32.356161 ], [ -91.79564, 32.356214 ] ] ] } }
]
}
