{
"type": "FeatureCollection",
"name": "71320",
"crs": { "type": "name", "properties": { "name": "urn:ogc:def:crs:OGC:1.3:CRS84" } },
"features": [
{ "type": "Feature", "properties": { "Name": "", "Description": "" }, "geometry": { "type": "Polygon", "coordinates": [ [ [ -91.86377, 31.10446 ], [ -91.86415, 31.10059 ], [ -91.86202, 31.09971 ], [ -91.85565, 31.09885 ], [ -91.83364, 31.09783 ], [ -91.81877, 31.09598 ], [ -91.81131, 31.09458 ], [ -91.8057, 31.09285 ], [ -91.80203, 31.0912 ], [ -91.79776, 31.08828 ], [ -91.7962, 31.08557 ], [ -91.79497, 31.07951 ], [ -91.793982, 31.077003 ], [ -91.7921, 31.07417 ], [ -91.78989, 31.0701 ], [ -91.78933, 31.06817 ], [ -91.78864, 31.0575 ], [ -91.79201, 31.04843 ], [ -91.7935, 31.0451 ], [ -91.79824, 31.03714 ], [ -91.80212, 31.03338 ], [ -91.80513, 31.03156 ], [ -91.80488, 31.02715 ], [ -91.80553, 31.0217 ], [ -91.80596, 31.01991 ], [ -91.805517, 31.016262 ], [ -91.805729, 31.013483 ], [ -91.80569, 31.00644 ], [ -91.80421, 31.00292 ], [ -91.7999, 30.99858 ], [ -91.79958, 30.99536 ], [ -91.79897, 30.99369 ], [ -91.79958, 30.99104 ], [ -91.80101, 30.9898 ], [ -91.80382, 30.98933 ], [ -91.804608, 30.988471 ], [ -91.79823, 30.986418 ], [ -91.797805, 30.985959 ], [ -91.797936, 30.984491 ], [ -91.796521, 30.982842 ], [ -91.794531, 30.983143 ], [ -91.78216, 30.985827 ], [ -91.780473, 30.986694 ], [ -91.778319, 30.988763 ], [ -91.776969, 30.990916 ], [ -91.776007, 30.993377 ], [ -91.775861, 30.995348 ], [ -91.774174, 31.002637 ], [ -91.772572, 31.00474 ], [ -91.767525, 31.009064 ], [ -91.764376, 31.010843 ], [ -91.759658, 31.012452 ], [ -91.755854, 31.014209 ], [ -91.750119, 31.018814 ], [ -91.747552, 31.023223 ], [ -91.745708, 31.025233 ], [ -91.740751, 31.028829 ], [ -91.733389, 31.033489 ], [ -91.726631, 31.039887 ], [ -91.723804, 31.044254 ], [ -91.715639, 31.058992 ], [ -91.710106, 31.073408 ], [ -91.709817, 31.076639 ], [ -91.710309, 31.078327 ], [ -91.718195, 31.081403 ], [ -91.719217, 31.082724 ], [ -91.719699, 31.085769 ], [ -91.718846, 31.089197 ], [ -91.716257, 31.093342 ], [ -91.714723, 31.094442 ], [ -91.708474, 31.096881 ], [ -91.706088, 31.09924 ], [ -91.703787, 31.103566 ], [ -91.703447, 31.105746 ], [ -91.70362, 31.108764 ], [ -91.704431, 31.111093 ], [ -91.706046, 31.113585 ], [ -91.707976, 31.115086 ], [ -91.71027, 31.115927 ], [ -91.715938, 31.116982 ], [ -91.717587, 31.119094 ], [ -91.718661, 31.122785 ], [ -91.719171, 31.129602 ], [ -91.719004, 31.134616 ], [ -91.717233, 31.139472 ], [ -91.712627, 31.147464 ], [ -91.710922, 31.151457 ], [ -91.709336, 31.153846 ], [ -91.704843, 31.159791 ], [ -91.702705, 31.161812 ], [ -91.699914, 31.162941 ], [ -91.696209, 31.163288 ], [ -91.691206, 31.162737 ], [ -91.687263, 31.161928 ], [ -91.685258, 31.162201 ], [ -91.683742, 31.163011 ], [ -91.682468, 31.16537 ], [ -91.682095, 31.167487 ], [ -91.683091, 31.171439 ], [ -91.683457, 31.177046 ], [ -91.682405, 31.179601 ], [ -91.677806, 31.185286 ], [ -91.677302, 31.188047 ], [ -91.680219, 31.190222 ], [ -91.682022, 31.191733 ], [ -91.684767, 31.197038 ], [ -91.686225, 31.198518 ], [ -91.690959, 31.201906 ], [ -91.693125, 31.2029 ], [ -91.698335, 31.204267 ], [ -91.700844, 31.20545 ], [ -91.704205, 31.208083 ], [ -91.706223, 31.208939 ], [ -91.70815, 31.208923 ], [ -91.711181, 31.208038 ], [ -91.713824, 31.206835 ], [ -91.71625, 31.205105 ], [ -91.719276, 31.201665 ], [ -91.721856, 31.19955 ], [ -91.722753, 31.199622 ], [ -91.726814, 31.201599 ], [ -91.729542, 31.202517 ], [ -91.735643, 31.203769 ], [ -91.73837, 31.204001 ], [ -91.740796, 31.205167 ], [ -91.74227, 31.206977 ], [ -91.744642, 31.213253 ], [ -91.747405, 31.215219 ], [ -91.750121, 31.216366 ], [ -91.75846, 31.222245 ], [ -91.761626, 31.222835 ], [ -91.768568, 31.22282 ], [ -91.773742, 31.222168 ], [ -91.777566, 31.222047 ], [ -91.783239, 31.223386 ], [ -91.787725, 31.22509 ], [ -91.791317, 31.225975 ], [ -91.793823, 31.227346 ], [ -91.797014, 31.230561 ], [ -91.798568, 31.229858 ], [ -91.797795, 31.229835 ], [ -91.795368, 31.226718 ], [ -91.792382, 31.224953 ], [ -91.786783, 31.223623 ], [ -91.784597, 31.222453 ], [ -91.779425, 31.220986 ], [ -91.774892, 31.220663 ], [ -91.769826, 31.220982 ], [ -91.767026, 31.221577 ], [ -91.76236, 31.221803 ], [ -91.759134, 31.220817 ], [ -91.755723, 31.218936 ], [ -91.754284, 31.217171 ], [ -91.750793, 31.214947 ], [ -91.749127, 31.214605 ], [ -91.746593, 31.2133 ], [ -91.745419, 31.211788 ], [ -91.74379, 31.205877 ], [ -91.741256, 31.203059 ], [ -91.738909, 31.202327 ], [ -91.73611, 31.202397 ], [ -91.730085, 31.201665 ], [ -91.726539, 31.200108 ], [ -91.725445, 31.199054 ], [ -91.722886, 31.197795 ], [ -91.72062, 31.198483 ], [ -91.719714, 31.199368 ], [ -91.718872, 31.197811 ], [ -91.71678, 31.20072 ], [ -91.71567, 31.20303 ], [ -91.713, 31.2048 ], [ -91.70638, 31.20674 ], [ -91.70442, 31.20588 ], [ -91.70269, 31.20305 ], [ -91.70115, 31.2019 ], [ -91.69749, 31.20175 ], [ -91.69202, 31.20009 ], [ -91.68701, 31.19578 ], [ -91.6858, 31.19282 ], [ -91.68385, 31.19031 ], [ -91.68107, 31.18847 ], [ -91.68046, 31.18687 ], [ -91.68338, 31.18367 ], [ -91.68402, 31.18068 ], [ -91.686852, 31.177891 ], [ -91.68712, 31.1744 ], [ -91.68534, 31.17343 ], [ -91.68436, 31.16949 ], [ -91.68478, 31.16819 ], [ -91.68417, 31.16671 ], [ -91.68444, 31.16479 ], [ -91.6863, 31.16393 ], [ -91.69333, 31.16501 ], [ -91.69926, 31.16505 ], [ -91.70161, 31.16447 ], [ -91.70451, 31.1646 ], [ -91.70469, 31.16378 ], [ -91.7062, 31.16324 ], [ -91.70555, 31.16226 ], [ -91.70604, 31.16113 ], [ -91.71067, 31.15575 ], [ -91.71714, 31.15564 ], [ -91.71955, 31.15538 ], [ -91.72085, 31.15601 ], [ -91.72246, 31.15793 ], [ -91.7239, 31.15891 ], [ -91.72594, 31.16159 ], [ -91.72959, 31.16265 ], [ -91.73238, 31.16163 ], [ -91.73586, 31.16145 ], [ -91.73813, 31.15947 ], [ -91.7413, 31.15871 ], [ -91.74291, 31.15783 ], [ -91.74314, 31.15688 ], [ -91.74236, 31.15516 ], [ -91.74555, 31.15386 ], [ -91.74935, 31.1533 ], [ -91.75022, 31.15236 ], [ -91.74903, 31.15015 ], [ -91.74958, 31.14811 ], [ -91.752964, 31.147877 ], [ -91.751961, 31.146275 ], [ -91.755288, 31.146757 ], [ -91.759362, 31.145166 ], [ -91.761394, 31.144736 ], [ -91.765203, 31.145869 ], [ -91.767733, 31.144825 ], [ -91.768585, 31.14342 ], [ -91.767553, 31.141734 ], [ -91.769542, 31.142337 ], [ -91.771372, 31.140715 ], [ -91.769928, 31.13919 ], [ -91.77205, 31.14061 ], [ -91.77114, 31.14265 ], [ -91.77157, 31.14409 ], [ -91.77479, 31.14518 ], [ -91.77662, 31.1467 ], [ -91.7776, 31.14834 ], [ -91.78156, 31.14898 ], [ -91.78455, 31.14995 ], [ -91.78835, 31.15071 ], [ -91.79138, 31.15177 ], [ -91.79387, 31.15147 ], [ -91.79626, 31.15269 ], [ -91.80065, 31.15366 ], [ -91.80346, 31.15395 ], [ -91.80714, 31.15597 ], [ -91.80892, 31.15415 ], [ -91.80939, 31.14998 ], [ -91.8111, 31.1486 ], [ -91.81707, 31.14767 ], [ -91.82195, 31.146 ], [ -91.82658, 31.14383 ], [ -91.82868, 31.14417 ], [ -91.83068, 31.14557 ], [ -91.83353, 31.1461 ], [ -91.83572, 31.14289 ], [ -91.83673, 31.14001 ], [ -91.83853, 31.13894 ], [ -91.84012, 31.13695 ], [ -91.84361, 31.13546 ], [ -91.84558, 31.13215 ], [ -91.84883, 31.1273 ], [ -91.85148, 31.12412 ], [ -91.85217, 31.12242 ], [ -91.85168, 31.11761 ], [ -91.85214, 31.11383 ], [ -91.85451, 31.11029 ], [ -91.85945, 31.10908 ], [ -91.86207, 31.10895 ], [ -91.86389, 31.10747 ], [ -91.86377, 31.10446 ] ] ] } }
]
}
