{
"type": "FeatureCollection",
"name": "71330",
"crs": { "type": "name", "properties": { "name": "urn:ogc:def:crs:OGC:1.3:CRS84" } },
"features": [
{ "type": "Feature", "properties": { "Name": "", "Description": "" }, "geometry": { "type": "Polygon", "coordinates": [ [ [ -92.249396, 31.114251 ], [ -92.249263, 31.107978 ], [ -92.246975, 31.107986 ], [ -92.244614, 31.108017 ], [ -92.242873, 31.107732 ], [ -92.24138, 31.110132 ], [ -92.231304, 31.105297 ], [ -92.23131, 31.10821 ], [ -92.231545, 31.110086 ], [ -92.238206, 31.110429 ], [ -92.240906, 31.111041 ], [ -92.239997, 31.112701 ], [ -92.240913, 31.113192 ], [ -92.247498, 31.113358 ], [ -92.249396, 31.114251 ] ] ] } }
]
}
