{
"type": "FeatureCollection",
"name": "71359",
"crs": { "type": "name", "properties": { "name": "urn:ogc:def:crs:OGC:1.3:CRS84" } },
"features": [
{ "type": "Feature", "properties": { "Name": "", "Description": "" }, "geometry": { "type": "Polygon", "coordinates": [ [ [ -92.42904, 31.328045 ], [ -92.429925, 31.327 ], [ -92.427777, 31.321747 ], [ -92.426025, 31.320684 ], [ -92.421749, 31.325072 ], [ -92.423988, 31.325714 ], [ -92.426486, 31.32737 ], [ -92.428675, 31.32867 ], [ -92.42904, 31.328045 ] ] ] } }
]
}
