{
"type": "FeatureCollection",
"name": "71415",
"crs": { "type": "name", "properties": { "name": "urn:ogc:def:crs:OGC:1.3:CRS84" } },
"features": [
{ "type": "Feature", "properties": { "Name": "", "Description": "" }, "geometry": { "type": "Polygon", "coordinates": [ [ [ -92.147421, 32.027363 ], [ -92.147464, 32.017901 ], [ -92.144413, 32.017812 ], [ -92.138242, 32.023989 ], [ -92.137817, 32.024265 ], [ -92.136681, 32.025143 ], [ -92.138489, 32.025817 ], [ -92.13455, 32.030219 ], [ -92.139156, 32.030562 ], [ -92.139158, 32.031675 ], [ -92.144113, 32.031863 ], [ -92.144479, 32.027071 ], [ -92.147421, 32.027363 ] ] ] } }
]
}
