{
"type": "FeatureCollection",
"name": "71428",
"crs": { "type": "name", "properties": { "name": "urn:ogc:def:crs:OGC:1.3:CRS84" } },
"features": [
{ "type": "Feature", "properties": { "Name": "", "Description": "" }, "geometry": { "type": "Polygon", "coordinates": [ [ [ -93.101449, 31.604556 ], [ -93.102201, 31.603163 ], [ -93.101036, 31.604678 ], [ -93.09896, 31.604904 ], [ -93.09799, 31.605944 ], [ -93.09472, 31.607496 ], [ -93.092181, 31.606875 ], [ -93.084861, 31.606706 ], [ -93.08418, 31.607421 ], [ -93.080889, 31.606206 ], [ -93.077579, 31.606817 ], [ -93.076635, 31.606383 ], [ -93.077053, 31.608544 ], [ -93.074267, 31.611319 ], [ -93.080808, 31.612133 ], [ -93.088334, 31.611367 ], [ -93.093547, 31.612409 ], [ -93.096352, 31.612131 ], [ -93.098638, 31.612609 ], [ -93.101449, 31.604556 ] ] ] } }
]
}
