{
"type": "FeatureCollection",
"name": "71434",
"crs": { "type": "name", "properties": { "name": "urn:ogc:def:crs:OGC:1.3:CRS84" } },
"features": [
{ "type": "Feature", "properties": { "Name": "", "Description": "" }, "geometry": { "type": "Polygon", "coordinates": [ [ [ -92.96239, 31.426707 ], [ -92.962803, 31.423558 ], [ -92.96062, 31.422685 ], [ -92.957552, 31.423673 ], [ -92.951586, 31.424304 ], [ -92.948146, 31.424435 ], [ -92.946082, 31.426458 ], [ -92.945162, 31.424455 ], [ -92.943392, 31.426826 ], [ -92.942706, 31.427596 ], [ -92.94295, 31.431138 ], [ -92.94239, 31.432722 ], [ -92.941297, 31.432838 ], [ -92.937934, 31.433828 ], [ -92.937621, 31.435919 ], [ -92.938024, 31.441007 ], [ -92.93962, 31.442979 ], [ -92.939817, 31.444304 ], [ -92.938788, 31.447619 ], [ -92.936731, 31.450229 ], [ -92.936847, 31.451888 ], [ -92.93547, 31.452924 ], [ -92.935666, 31.454609 ], [ -92.938435, 31.455827 ], [ -92.939623, 31.458175 ], [ -92.939831, 31.46055 ], [ -92.938191, 31.461143 ], [ -92.936638, 31.462925 ], [ -92.935216, 31.463829 ], [ -92.9326, 31.46413 ], [ -92.931268, 31.464896 ], [ -92.929353, 31.464905 ], [ -92.928597, 31.466499 ], [ -92.926685, 31.467379 ], [ -92.926864, 31.473022 ], [ -92.927942, 31.47724 ], [ -92.928731, 31.477141 ], [ -92.929149, 31.474474 ], [ -92.930612, 31.473929 ], [ -92.935027, 31.474749 ], [ -92.937081, 31.473435 ], [ -92.93658, 31.470624 ], [ -92.93796, 31.471125 ], [ -92.937934, 31.469947 ], [ -92.941169, 31.467137 ], [ -92.941169, 31.466334 ], [ -92.944672, 31.465712 ], [ -92.943004, 31.463276 ], [ -92.943292, 31.462269 ], [ -92.94684, 31.459876 ], [ -92.946795, 31.457748 ], [ -92.945152, 31.455196 ], [ -92.946814, 31.453804 ], [ -92.946051, 31.452589 ], [ -92.947885, 31.449805 ], [ -92.946903, 31.449057 ], [ -92.94904, 31.448546 ], [ -92.947314, 31.446577 ], [ -92.949989, 31.443304 ], [ -92.94868, 31.441995 ], [ -92.949936, 31.440854 ], [ -92.950995, 31.439756 ], [ -92.95412, 31.439706 ], [ -92.95392, 31.438183 ], [ -92.954741, 31.436329 ], [ -92.954843, 31.434102 ], [ -92.956479, 31.434497 ], [ -92.95687, 31.432649 ], [ -92.959289, 31.43327 ], [ -92.960974, 31.432342 ], [ -92.959091, 31.430376 ], [ -92.959079, 31.427944 ], [ -92.961138, 31.427762 ], [ -92.96239, 31.426707 ] ] ] } }
]
}
