{
"type": "FeatureCollection",
"name": "71497",
"crs": { "type": "name", "properties": { "name": "urn:ogc:def:crs:OGC:1.3:CRS84" } },
"features": [
{ "type": "Feature", "properties": { "Name": "", "Description": "" }, "geometry": { "type": "Polygon", "coordinates": [ [ [ -93.105834, 31.751353 ], [ -93.104374, 31.74911 ], [ -93.104159, 31.74778 ], [ -93.100602, 31.744644 ], [ -93.098944, 31.741916 ], [ -93.094359, 31.743606 ], [ -93.092894, 31.74659 ], [ -93.09147, 31.748083 ], [ -93.090933, 31.748598 ], [ -93.089705, 31.750496 ], [ -93.089332, 31.750854 ], [ -93.089614, 31.751284 ], [ -93.091836, 31.752027 ], [ -93.092498, 31.752227 ], [ -93.094887, 31.75297 ], [ -93.09934, 31.75446 ], [ -93.10082, 31.754611 ], [ -93.104301, 31.753483 ], [ -93.104319, 31.752476 ], [ -93.105834, 31.751353 ] ] ] } }
]
}
