{
"type": "FeatureCollection",
"name": "71678",
"crs": { "type": "name", "properties": { "name": "urn:ogc:def:crs:OGC:1.3:CRS84" } },
"features": [
{ "type": "Feature", "properties": { "Name": "", "Description": "" }, "geometry": { "type": "Polygon", "coordinates": [ [ [ -91.849064, 34.028799 ], [ -91.849092, 34.018816 ], [ -91.844061, 34.015359 ], [ -91.840861, 34.014749 ], [ -91.83527, 34.015442 ], [ -91.833248, 34.016163 ], [ -91.832925, 34.015482 ], [ -91.829752, 34.013488 ], [ -91.828741, 34.011848 ], [ -91.827395, 34.011469 ], [ -91.82668, 34.008831 ], [ -91.825195, 34.006764 ], [ -91.824039, 34.006022 ], [ -91.820831, 34.005945 ], [ -91.819214, 34.007187 ], [ -91.817723, 34.009606 ], [ -91.817809, 34.011481 ], [ -91.82004, 34.013405 ], [ -91.819907, 34.015912 ], [ -91.81833, 34.017857 ], [ -91.814637, 34.02094 ], [ -91.811652, 34.021457 ], [ -91.808822, 34.021516 ], [ -91.805, 34.021112 ], [ -91.785562, 34.021049 ], [ -91.784601, 34.025297 ], [ -91.783868, 34.026245 ], [ -91.780285, 34.027896 ], [ -91.779469, 34.02921 ], [ -91.776505, 34.030841 ], [ -91.771513, 34.035552 ], [ -91.80909, 34.035413 ], [ -91.809976, 34.034744 ], [ -91.815112, 34.033891 ], [ -91.819278, 34.033859 ], [ -91.819324, 34.035318 ], [ -91.834925, 34.035013 ], [ -91.836799, 34.032302 ], [ -91.837941, 34.029531 ], [ -91.839215, 34.02847 ], [ -91.841882, 34.02776 ], [ -91.849064, 34.028799 ] ] ] } }
]
}
