{
"type": "FeatureCollection",
"name": "71728",
"crs": { "type": "name", "properties": { "name": "urn:ogc:def:crs:OGC:1.3:CRS84" } },
"features": [
{ "type": "Feature", "properties": { "Name": "", "Description": "" }, "geometry": { "type": "Polygon", "coordinates": [ [ [ -93.112997, 34.005429 ], [ -93.115844, 33.998167 ], [ -93.100454, 33.997767 ], [ -93.099469, 33.99659 ], [ -93.098031, 33.997382 ], [ -93.0985, 33.999558 ], [ -93.101498, 33.99962 ], [ -93.101408, 34.001611 ], [ -93.105687, 34.001744 ], [ -93.105416, 34.008836 ], [ -93.0969, 34.008717 ], [ -93.096922, 34.005142 ], [ -93.095452, 34.009275 ], [ -93.094112, 34.011027 ], [ -93.096857, 34.010999 ], [ -93.096634, 34.019596 ], [ -93.108669, 34.019682 ], [ -93.110834, 34.012568 ], [ -93.109749, 34.012433 ], [ -93.110337, 34.01031 ], [ -93.111449, 34.010546 ], [ -93.112997, 34.005429 ] ] ] } }
]
}
