{
"type": "FeatureCollection",
"name": "71721",
"crs": { "type": "name", "properties": { "name": "urn:ogc:def:crs:OGC:1.3:CRS84" } },
"features": [
{ "type": "Feature", "properties": { "Name": "", "Description": "" }, "geometry": { "type": "Polygon", "coordinates": [ [ [ -93.210301, 33.888938 ], [ -93.20955, 33.887014 ], [ -93.201246, 33.889591 ], [ -93.201217, 33.891144 ], [ -93.203965, 33.891252 ], [ -93.203901, 33.894775 ], [ -93.207297, 33.89475 ], [ -93.209538, 33.89243 ], [ -93.210301, 33.888938 ] ] ] } }
]
}
