{
"type": "FeatureCollection",
"name": "71748",
"crs": { "type": "name", "properties": { "name": "urn:ogc:def:crs:OGC:1.3:CRS84" } },
"features": [
{ "type": "Feature", "properties": { "Name": "", "Description": "" }, "geometry": { "type": "Polygon", "coordinates": [ [ [ -92.454648, 33.904767 ], [ -92.455811, 33.898751 ], [ -92.45322, 33.89651 ], [ -92.449373, 33.89484 ], [ -92.448351, 33.896548 ], [ -92.443211, 33.894341 ], [ -92.433539, 33.888466 ], [ -92.427176, 33.886912 ], [ -92.421779, 33.889119 ], [ -92.418294, 33.889698 ], [ -92.413957, 33.88996 ], [ -92.421732, 33.920564 ], [ -92.426357, 33.918854 ], [ -92.431686, 33.916314 ], [ -92.43317, 33.91632 ], [ -92.434667, 33.914923 ], [ -92.438821, 33.914879 ], [ -92.441993, 33.917221 ], [ -92.445126, 33.917419 ], [ -92.444835, 33.916556 ], [ -92.446899, 33.915566 ], [ -92.449095, 33.915434 ], [ -92.449689, 33.914301 ], [ -92.44831, 33.911294 ], [ -92.447407, 33.908738 ], [ -92.448804, 33.907336 ], [ -92.450215, 33.90727 ], [ -92.450743, 33.906044 ], [ -92.453255, 33.904762 ], [ -92.454648, 33.904767 ] ] ] } }
]
}
