{
"type": "FeatureCollection",
"name": "71831",
"crs": { "type": "name", "properties": { "name": "urn:ogc:def:crs:OGC:1.3:CRS84" } },
"features": [
{ "type": "Feature", "properties": { "Name": "", "Description": "" }, "geometry": { "type": "Polygon", "coordinates": [ [ [ -93.913644, 33.775826 ], [ -93.915809, 33.775457 ], [ -93.912076, 33.773515 ], [ -93.911136, 33.770492 ], [ -93.911725, 33.76908 ], [ -93.902347, 33.761284 ], [ -93.889999, 33.750794 ], [ -93.887816, 33.748941 ], [ -93.866743, 33.748649 ], [ -93.836108, 33.748297 ], [ -93.83579, 33.748812 ], [ -93.834619, 33.7512 ], [ -93.834205, 33.751829 ], [ -93.83385, 33.752258 ], [ -93.832623, 33.753308 ], [ -93.831391, 33.754886 ], [ -93.830856, 33.76994 ], [ -93.829668, 33.772276 ], [ -93.827009, 33.773759 ], [ -93.819243, 33.777199 ], [ -93.818983, 33.77724 ], [ -93.817109, 33.776913 ], [ -93.816971, 33.77887 ], [ -93.8158, 33.782669 ], [ -93.813255, 33.785539 ], [ -93.811696, 33.789488 ], [ -93.812599, 33.801616 ], [ -93.812247, 33.807573 ], [ -93.813643, 33.814682 ], [ -93.816411, 33.817656 ], [ -93.816802, 33.819776 ], [ -93.829238, 33.820111 ], [ -93.830165, 33.791347 ], [ -93.881311, 33.792567 ], [ -93.886157, 33.792834 ], [ -93.897217, 33.793045 ], [ -93.898917, 33.791863 ], [ -93.90119, 33.789104 ], [ -93.905419, 33.785042 ], [ -93.909554, 33.783806 ], [ -93.910765, 33.78451 ], [ -93.912405, 33.78376 ], [ -93.911947, 33.778678 ], [ -93.912137, 33.777524 ], [ -93.913644, 33.775826 ] ] ] } }
]
}
