{
"type": "FeatureCollection",
"name": "71864",
"crs": { "type": "name", "properties": { "name": "urn:ogc:def:crs:OGC:1.3:CRS84" } },
"features": [
{ "type": "Feature", "properties": { "Name": "", "Description": "" }, "geometry": { "type": "Polygon", "coordinates": [ [ [ -93.298638, 33.517038 ], [ -93.29837, 33.515216 ], [ -93.293527, 33.506255 ], [ -93.291884, 33.50257 ], [ -93.286519, 33.490054 ], [ -93.283298, 33.490507 ], [ -93.283206, 33.493972 ], [ -93.282378, 33.494948 ], [ -93.283198, 33.500268 ], [ -93.283154, 33.504095 ], [ -93.282332, 33.507291 ], [ -93.280383, 33.507868 ], [ -93.280288, 33.511413 ], [ -93.279059, 33.511385 ], [ -93.278814, 33.516844 ], [ -93.283105, 33.516999 ], [ -93.283184, 33.515154 ], [ -93.291897, 33.515392 ], [ -93.291718, 33.519033 ], [ -93.293928, 33.519096 ], [ -93.293788, 33.522703 ], [ -93.291589, 33.522656 ], [ -93.291434, 33.526567 ], [ -93.289222, 33.526545 ], [ -93.289058, 33.530128 ], [ -93.286895, 33.530047 ], [ -93.286737, 33.533504 ], [ -93.288071, 33.533524 ], [ -93.289279, 33.531578 ], [ -93.295955, 33.524735 ], [ -93.296435, 33.524047 ], [ -93.298638, 33.517038 ] ] ] } }
]
}
