{
"type": "FeatureCollection",
"name": "71942",
"crs": { "type": "name", "properties": { "name": "urn:ogc:def:crs:OGC:1.3:CRS84" } },
"features": [
{ "type": "Feature", "properties": { "Name": "", "Description": "" }, "geometry": { "type": "Polygon", "coordinates": [ [ [ -93.011801, 34.228429 ], [ -93.012052, 34.219405 ], [ -93.00496, 34.22235 ], [ -93.00453, 34.21953 ], [ -93.00477, 34.21915 ], [ -93.004926, 34.218488 ], [ -93.00154, 34.21843 ], [ -92.9997, 34.21636 ], [ -92.99849, 34.214258 ], [ -92.99503, 34.216231 ], [ -92.992711, 34.216207 ], [ -92.989359, 34.214617 ], [ -92.984329, 34.214522 ], [ -92.982266, 34.213574 ], [ -92.981011, 34.214329 ], [ -92.979158, 34.218075 ], [ -92.979589, 34.220041 ], [ -92.98181, 34.220435 ], [ -92.984133, 34.222045 ], [ -92.981117, 34.224536 ], [ -92.988505, 34.227497 ], [ -92.988376, 34.229339 ], [ -92.994205, 34.226931 ], [ -92.994247, 34.223691 ], [ -92.99554, 34.22637 ], [ -92.99991, 34.22453 ], [ -92.99934, 34.22271 ], [ -93.00021, 34.2226 ], [ -93.00092, 34.22411 ], [ -93.0035, 34.22301 ], [ -93.00571, 34.22657 ], [ -93.0101, 34.22848 ], [ -93.011801, 34.228429 ] ] ] } }
]
}
