{
"type": "FeatureCollection",
"name": "72028",
"crs": { "type": "name", "properties": { "name": "urn:ogc:def:crs:OGC:1.3:CRS84" } },
"features": [
{ "type": "Feature", "properties": { "Name": "", "Description": "" }, "geometry": { "type": "Polygon", "coordinates": [ [ [ -92.442976, 35.532848 ], [ -92.442905, 35.53203 ], [ -92.442662, 35.530435 ], [ -92.442169, 35.52921 ], [ -92.441373, 35.527634 ], [ -92.439384, 35.527664 ], [ -92.43852, 35.527681 ], [ -92.434261, 35.528389 ], [ -92.435254, 35.529882 ], [ -92.431986, 35.529796 ], [ -92.427269, 35.530848 ], [ -92.422639, 35.530775 ], [ -92.426514, 35.534661 ], [ -92.4269, 35.535611 ], [ -92.426708, 35.541276 ], [ -92.428812, 35.541861 ], [ -92.42863, 35.545113 ], [ -92.426245, 35.54568 ], [ -92.426587, 35.546167 ], [ -92.42656, 35.549751 ], [ -92.433173, 35.549989 ], [ -92.433185, 35.549098 ], [ -92.435428, 35.549146 ], [ -92.435702, 35.538176 ], [ -92.43792, 35.538201 ], [ -92.438037, 35.534576 ], [ -92.440135, 35.534602 ], [ -92.440757, 35.530949 ], [ -92.442704, 35.532462 ], [ -92.442976, 35.532848 ] ] ] } }
]
}
