{
"type": "FeatureCollection",
"name": "72053",
"crs": { "type": "name", "properties": { "name": "urn:ogc:def:crs:OGC:1.3:CRS84" } },
"features": [
{ "type": "Feature", "properties": { "Name": "", "Description": "" }, "geometry": { "type": "MultiPolygon", "coordinates": [ [ [ [ -92.235627, 34.716809 ], [ -92.233283, 34.712039 ], [ -92.233125, 34.712894 ], [ -92.230241, 34.712811 ], [ -92.23037, 34.711216 ], [ -92.23281, 34.711229 ], [ -92.231222, 34.708716 ], [ -92.229969, 34.709119 ], [ -92.227029, 34.708795 ], [ -92.22477, 34.707794 ], [ -92.223644, 34.708681 ], [ -92.223523, 34.712415 ], [ -92.226885, 34.712507 ], [ -92.226973, 34.710654 ], [ -92.228082, 34.710683 ], [ -92.227957, 34.713403 ], [ -92.225749, 34.714363 ], [ -92.224706, 34.715248 ], [ -92.224693, 34.71631 ], [ -92.228294, 34.716474 ], [ -92.235627, 34.716809 ] ] ], [ [ [ -92.234884, 34.69595 ], [ -92.236076, 34.693552 ], [ -92.231604, 34.693368 ], [ -92.22969, 34.696507 ], [ -92.227056, 34.698987 ], [ -92.224754, 34.700549 ], [ -92.22046, 34.702444 ], [ -92.22039, 34.703785 ], [ -92.22159, 34.703901 ], [ -92.222456, 34.706953 ], [ -92.223182, 34.706951 ], [ -92.223152, 34.707743 ], [ -92.226961, 34.706931 ], [ -92.22704, 34.706039 ], [ -92.225906, 34.705977 ], [ -92.226001, 34.704218 ], [ -92.227843, 34.704255 ], [ -92.228212, 34.704321 ], [ -92.228208, 34.705162 ], [ -92.229339, 34.705245 ], [ -92.229256, 34.706998 ], [ -92.23101, 34.707962 ], [ -92.230155, 34.705621 ], [ -92.230956, 34.702706 ], [ -92.231554, 34.700352 ], [ -92.233283, 34.698012 ], [ -92.2337, 34.698017 ], [ -92.234884, 34.69595 ] ] ] ] } }
]
}
