{
"type": "FeatureCollection",
"name": "72052",
"crs": { "type": "name", "properties": { "name": "urn:ogc:def:crs:OGC:1.3:CRS84" } },
"features": [
{ "type": "Feature", "properties": { "Name": "", "Description": "" }, "geometry": { "type": "Polygon", "coordinates": [ [ [ -91.790884, 35.13762 ], [ -91.790052, 35.135958 ], [ -91.782872, 35.135946 ], [ -91.780733, 35.135913 ], [ -91.780761, 35.134079 ], [ -91.776381, 35.134013 ], [ -91.776359, 35.135847 ], [ -91.771981, 35.135778 ], [ -91.771961, 35.137591 ], [ -91.776405, 35.137642 ], [ -91.77623, 35.148605 ], [ -91.790884, 35.13762 ] ] ] } }
]
}
