{
"type": "FeatureCollection",
"name": "72066",
"crs": { "type": "name", "properties": { "name": "urn:ogc:def:crs:OGC:1.3:CRS84" } },
"features": [
{ "type": "Feature", "properties": { "Name": "", "Description": "" }, "geometry": { "type": "Polygon", "coordinates": [ [ [ -91.746072, 34.966377 ], [ -91.746979, 34.926975 ], [ -91.74321, 34.92786 ], [ -91.738426, 34.927528 ], [ -91.737824, 34.929539 ], [ -91.735855, 34.930271 ], [ -91.731476, 34.931095 ], [ -91.728905, 34.932129 ], [ -91.725792, 34.932884 ], [ -91.718132, 34.933857 ], [ -91.713722, 34.934624 ], [ -91.710976, 34.93483 ], [ -91.710846, 34.941597 ], [ -91.710533, 34.941811 ], [ -91.697868, 34.941517 ], [ -91.692862, 34.941889 ], [ -91.692889, 34.942317 ], [ -91.690812, 34.942591 ], [ -91.690659, 34.948225 ], [ -91.691106, 34.948576 ], [ -91.692928, 34.948557 ], [ -91.69116, 35.034174 ], [ -91.691218, 35.035805 ], [ -91.717316, 35.036081 ], [ -91.718369, 35.021608 ], [ -91.744568, 35.021957 ], [ -91.744865, 35.009983 ], [ -91.737746, 35.003656 ], [ -91.737054, 35.00261 ], [ -91.736783, 35.001686 ], [ -91.736786, 34.989826 ], [ -91.737053, 34.982914 ], [ -91.736862, 34.979225 ], [ -91.734879, 34.975685 ], [ -91.734939, 34.974307 ], [ -91.739885, 34.968875 ], [ -91.741744, 34.967982 ], [ -91.743787, 34.967934 ], [ -91.746072, 34.966377 ] ] ] } }
]
}
