{
"type": "FeatureCollection",
"name": "72075",
"crs": { "type": "name", "properties": { "name": "urn:ogc:def:crs:OGC:1.3:CRS84" } },
"features": [
{ "type": "Feature", "properties": { "Name": "", "Description": "" }, "geometry": { "type": "Polygon", "coordinates": [ [ [ -91.314438, 35.643536 ], [ -91.314464, 35.642327 ], [ -91.314179, 35.642136 ], [ -91.313616, 35.641603 ], [ -91.313183, 35.641003 ], [ -91.312792, 35.640566 ], [ -91.31249, 35.639772 ], [ -91.31237, 35.63858 ], [ -91.308188, 35.640283 ], [ -91.3099, 35.6435 ], [ -91.3107, 35.64304 ], [ -91.30984, 35.64156 ], [ -91.31239, 35.64056 ], [ -91.314438, 35.643536 ] ] ] } }
]
}
