{
"type": "FeatureCollection",
"name": "72133",
"crs": { "type": "name", "properties": { "name": "urn:ogc:def:crs:OGC:1.3:CRS84" } },
"features": [
{ "type": "Feature", "properties": { "Name": "", "Description": "" }, "geometry": { "type": "Polygon", "coordinates": [ [ [ -91.610099, 34.101058 ], [ -91.610721, 34.097773 ], [ -91.608856, 34.092075 ], [ -91.606426, 34.088995 ], [ -91.603509, 34.08719 ], [ -91.599955, 34.086082 ], [ -91.59681, 34.085492 ], [ -91.592112, 34.085701 ], [ -91.587157, 34.087215 ], [ -91.583901, 34.088804 ], [ -91.580591, 34.091044 ], [ -91.577868, 34.093324 ], [ -91.569773, 34.101274 ], [ -91.567856, 34.102767 ], [ -91.563621, 34.104681 ], [ -91.561458, 34.105253 ], [ -91.557819, 34.105729 ], [ -91.554142, 34.105766 ], [ -91.547073, 34.104886 ], [ -91.541304, 34.103466 ], [ -91.538726, 34.102605 ], [ -91.533184, 34.099963 ], [ -91.531159, 34.098614 ], [ -91.528667, 34.096284 ], [ -91.521544, 34.087505 ], [ -91.516902, 34.081701 ], [ -91.513517, 34.078135 ], [ -91.511027, 34.076181 ], [ -91.507743, 34.074384 ], [ -91.504963, 34.073496 ], [ -91.500687, 34.072856 ], [ -91.497227, 34.072951 ], [ -91.490502, 34.074478 ], [ -91.489302, 34.073253 ], [ -91.48927, 34.071934 ], [ -91.490767, 34.06793 ], [ -91.490976, 34.066459 ], [ -91.490214, 34.062717 ], [ -91.487601, 34.060141 ], [ -91.483388, 34.058694 ], [ -91.479528, 34.059128 ], [ -91.478338, 34.059476 ], [ -91.477823, 34.059649 ], [ -91.476454, 34.060017 ], [ -91.475622, 34.060195 ], [ -91.466911, 34.061597 ], [ -91.46319, 34.063926 ], [ -91.461021, 34.066723 ], [ -91.460017, 34.069464 ], [ -91.460126, 34.072242 ], [ -91.461876, 34.075752 ], [ -91.464283, 34.078045 ], [ -91.465245, 34.080118 ], [ -91.465075, 34.083183 ], [ -91.464098, 34.084404 ], [ -91.462265, 34.08547 ], [ -91.460486, 34.085742 ], [ -91.453398, 34.085584 ], [ -91.448968, 34.083322 ], [ -91.445074, 34.080577 ], [ -91.442923, 34.081075 ], [ -91.440367, 34.081722 ], [ -91.438831, 34.082736 ], [ -91.442168, 34.083776 ], [ -91.443897, 34.085015 ], [ -91.444767, 34.087166 ], [ -91.444728, 34.095523 ], [ -91.446035, 34.097848 ], [ -91.448103, 34.099228 ], [ -91.451701, 34.099772 ], [ -91.46659, 34.099403 ], [ -91.469971, 34.100809 ], [ -91.477898, 34.104696 ], [ -91.487186, 34.105798 ], [ -91.488769, 34.108351 ], [ -91.490713, 34.109666 ], [ -91.495845, 34.109792 ], [ -91.500224, 34.108261 ], [ -91.50566, 34.105425 ], [ -91.507577, 34.104724 ], [ -91.530777, 34.103797 ], [ -91.535774, 34.107337 ], [ -91.545682, 34.109239 ], [ -91.547025, 34.109714 ], [ -91.549805, 34.109781 ], [ -91.551209, 34.110594 ], [ -91.564559, 34.110957 ], [ -91.569071, 34.112812 ], [ -91.569617, 34.113511 ], [ -91.573744, 34.113342 ], [ -91.573901, 34.112206 ], [ -91.577894, 34.109308 ], [ -91.581508, 34.117128 ], [ -91.573558, 34.124427 ], [ -91.571998, 34.126254 ], [ -91.570941, 34.129321 ], [ -91.566444, 34.152606 ], [ -91.565175, 34.156633 ], [ -91.567763, 34.158821 ], [ -91.570094, 34.160106 ], [ -91.570765, 34.162051 ], [ -91.573634, 34.163364 ], [ -91.575097, 34.164966 ], [ -91.575874, 34.167206 ], [ -91.578777, 34.170719 ], [ -91.578049, 34.171887 ], [ -91.578396, 34.172925 ], [ -91.580125, 34.173358 ], [ -91.578454, 34.174734 ], [ -91.578611, 34.176163 ], [ -91.576535, 34.17747 ], [ -91.577226, 34.179329 ], [ -91.578769, 34.17839 ], [ -91.579645, 34.178692 ], [ -91.583179, 34.178614 ], [ -91.583264, 34.173508 ], [ -91.585829, 34.173761 ], [ -91.589842, 34.173132 ], [ -91.60029, 34.173574 ], [ -91.601334, 34.132522 ], [ -91.602955, 34.131997 ], [ -91.603612, 34.131245 ], [ -91.601306, 34.131946 ], [ -91.598014, 34.132904 ], [ -91.593749, 34.133428 ], [ -91.589958, 34.133369 ], [ -91.587924, 34.132574 ], [ -91.58505, 34.130365 ], [ -91.582524, 34.127362 ], [ -91.582394, 34.125133 ], [ -91.585242, 34.122596 ], [ -91.589818, 34.120254 ], [ -91.595064, 34.1201 ], [ -91.598348, 34.119613 ], [ -91.60246, 34.117872 ], [ -91.605709, 34.114397 ], [ -91.605825, 34.112209 ], [ -91.606137, 34.110348 ], [ -91.610099, 34.101058 ] ] ] } }
]
}
