{
"type": "FeatureCollection",
"name": "72178",
"crs": { "type": "name", "properties": { "name": "urn:ogc:def:crs:OGC:1.3:CRS84" } },
"features": [
{ "type": "Feature", "properties": { "Name": "", "Description": "" }, "geometry": { "type": "Polygon", "coordinates": [ [ [ -91.618883, 35.208837 ], [ -91.618903, 35.207291 ], [ -91.616859, 35.206329 ], [ -91.61335, 35.208454 ], [ -91.610718, 35.20554 ], [ -91.613228, 35.203915 ], [ -91.613029, 35.205883 ], [ -91.616768, 35.203339 ], [ -91.616832, 35.201502 ], [ -91.612391, 35.201481 ], [ -91.612434, 35.197805 ], [ -91.610242, 35.197794 ], [ -91.610205, 35.201471 ], [ -91.608192, 35.202183 ], [ -91.608078, 35.202925 ], [ -91.608124, 35.204029 ], [ -91.605972, 35.203335 ], [ -91.603725, 35.2032 ], [ -91.608205, 35.204464 ], [ -91.61295, 35.208882 ], [ -91.618883, 35.208837 ] ] ] } }
]
}
