{
"type": "FeatureCollection",
"name": "72180",
"crs": { "type": "name", "properties": { "name": "urn:ogc:def:crs:OGC:1.3:CRS84" } },
"features": [
{ "type": "Feature", "properties": { "Name": "", "Description": "" }, "geometry": { "type": "Polygon", "coordinates": [ [ [ -92.220293, 34.533126 ], [ -92.220391, 34.531329 ], [ -92.217383, 34.531606 ], [ -92.216734, 34.529354 ], [ -92.212549, 34.529266 ], [ -92.213628, 34.527396 ], [ -92.211007, 34.52796 ], [ -92.211268, 34.528921 ], [ -92.211302, 34.529204 ], [ -92.211176, 34.529348 ], [ -92.211803, 34.532257 ], [ -92.212994, 34.532982 ], [ -92.220293, 34.533126 ] ] ] } }
]
}
