{
"type": "FeatureCollection",
"name": "72182",
"crs": { "type": "name", "properties": { "name": "urn:ogc:def:crs:OGC:1.3:CRS84" } },
"features": [
{ "type": "Feature", "properties": { "Name": "", "Description": "" }, "geometry": { "type": "Polygon", "coordinates": [ [ [ -92.121227, 34.434344 ], [ -92.120799, 34.429935 ], [ -92.120092, 34.431385 ], [ -92.118596, 34.428684 ], [ -92.11561, 34.424763 ], [ -92.111964, 34.421285 ], [ -92.11018, 34.420028 ], [ -92.107861, 34.42115 ], [ -92.105997, 34.418345 ], [ -92.103248, 34.416306 ], [ -92.099688, 34.41519 ], [ -92.098078, 34.415412 ], [ -92.078175, 34.415427 ], [ -92.077358, 34.415632 ], [ -92.069629, 34.420952 ], [ -92.066359, 34.422785 ], [ -92.06627, 34.434841 ], [ -92.067954, 34.434863 ], [ -92.067974, 34.436163 ], [ -92.066208, 34.436926 ], [ -92.066107, 34.441234 ], [ -92.069453, 34.441095 ], [ -92.068057, 34.442294 ], [ -92.066102, 34.442244 ], [ -92.065985, 34.445937 ], [ -92.065011, 34.449502 ], [ -92.052742, 34.449572 ], [ -92.052661, 34.453098 ], [ -92.057962, 34.461767 ], [ -92.055985, 34.466108 ], [ -92.055513, 34.470569 ], [ -92.053682, 34.471133 ], [ -92.055872, 34.471402 ], [ -92.061262, 34.467291 ], [ -92.060266, 34.464278 ], [ -92.060565, 34.463146 ], [ -92.06293, 34.460259 ], [ -92.063752, 34.457432 ], [ -92.064315, 34.452745 ], [ -92.067429, 34.443671 ], [ -92.070199, 34.44109 ], [ -92.072184, 34.44025 ], [ -92.081783, 34.437574 ], [ -92.082278, 34.436366 ], [ -92.08325, 34.436742 ], [ -92.086939, 34.436191 ], [ -92.090748, 34.436295 ], [ -92.097854, 34.437046 ], [ -92.101071, 34.436254 ], [ -92.109498, 34.437554 ], [ -92.113899, 34.439965 ], [ -92.118648, 34.437105 ], [ -92.121227, 34.434344 ] ] ] } }
]
}
