{
"type": "FeatureCollection",
"name": "72199",
"crs": { "type": "name", "properties": { "name": "urn:ogc:def:crs:OGC:1.3:CRS84" } },
"features": [
{ "type": "Feature", "properties": { "Name": "", "Description": "" }, "geometry": { "type": "Polygon", "coordinates": [ [ [ -92.321082, 34.830527 ], [ -92.321128, 34.82803 ], [ -92.312461, 34.827956 ], [ -92.312531, 34.824484 ], [ -92.308104, 34.824428 ], [ -92.308065, 34.821478 ], [ -92.305779, 34.820409 ], [ -92.299174, 34.820393 ], [ -92.299162, 34.816558 ], [ -92.295155, 34.81641 ], [ -92.294672, 34.81291 ], [ -92.289272, 34.812822 ], [ -92.290837, 34.814862 ], [ -92.289016, 34.81786 ], [ -92.288063, 34.821724 ], [ -92.282738, 34.819715 ], [ -92.281765, 34.821421 ], [ -92.27717, 34.819688 ], [ -92.277143, 34.821319 ], [ -92.270061, 34.818185 ], [ -92.267874, 34.818257 ], [ -92.265731, 34.819242 ], [ -92.265282, 34.820202 ], [ -92.264736, 34.821152 ], [ -92.263954, 34.822986 ], [ -92.263181, 34.825365 ], [ -92.262864, 34.826844 ], [ -92.261325, 34.834787 ], [ -92.261585, 34.836301 ], [ -92.26233, 34.83717 ], [ -92.26031, 34.839424 ], [ -92.25948, 34.840905 ], [ -92.259458, 34.840953 ], [ -92.276719, 34.841216 ], [ -92.276802, 34.835101 ], [ -92.272415, 34.834767 ], [ -92.280418, 34.82919 ], [ -92.282187, 34.828168 ], [ -92.283152, 34.826759 ], [ -92.28497, 34.827287 ], [ -92.2859, 34.826162 ], [ -92.288613, 34.82822 ], [ -92.291267, 34.831963 ], [ -92.289487, 34.832875 ], [ -92.291715, 34.835645 ], [ -92.293832, 34.833815 ], [ -92.294516, 34.833518 ], [ -92.299824, 34.837204 ], [ -92.301474, 34.838474 ], [ -92.300515, 34.839395 ], [ -92.303832, 34.841543 ], [ -92.310449, 34.83496 ], [ -92.30853, 34.83363 ], [ -92.305679, 34.836381 ], [ -92.304515, 34.83555 ], [ -92.307788, 34.831768 ], [ -92.31198, 34.827996 ], [ -92.316403, 34.82926 ], [ -92.317922, 34.830421 ], [ -92.321082, 34.830527 ] ] ] } }
]
}
