{
"type": "FeatureCollection",
"name": "72313",
"crs": { "type": "name", "properties": { "name": "urn:ogc:def:crs:OGC:1.3:CRS84" } },
"features": [
{ "type": "Feature", "properties": { "Name": "", "Description": "" }, "geometry": { "type": "Polygon", "coordinates": [ [ [ -90.151972, 35.526362 ], [ -90.15227, 35.524008 ], [ -90.151788, 35.52401 ], [ -90.150471, 35.525058 ], [ -90.14517, 35.527055 ], [ -90.141631, 35.527259 ], [ -90.134636, 35.52621 ], [ -90.130105, 35.531665 ], [ -90.134252, 35.532013 ], [ -90.134187, 35.538363 ], [ -90.13636, 35.538371 ], [ -90.143388, 35.532839 ], [ -90.146617, 35.528894 ], [ -90.151972, 35.526362 ] ] ] } }
]
}
