{
"type": "FeatureCollection",
"name": "72352",
"crs": { "type": "name", "properties": { "name": "urn:ogc:def:crs:OGC:1.3:CRS84" } },
"features": [
{ "type": "Feature", "properties": { "Name": "", "Description": "" }, "geometry": { "type": "Polygon", "coordinates": [ [ [ -90.737273, 34.657466 ], [ -90.737228, 34.656753 ], [ -90.736297, 34.656756 ], [ -90.73631, 34.65373 ], [ -90.734838, 34.653732 ], [ -90.734858, 34.652963 ], [ -90.73274, 34.65287 ], [ -90.732611, 34.66055 ], [ -90.732603, 34.66105 ], [ -90.733314, 34.657389 ], [ -90.737273, 34.657466 ] ] ] } }
]
}
