{
"type": "FeatureCollection",
"name": "72369",
"crs": { "type": "name", "properties": { "name": "urn:ogc:def:crs:OGC:1.3:CRS84" } },
"features": [
{ "type": "Feature", "properties": { "Name": "", "Description": "" }, "geometry": { "type": "Polygon", "coordinates": [ [ [ -90.79451, 34.45962 ], [ -90.794437, 34.448134 ], [ -90.789224, 34.448709 ], [ -90.785675, 34.451225 ], [ -90.785712, 34.458945 ], [ -90.783569, 34.459332 ], [ -90.782181, 34.466511 ], [ -90.78497, 34.463222 ], [ -90.785723, 34.459643 ], [ -90.79451, 34.45962 ] ] ] } }
]
}
