{
"type": "FeatureCollection",
"name": "72391",
"crs": { "type": "name", "properties": { "name": "urn:ogc:def:crs:OGC:1.3:CRS84" } },
"features": [
{ "type": "Feature", "properties": { "Name": "", "Description": "" }, "geometry": { "type": "Polygon", "coordinates": [ [ [ -90.286661, 35.692105 ], [ -90.286284, 35.660415 ], [ -90.286297, 35.656074 ], [ -90.276139, 35.655996 ], [ -90.267285, 35.660717 ], [ -90.267402, 35.670497 ], [ -90.250132, 35.669947 ], [ -90.240731, 35.675057 ], [ -90.240711, 35.677387 ], [ -90.244867, 35.677212 ], [ -90.245233, 35.68464 ], [ -90.260951, 35.684861 ], [ -90.258281, 35.687481 ], [ -90.25505, 35.691756 ], [ -90.26749, 35.692319 ], [ -90.279279, 35.692361 ], [ -90.286661, 35.692105 ] ] ] } }
]
}
