{
"type": "FeatureCollection",
"name": "72829",
"crs": { "type": "name", "properties": { "name": "urn:ogc:def:crs:OGC:1.3:CRS84" } },
"features": [
{ "type": "Feature", "properties": { "Name": "", "Description": "" }, "geometry": { "type": "Polygon", "coordinates": [ [ [ -93.183239, 35.094848 ], [ -93.185079, 35.091087 ], [ -93.180813, 35.090515 ], [ -93.180386, 35.091904 ], [ -93.170585, 35.098634 ], [ -93.170226, 35.099224 ], [ -93.169444, 35.105465 ], [ -93.168792, 35.111514 ], [ -93.16896, 35.112865 ], [ -93.169258, 35.115475 ], [ -93.168494, 35.11888 ], [ -93.170275, 35.118905 ], [ -93.173843, 35.11288 ], [ -93.179905, 35.11217 ], [ -93.177376, 35.109939 ], [ -93.176177, 35.109941 ], [ -93.177627, 35.108225 ], [ -93.175169, 35.107698 ], [ -93.174929, 35.10596 ], [ -93.1766, 35.106047 ], [ -93.178587, 35.106589 ], [ -93.18026, 35.100689 ], [ -93.181565, 35.099761 ], [ -93.182628, 35.097332 ], [ -93.183239, 35.094848 ] ] ] } }
]
}
