{
"type": "FeatureCollection",
"name": "72905",
"crs": { "type": "name", "properties": { "name": "urn:ogc:def:crs:OGC:1.3:CRS84" } },
"features": [
{ "type": "Feature", "properties": { "Name": "", "Description": "" }, "geometry": { "type": "Polygon", "coordinates": [ [ [ -94.299609, 35.265592 ], [ -94.299253, 35.265596 ], [ -94.28563, 35.25803 ], [ -94.285829, 35.254269 ], [ -94.280992, 35.254269 ], [ -94.271913, 35.254002 ], [ -94.271987, 35.252164 ], [ -94.272001, 35.251863 ], [ -94.272269, 35.246691 ], [ -94.267525, 35.246517 ], [ -94.267553, 35.242824 ], [ -94.263383, 35.242925 ], [ -94.263351, 35.239591 ], [ -94.258939, 35.239451 ], [ -94.258961, 35.235927 ], [ -94.254079, 35.235915 ], [ -94.2545, 35.231784 ], [ -94.252728, 35.23177 ], [ -94.252703, 35.229754 ], [ -94.243371, 35.229622 ], [ -94.234821, 35.229387 ], [ -94.234766, 35.232864 ], [ -94.219488, 35.232491 ], [ -94.217994, 35.233673 ], [ -94.217678, 35.234457 ], [ -94.212339, 35.235889 ], [ -94.211675, 35.237427 ], [ -94.208799, 35.241143 ], [ -94.207239, 35.244495 ], [ -94.202695, 35.247739 ], [ -94.202337, 35.248824 ], [ -94.202161, 35.251021 ], [ -94.203008, 35.256851 ], [ -94.201831, 35.268888 ], [ -94.201455, 35.281567 ], [ -94.244676, 35.282577 ], [ -94.244354, 35.295397 ], [ -94.25021, 35.293051 ], [ -94.251307, 35.293118 ], [ -94.253138, 35.291994 ], [ -94.253613, 35.279128 ], [ -94.273764, 35.279482 ], [ -94.278213, 35.276152 ], [ -94.279899, 35.276907 ], [ -94.281943, 35.277006 ], [ -94.284638, 35.275524 ], [ -94.285754, 35.276058 ], [ -94.285904, 35.273619 ], [ -94.287289, 35.275089 ], [ -94.289102, 35.276407 ], [ -94.290387, 35.275889 ], [ -94.290359, 35.274248 ], [ -94.292313, 35.274975 ], [ -94.292581, 35.273979 ], [ -94.294533, 35.27191 ], [ -94.29749, 35.271519 ], [ -94.297509, 35.2694 ], [ -94.296275, 35.267698 ], [ -94.299609, 35.265592 ] ] ] } }
]
}
