{
"type": "FeatureCollection",
"name": "73001",
"crs": { "type": "name", "properties": { "name": "urn:ogc:def:crs:OGC:1.3:CRS84" } },
"features": [
{ "type": "Feature", "properties": { "Name": "", "Description": "" }, "geometry": { "type": "Polygon", "coordinates": [ [ [ -98.429697, 35.247525 ], [ -98.429796, 35.204121 ], [ -98.412077, 35.204097 ], [ -98.412056, 35.218584 ], [ -98.394471, 35.218526 ], [ -98.394458, 35.225798 ], [ -98.401503, 35.233037 ], [ -98.412046, 35.24435 ], [ -98.41507, 35.247462 ], [ -98.429697, 35.247525 ] ] ] } }
]
}
