{
"type": "FeatureCollection",
"name": "73022",
"crs": { "type": "name", "properties": { "name": "urn:ogc:def:crs:OGC:1.3:CRS84" } },
"features": [
{ "type": "Feature", "properties": { "Name": "", "Description": "" }, "geometry": { "type": "Polygon", "coordinates": [ [ [ -97.994761, 35.623802 ], [ -97.994677, 35.618116 ], [ -97.9943, 35.614483 ], [ -97.993788, 35.611874 ], [ -97.993873, 35.609499 ], [ -97.992856, 35.609412 ], [ -97.990052, 35.609395 ], [ -97.99008, 35.623791 ], [ -97.994761, 35.623802 ] ] ] } }
]
}
