{
"type": "FeatureCollection",
"name": "73435",
"crs": { "type": "name", "properties": { "name": "urn:ogc:def:crs:OGC:1.3:CRS84" } },
"features": [
{ "type": "Feature", "properties": { "Name": "", "Description": "" }, "geometry": { "type": "Polygon", "coordinates": [ [ [ -97.497726, 34.349148 ], [ -97.498948, 34.349116 ], [ -97.496952, 34.347224 ], [ -97.492542, 34.347225 ], [ -97.492498, 34.359223 ], [ -97.491059, 34.359266 ], [ -97.488299, 34.361615 ], [ -97.488649, 34.365079 ], [ -97.48791, 34.366571 ], [ -97.484093, 34.368435 ], [ -97.48357, 34.368279 ], [ -97.485519, 34.370494 ], [ -97.48757, 34.371849 ], [ -97.489442, 34.371156 ], [ -97.491234, 34.368841 ], [ -97.494173, 34.368362 ], [ -97.495698, 34.36703 ], [ -97.49475, 34.364898 ], [ -97.496784, 34.360432 ], [ -97.498266, 34.356375 ], [ -97.49819, 34.354318 ], [ -97.496499, 34.354354 ], [ -97.497749, 34.351837 ], [ -97.497726, 34.349148 ] ] ] } }
]
}
