{
"type": "FeatureCollection",
"name": "73436",
"crs": { "type": "name", "properties": { "name": "urn:ogc:def:crs:OGC:1.3:CRS84" } },
"features": [
{ "type": "Feature", "properties": { "Name": "", "Description": "" }, "geometry": { "type": "Polygon", "coordinates": [ [ [ -97.042598, 34.288621 ], [ -97.042619, 34.281584 ], [ -97.040337, 34.281554 ], [ -97.040333, 34.277866 ], [ -97.038109, 34.277865 ], [ -97.036105, 34.277879 ], [ -97.036063, 34.281505 ], [ -97.034986, 34.281502 ], [ -97.034988, 34.288909 ], [ -97.034988, 34.289702 ], [ -97.038342, 34.289733 ], [ -97.038384, 34.288928 ], [ -97.037876, 34.287048 ], [ -97.038578, 34.286866 ], [ -97.03938, 34.288636 ], [ -97.042598, 34.288621 ] ] ] } }
]
}
