{
"type": "FeatureCollection",
"name": "73488",
"crs": { "type": "name", "properties": { "name": "urn:ogc:def:crs:OGC:1.3:CRS84" } },
"features": [
{ "type": "Feature", "properties": { "Name": "", "Description": "" }, "geometry": { "type": "Polygon", "coordinates": [ [ [ -97.562375, 34.485329 ], [ -97.562388, 34.477779 ], [ -97.544863, 34.47771 ], [ -97.544795, 34.483352 ], [ -97.541334, 34.484335 ], [ -97.541138, 34.489175 ], [ -97.542482, 34.492099 ], [ -97.542707, 34.494093 ], [ -97.542055, 34.494759 ], [ -97.535501, 34.496698 ], [ -97.531712, 34.495323 ], [ -97.529977, 34.496581 ], [ -97.527106, 34.497552 ], [ -97.525836, 34.496776 ], [ -97.522876, 34.497334 ], [ -97.523054, 34.502552 ], [ -97.522062, 34.506995 ], [ -97.562323, 34.507036 ], [ -97.562375, 34.485329 ] ] ] } }
]
}
