{
"type": "FeatureCollection",
"name": "73523",
"crs": { "type": "name", "properties": { "name": "urn:ogc:def:crs:OGC:1.3:CRS84" } },
"features": [
{ "type": "Feature", "properties": { "Name": "", "Description": "" }, "geometry": { "type": "Polygon", "coordinates": [ [ [ -99.289824, 34.657355 ], [ -99.289845, 34.655731 ], [ -99.288052, 34.655216 ], [ -99.288074, 34.648136 ], [ -99.286533, 34.647051 ], [ -99.284614, 34.64966 ], [ -99.286021, 34.650822 ], [ -99.280236, 34.655218 ], [ -99.280253, 34.657512 ], [ -99.284053, 34.660678 ], [ -99.288042, 34.660728 ], [ -99.288051, 34.657345 ], [ -99.289824, 34.657355 ] ] ] } }
]
}
