{
"type": "FeatureCollection",
"name": "73668",
"crs": { "type": "name", "properties": { "name": "urn:ogc:def:crs:OGC:1.3:CRS84" } },
"features": [
{ "type": "Feature", "properties": { "Name": "", "Description": "" }, "geometry": { "type": "Polygon", "coordinates": [ [ [ -100.000386054011003, 35.248413999966999 ], [ -100.000385600949002, 35.220167997680598 ], [ -100.000385585790994, 35.219222997921399 ], [ -100.000385354008003, 35.204772528649997 ], [ -100.000123, 35.204675 ], [ -99.976985, 35.20465 ], [ -99.964633, 35.204636 ], [ -99.965008, 35.204989 ], [ -99.964994, 35.219027 ], [ -99.947287, 35.219035 ], [ -99.947181, 35.231631 ], [ -99.953577, 35.232078 ], [ -99.958964, 35.232023 ], [ -99.963399, 35.231633 ], [ -99.991462, 35.22783 ], [ -99.991461, 35.230601 ], [ -99.991446, 35.233723 ], [ -99.982537, 35.233686 ], [ -99.982446, 35.248143 ], [ -100.000386054011003, 35.248413999966999 ] ] ] } }
]
}
