{
"type": "FeatureCollection",
"name": "73770",
"crs": { "type": "name", "properties": { "name": "urn:ogc:def:crs:OGC:1.3:CRS84" } },
"features": [
{ "type": "Feature", "properties": { "Name": "", "Description": "" }, "geometry": { "type": "Polygon", "coordinates": [ [ [ -98.511983, 36.043261 ], [ -98.51206, 36.028839 ], [ -98.494315, 36.028652 ], [ -98.494374, 36.057612 ], [ -98.479839, 36.057387 ], [ -98.48046, 36.060162 ], [ -98.482643, 36.063391 ], [ -98.482892, 36.064705 ], [ -98.482518, 36.066115 ], [ -98.477609, 36.074643 ], [ -98.476651, 36.079075 ], [ -98.494285, 36.079117 ], [ -98.494367, 36.065085 ], [ -98.511935, 36.06511 ], [ -98.511928, 36.05777 ], [ -98.511983, 36.043261 ] ] ] } }
]
}
