{
"type": "FeatureCollection",
"name": "73960",
"crs": { "type": "name", "properties": { "name": "urn:ogc:def:crs:OGC:1.3:CRS84" } },
"features": [
{ "type": "Feature", "properties": { "Name": "", "Description": "" }, "geometry": { "type": "Polygon", "coordinates": [ [ [ -101.788401, 36.499536 ], [ -101.808177, 36.487762 ], [ -101.787047, 36.487653 ], [ -101.783295, 36.487634 ], [ -101.783238, 36.494907 ], [ -101.78588, 36.494901 ], [ -101.785878, 36.49596 ], [ -101.788422, 36.497017 ], [ -101.788401, 36.499536 ] ] ] } }
]
}
