{
"type": "FeatureCollection",
"name": "74077",
"crs": { "type": "name", "properties": { "name": "urn:ogc:def:crs:OGC:1.3:CRS84" } },
"features": [
{ "type": "Feature", "properties": { "Name": "", "Description": "" }, "geometry": { "type": "Polygon", "coordinates": [ [ [ -97.075729, 36.124695 ], [ -97.075655, 36.121435 ], [ -97.075349, 36.120966 ], [ -97.073851, 36.120873 ], [ -97.073858, 36.119654 ], [ -97.071827, 36.119691 ], [ -97.069287, 36.119687 ], [ -97.066804, 36.119684 ], [ -97.06768, 36.121787 ], [ -97.065043, 36.121779 ], [ -97.065045, 36.122173 ], [ -97.06504, 36.125207 ], [ -97.062689, 36.125238 ], [ -97.062713, 36.130503 ], [ -97.063458, 36.130502 ], [ -97.064964, 36.130499 ], [ -97.065002, 36.126807 ], [ -97.067724, 36.126805 ], [ -97.071819, 36.126794 ], [ -97.071799, 36.124606 ], [ -97.075729, 36.124695 ] ] ] } }
]
}
