{
"type": "FeatureCollection",
"name": "74171",
"crs": { "type": "name", "properties": { "name": "urn:ogc:def:crs:OGC:1.3:CRS84" } },
"features": [
{ "type": "Feature", "properties": { "Name": "", "Description": "" }, "geometry": { "type": "Polygon", "coordinates": [ [ [ -95.957847, 36.055441 ], [ -95.957833, 36.046412 ], [ -95.949071, 36.046422 ], [ -95.946761, 36.04644 ], [ -95.946751, 36.051516 ], [ -95.946747, 36.053562 ], [ -95.948302, 36.053631 ], [ -95.949546, 36.054736 ], [ -95.952811, 36.054737 ], [ -95.953339, 36.055397 ], [ -95.957847, 36.055441 ] ] ] } }
]
}
