{
"type": "FeatureCollection",
"name": "74721",
"crs": { "type": "name", "properties": { "name": "urn:ogc:def:crs:OGC:1.3:CRS84" } },
"features": [
{ "type": "Feature", "properties": { "Name": "", "Description": "" }, "geometry": { "type": "Polygon", "coordinates": [ [ [ -96.165528, 33.879045 ], [ -96.165533, 33.87803 ], [ -96.161897, 33.878094 ], [ -96.1612, 33.879964 ], [ -96.161324, 33.881117 ], [ -96.16, 33.882137 ], [ -96.161766, 33.88215 ], [ -96.163044, 33.881174 ], [ -96.163016, 33.879089 ], [ -96.165528, 33.879045 ] ] ] } }
]
}
