{
"type": "FeatureCollection",
"name": "74737",
"crs": { "type": "name", "properties": { "name": "urn:ogc:def:crs:OGC:1.3:CRS84" } },
"features": [
{ "type": "Feature", "properties": { "Name": "", "Description": "" }, "geometry": { "type": "Polygon", "coordinates": [ [ [ -94.913379, 34.03294 ], [ -94.913403, 34.026352 ], [ -94.909049, 34.026343 ], [ -94.898057, 34.026313 ], [ -94.896081, 34.026302 ], [ -94.895957, 34.026237 ], [ -94.88725, 34.026302 ], [ -94.887261, 34.035256 ], [ -94.895956, 34.034503 ], [ -94.895953, 34.040224 ], [ -94.900438, 34.040798 ], [ -94.900359, 34.034174 ], [ -94.909032, 34.033382 ], [ -94.913379, 34.03294 ] ] ] } }
]
}
