{
"type": "FeatureCollection",
"name": "74866",
"crs": { "type": "name", "properties": { "name": "urn:ogc:def:crs:OGC:1.3:CRS84" } },
"features": [
{ "type": "Feature", "properties": { "Name": "", "Description": "" }, "geometry": { "type": "Polygon", "coordinates": [ [ [ -96.879522, 35.072597 ], [ -96.879496, 35.069892 ], [ -96.865722, 35.059877 ], [ -96.862393, 35.058051 ], [ -96.844239, 35.05801 ], [ -96.826203, 35.057944 ], [ -96.826799, 35.065239 ], [ -96.822403, 35.065239 ], [ -96.822272, 35.072599 ], [ -96.813629, 35.072473 ], [ -96.813566, 35.076012 ], [ -96.817551, 35.076033 ], [ -96.816376, 35.078449 ], [ -96.816311, 35.078942 ], [ -96.817306, 35.078063 ], [ -96.818095, 35.077599 ], [ -96.826745, 35.074243 ], [ -96.829903, 35.073034 ], [ -96.832015, 35.07249 ], [ -96.844239, 35.072519 ], [ -96.879522, 35.072597 ] ] ] } }
]
}
