{
"type": "FeatureCollection",
"name": "74947",
"crs": { "type": "name", "properties": { "name": "urn:ogc:def:crs:OGC:1.3:CRS84" } },
"features": [
{ "type": "Feature", "properties": { "Name": "", "Description": "" }, "geometry": { "type": "Polygon", "coordinates": [ [ [ -94.522731, 34.992976 ], [ -94.522731, 34.985545 ], [ -94.514062, 34.985492 ], [ -94.513718, 34.985464 ], [ -94.510894, 34.98954 ], [ -94.50885, 34.990831 ], [ -94.508388, 34.993211 ], [ -94.507593, 34.993859 ], [ -94.508004, 34.995706 ], [ -94.506106, 34.996554 ], [ -94.52272, 34.996777 ], [ -94.522729, 34.994606 ], [ -94.518431, 34.994545 ], [ -94.518439, 34.993022 ], [ -94.522731, 34.992976 ] ] ] } }
]
}
