{
"type": "FeatureCollection",
"name": "75033",
"crs": { "type": "name", "properties": { "name": "urn:ogc:def:crs:OGC:1.3:CRS84" } },
"features": [
{ "type": "Feature", "properties": { "Name": "", "Description": "" }, "geometry": { "type": "Polygon", "coordinates": [ [ [ -96.89919, 33.158063 ], [ -96.899554, 33.1546 ], [ -96.89796, 33.15458 ], [ -96.890756, 33.153561 ], [ -96.890753, 33.153371 ], [ -96.878587, 33.153191 ], [ -96.873121, 33.153109 ], [ -96.872111, 33.15316 ], [ -96.871997, 33.153159 ], [ -96.864124, 33.153026 ], [ -96.857767, 33.152928 ], [ -96.855487, 33.152921 ], [ -96.848652, 33.152887 ], [ -96.848021, 33.152805 ], [ -96.846546, 33.15265 ], [ -96.840428, 33.15252 ], [ -96.840455, 33.151874 ], [ -96.839603, 33.145888 ], [ -96.838788, 33.145709 ], [ -96.839378, 33.150266 ], [ -96.837216, 33.150485 ], [ -96.837521, 33.152673 ], [ -96.83208, 33.152898 ], [ -96.828784, 33.152363 ], [ -96.828767, 33.152431 ], [ -96.827649, 33.151339 ], [ -96.820718, 33.149934 ], [ -96.810587, 33.149793 ], [ -96.808859, 33.150045 ], [ -96.804523, 33.152503 ], [ -96.803374, 33.152881 ], [ -96.803205, 33.163196 ], [ -96.803058, 33.17446 ], [ -96.803058, 33.174656 ], [ -96.803054, 33.178812 ], [ -96.802918, 33.18965 ], [ -96.802858, 33.196798 ], [ -96.802561, 33.215224 ], [ -96.802439, 33.216524 ], [ -96.801986, 33.218625 ], [ -96.8019, 33.218918 ], [ -96.838803, 33.219386 ], [ -96.87258, 33.219099 ], [ -96.880345, 33.21906 ], [ -96.880462, 33.21093 ], [ -96.8804, 33.206507 ], [ -96.880439, 33.203902 ], [ -96.88071, 33.20179 ], [ -96.886077, 33.192265 ], [ -96.886381, 33.191724 ], [ -96.887017, 33.189901 ], [ -96.88714, 33.184459 ], [ -96.887147, 33.184219 ], [ -96.88727, 33.17951 ], [ -96.88733, 33.178471 ], [ -96.887137, 33.178468 ], [ -96.881942, 33.178339 ], [ -96.881951, 33.178184 ], [ -96.882112, 33.167489 ], [ -96.882629, 33.166778 ], [ -96.885864, 33.166716 ], [ -96.889717, 33.165501 ], [ -96.890593, 33.164739 ], [ -96.891994, 33.16436 ], [ -96.893195, 33.161741 ], [ -96.895579, 33.160567 ], [ -96.896871, 33.15878 ], [ -96.89919, 33.158063 ] ] ] } }
]
}
