{
"type": "FeatureCollection",
"name": "75261",
"crs": { "type": "name", "properties": { "name": "urn:ogc:def:crs:OGC:1.3:CRS84" } },
"features": [
{ "type": "Feature", "properties": { "Name": "", "Description": "" }, "geometry": { "type": "Polygon", "coordinates": [ [ [ -97.091288, 32.914285 ], [ -97.092359, 32.912945 ], [ -97.089539, 32.910131 ], [ -97.089987, 32.909212 ], [ -97.082168, 32.902713 ], [ -97.082316, 32.891753 ], [ -97.080344, 32.889065 ], [ -97.076073, 32.881099 ], [ -97.073682, 32.877584 ], [ -97.066842, 32.86953 ], [ -97.06569, 32.867282 ], [ -97.064828, 32.864621 ], [ -97.064559, 32.86079 ], [ -97.064558, 32.855274 ], [ -97.064143, 32.851632 ], [ -97.062359, 32.84534 ], [ -97.061749, 32.843286 ], [ -97.061294, 32.839827 ], [ -97.061287, 32.83784 ], [ -97.057246, 32.838644 ], [ -97.054039, 32.83852 ], [ -97.046403, 32.837055 ], [ -97.036495, 32.836916 ], [ -97.03386, 32.83695 ], [ -97.033857, 32.837134 ], [ -97.03384, 32.838532 ], [ -97.033577, 32.852753 ], [ -97.033088, 32.878493 ], [ -97.032625, 32.904289 ], [ -97.032334, 32.920167 ], [ -97.032237, 32.925592 ], [ -97.039206, 32.92635 ], [ -97.047444, 32.92612 ], [ -97.05645, 32.923672 ], [ -97.057871, 32.922486 ], [ -97.059917, 32.919627 ], [ -97.06363, 32.917881 ], [ -97.067542, 32.917619 ], [ -97.073429, 32.91765 ], [ -97.078304, 32.918194 ], [ -97.085879, 32.918279 ], [ -97.086949, 32.916874 ], [ -97.091288, 32.914285 ] ] ] } }
]
}
