{
"type": "FeatureCollection",
"name": "75434",
"crs": { "type": "name", "properties": { "name": "urn:ogc:def:crs:OGC:1.3:CRS84" } },
"features": [
{ "type": "Feature", "properties": { "Name": "", "Description": "" }, "geometry": { "type": "Polygon", "coordinates": [ [ [ -95.425415, 33.439067 ], [ -95.425388, 33.438117 ], [ -95.424334, 33.435203 ], [ -95.420913, 33.429962 ], [ -95.418823, 33.427714 ], [ -95.416409, 33.427051 ], [ -95.413186, 33.426787 ], [ -95.407995, 33.424881 ], [ -95.400436, 33.42317 ], [ -95.385765, 33.419266 ], [ -95.384137, 33.418511 ], [ -95.366341, 33.403413 ], [ -95.35921, 33.397059 ], [ -95.35613, 33.390953 ], [ -95.356094, 33.390701 ], [ -95.355416, 33.39006 ], [ -95.353887, 33.386894 ], [ -95.352426, 33.387487 ], [ -95.350796, 33.387009 ], [ -95.35081, 33.387784 ], [ -95.349078, 33.387852 ], [ -95.348574, 33.388899 ], [ -95.347486, 33.388458 ], [ -95.346331, 33.389232 ], [ -95.345662, 33.387842 ], [ -95.342533, 33.388669 ], [ -95.339989, 33.387953 ], [ -95.340938, 33.385956 ], [ -95.339487, 33.384977 ], [ -95.33838, 33.386685 ], [ -95.336881, 33.386247 ], [ -95.33677, 33.387863 ], [ -95.335122, 33.386441 ], [ -95.335412, 33.38518 ], [ -95.334081, 33.384512 ], [ -95.333788, 33.386292 ], [ -95.32989, 33.385418 ], [ -95.329827, 33.384326 ], [ -95.328598, 33.382154 ], [ -95.326855, 33.382936 ], [ -95.326461, 33.382388 ], [ -95.327461, 33.380732 ], [ -95.32576, 33.380372 ], [ -95.325087, 33.381415 ], [ -95.323801, 33.380993 ], [ -95.32413, 33.379393 ], [ -95.322902, 33.380603 ], [ -95.322022, 33.379105 ], [ -95.320842, 33.379599 ], [ -95.320521, 33.380983 ], [ -95.318245, 33.38186 ], [ -95.317774, 33.380688 ], [ -95.318677, 33.379708 ], [ -95.315762, 33.380746 ], [ -95.313855, 33.380786 ], [ -95.313056, 33.379531 ], [ -95.310841, 33.379471 ], [ -95.310035, 33.380021 ], [ -95.309234, 33.378023 ], [ -95.308398, 33.377687 ], [ -95.308072, 33.37845 ], [ -95.308637, 33.380662 ], [ -95.308899, 33.427568 ], [ -95.322801, 33.42755 ], [ -95.348216, 33.426316 ], [ -95.35736, 33.42644 ], [ -95.357349, 33.428195 ], [ -95.359232, 33.428246 ], [ -95.359817, 33.42642 ], [ -95.361701, 33.426458 ], [ -95.364148, 33.427452 ], [ -95.376274, 33.427498 ], [ -95.377041, 33.427791 ], [ -95.377809, 33.429097 ], [ -95.377826, 33.435868 ], [ -95.378382, 33.437002 ], [ -95.379351, 33.437314 ], [ -95.38788, 33.437376 ], [ -95.390558, 33.438124 ], [ -95.396357, 33.438069 ], [ -95.399527, 33.438516 ], [ -95.404248, 33.440086 ], [ -95.406229, 33.440303 ], [ -95.415646, 33.44035 ], [ -95.423233, 33.440337 ], [ -95.424965, 33.440174 ], [ -95.425415, 33.439067 ] ] ] } }
]
}
