{
"type": "FeatureCollection",
"name": "75564",
"crs": { "type": "name", "properties": { "name": "urn:ogc:def:crs:OGC:1.3:CRS84" } },
"features": [
{ "type": "Feature", "properties": { "Name": "", "Description": "" }, "geometry": { "type": "Polygon", "coordinates": [ [ [ -94.273123, 32.883941 ], [ -94.27636, 32.88053 ], [ -94.225274, 32.880612 ], [ -94.226592, 32.883924 ], [ -94.226974, 32.889124 ], [ -94.228849, 32.891208 ], [ -94.230255, 32.896789 ], [ -94.233006, 32.897094 ], [ -94.237837, 32.896014 ], [ -94.237974, 32.894709 ], [ -94.242209, 32.892187 ], [ -94.24715, 32.891544 ], [ -94.247235, 32.895736 ], [ -94.250188, 32.897843 ], [ -94.251401, 32.898212 ], [ -94.255366, 32.89748 ], [ -94.258001, 32.896405 ], [ -94.261938, 32.895925 ], [ -94.265223, 32.896532 ], [ -94.271052, 32.888886 ], [ -94.273123, 32.883941 ] ] ] } }
]
}
