{
"type": "FeatureCollection",
"name": "75658",
"crs": { "type": "name", "properties": { "name": "urn:ogc:def:crs:OGC:1.3:CRS84" } },
"features": [
{ "type": "Feature", "properties": { "Name": "", "Description": "" }, "geometry": { "type": "Polygon", "coordinates": [ [ [ -94.918218, 32.179676 ], [ -94.918474, 32.177857 ], [ -94.9086, 32.177668 ], [ -94.908616, 32.176658 ], [ -94.906908, 32.176644 ], [ -94.906901, 32.175697 ], [ -94.90866, 32.175686 ], [ -94.908722, 32.166975 ], [ -94.890736, 32.167018 ], [ -94.889757, 32.167329 ], [ -94.889561, 32.169297 ], [ -94.889558, 32.176634 ], [ -94.891988, 32.177263 ], [ -94.895727, 32.177738 ], [ -94.904349, 32.177697 ], [ -94.905458, 32.180377 ], [ -94.912915, 32.184774 ], [ -94.91193, 32.187586 ], [ -94.916709, 32.190124 ], [ -94.918216, 32.189233 ], [ -94.916898, 32.185519 ], [ -94.917195, 32.184925 ], [ -94.918218, 32.179676 ] ] ] } }
]
}
