{
"type": "FeatureCollection",
"name": "75659",
"crs": { "type": "name", "properties": { "name": "urn:ogc:def:crs:OGC:1.3:CRS84" } },
"features": [
{ "type": "Feature", "properties": { "Name": "", "Description": "" }, "geometry": { "type": "Polygon", "coordinates": [ [ [ -94.118279, 32.516509 ], [ -94.116829, 32.514315 ], [ -94.110658, 32.508333 ], [ -94.110589, 32.502278 ], [ -94.111262, 32.497725 ], [ -94.105008, 32.49696 ], [ -94.100939, 32.495427 ], [ -94.099828, 32.496234 ], [ -94.099146, 32.495278 ], [ -94.096895, 32.494333 ], [ -94.094365, 32.495961 ], [ -94.091342, 32.496462 ], [ -94.089544, 32.495187 ], [ -94.088136, 32.495165 ], [ -94.084737, 32.496777 ], [ -94.083336, 32.498834 ], [ -94.080559, 32.498477 ], [ -94.080572, 32.499951 ], [ -94.078502, 32.49966 ], [ -94.077827, 32.501271 ], [ -94.076177, 32.501789 ], [ -94.076197, 32.503609 ], [ -94.075029, 32.504544 ], [ -94.073225, 32.503087 ], [ -94.071188, 32.50461 ], [ -94.067619, 32.505858 ], [ -94.067627, 32.508673 ], [ -94.070286, 32.512039 ], [ -94.070637, 32.516351 ], [ -94.08783, 32.516308 ], [ -94.088083, 32.516376 ], [ -94.089345, 32.516561 ], [ -94.118279, 32.516509 ] ] ] } }
]
}
