{
"type": "FeatureCollection",
"name": "75671",
"crs": { "type": "name", "properties": { "name": "urn:ogc:def:crs:OGC:1.3:CRS84" } },
"features": [
{ "type": "Feature", "properties": { "Name": "", "Description": "" }, "geometry": { "type": "Polygon", "coordinates": [ [ [ -94.334213, 32.492252 ], [ -94.334205, 32.492035 ], [ -94.334139, 32.491286 ], [ -94.331697, 32.491822 ], [ -94.327387, 32.492052 ], [ -94.325722, 32.489396 ], [ -94.322472, 32.487 ], [ -94.323802, 32.485944 ], [ -94.320519, 32.484465 ], [ -94.318697, 32.484504 ], [ -94.317866, 32.483591 ], [ -94.314603, 32.483009 ], [ -94.314862, 32.48165 ], [ -94.312767, 32.482695 ], [ -94.309355, 32.483558 ], [ -94.308194, 32.487935 ], [ -94.301875, 32.490827 ], [ -94.302076, 32.49219 ], [ -94.301055, 32.493411 ], [ -94.296627, 32.493591 ], [ -94.29687, 32.493796 ], [ -94.334213, 32.492252 ] ] ] } }
]
}
