{
"type": "FeatureCollection",
"name": "75689",
"crs": { "type": "name", "properties": { "name": "urn:ogc:def:crs:OGC:1.3:CRS84" } },
"features": [
{ "type": "Feature", "properties": { "Name": "", "Description": "" }, "geometry": { "type": "Polygon", "coordinates": [ [ [ -94.969037, 32.176354 ], [ -94.968889, 32.17532 ], [ -94.966673, 32.174943 ], [ -94.966477, 32.166235 ], [ -94.963712, 32.165415 ], [ -94.961762, 32.166011 ], [ -94.960138, 32.165887 ], [ -94.960462, 32.168388 ], [ -94.960386, 32.172819 ], [ -94.959572, 32.173314 ], [ -94.959598, 32.175788 ], [ -94.958571, 32.177745 ], [ -94.95903, 32.180323 ], [ -94.957744, 32.18186 ], [ -94.959709, 32.181647 ], [ -94.959567, 32.183863 ], [ -94.958551, 32.185308 ], [ -94.950505, 32.185058 ], [ -94.950795, 32.182188 ], [ -94.949306, 32.182313 ], [ -94.944094, 32.180143 ], [ -94.940525, 32.180079 ], [ -94.939278, 32.183723 ], [ -94.946343, 32.188528 ], [ -94.950601, 32.190055 ], [ -94.957743, 32.191216 ], [ -94.96127, 32.19205 ], [ -94.961915, 32.193225 ], [ -94.964807, 32.194285 ], [ -94.965487, 32.193844 ], [ -94.965818, 32.193147 ], [ -94.965685, 32.185525 ], [ -94.965806, 32.181954 ], [ -94.966697, 32.177039 ], [ -94.969037, 32.176354 ] ] ] } }
]
}
