{
"type": "FeatureCollection",
"name": "75687",
"crs": { "type": "name", "properties": { "name": "urn:ogc:def:crs:OGC:1.3:CRS84" } },
"features": [
{ "type": "Feature", "properties": { "Name": "", "Description": "" }, "geometry": { "type": "Polygon", "coordinates": [ [ [ -94.967171, 32.104617 ], [ -94.969267, 32.096747 ], [ -94.96476, 32.097055 ], [ -94.96157, 32.096194 ], [ -94.962124, 32.099919 ], [ -94.960297, 32.107158 ], [ -94.957821, 32.107067 ], [ -94.958432, 32.114786 ], [ -94.962388, 32.114765 ], [ -94.96344, 32.112263 ], [ -94.966434, 32.111609 ], [ -94.967779, 32.107491 ], [ -94.967171, 32.104617 ] ] ] } }
]
}
