{
"type": "FeatureCollection",
"name": "75782",
"crs": { "type": "name", "properties": { "name": "urn:ogc:def:crs:OGC:1.3:CRS84" } },
"features": [
{ "type": "Feature", "properties": { "Name": "", "Description": "" }, "geometry": { "type": "Polygon", "coordinates": [ [ [ -95.621667, 32.059853 ], [ -95.62246, 32.058687 ], [ -95.601005, 32.061483 ], [ -95.569432, 32.065601 ], [ -95.571623, 32.066238 ], [ -95.56816, 32.081565 ], [ -95.574821, 32.0825 ], [ -95.576593, 32.083262 ], [ -95.580695, 32.068757 ], [ -95.591623, 32.071023 ], [ -95.59592, 32.073303 ], [ -95.597385, 32.074132 ], [ -95.597723, 32.075313 ], [ -95.598338, 32.074673 ], [ -95.601103, 32.076234 ], [ -95.60253, 32.075131 ], [ -95.602857, 32.074771 ], [ -95.603684, 32.0724 ], [ -95.602464, 32.070647 ], [ -95.600667, 32.069478 ], [ -95.601374, 32.066197 ], [ -95.601128, 32.063922 ], [ -95.604671, 32.063257 ], [ -95.612645, 32.063186 ], [ -95.615515, 32.061174 ], [ -95.619598, 32.060671 ], [ -95.621667, 32.059853 ] ] ] } }
]
}
