{
"type": "FeatureCollection",
"name": "75865",
"crs": { "type": "name", "properties": { "name": "urn:ogc:def:crs:OGC:1.3:CRS84" } },
"features": [
{ "type": "Feature", "properties": { "Name": "", "Description": "" }, "geometry": { "type": "Polygon", "coordinates": [ [ [ -94.980575, 31.069327 ], [ -94.980221, 31.054969 ], [ -94.97919, 31.054306 ], [ -94.976731, 31.049129 ], [ -94.974512, 31.046389 ], [ -94.97455, 31.045493 ], [ -94.971618, 31.045147 ], [ -94.970348, 31.045466 ], [ -94.967737, 31.047298 ], [ -94.966002, 31.047126 ], [ -94.96316, 31.04602 ], [ -94.964072, 31.045204 ], [ -94.959917, 31.044306 ], [ -94.958566, 31.045062 ], [ -94.958096, 31.043426 ], [ -94.956656, 31.043178 ], [ -94.955125, 31.044263 ], [ -94.952423, 31.044183 ], [ -94.951455, 31.043189 ], [ -94.948721, 31.043078 ], [ -94.946593, 31.041654 ], [ -94.945796, 31.042317 ], [ -94.939245, 31.041981 ], [ -94.936665, 31.044718 ], [ -94.941301, 31.050124 ], [ -94.941108, 31.051102 ], [ -94.942499, 31.052644 ], [ -94.943165, 31.056332 ], [ -94.945001, 31.057787 ], [ -94.945877, 31.061073 ], [ -94.947261, 31.064382 ], [ -94.953317, 31.063487 ], [ -94.956511, 31.062714 ], [ -94.961901, 31.066272 ], [ -94.963339, 31.069365 ], [ -94.961531, 31.074245 ], [ -94.963331, 31.074431 ], [ -94.968695, 31.077595 ], [ -94.969756, 31.081772 ], [ -94.972994, 31.083266 ], [ -94.97543, 31.085173 ], [ -94.977894, 31.085636 ], [ -94.977889, 31.084311 ], [ -94.975381, 31.084193 ], [ -94.974931, 31.076597 ], [ -94.974789, 31.069215 ], [ -94.980575, 31.069327 ] ] ] } }
]
}
