{
"type": "FeatureCollection",
"name": "75886",
"crs": { "type": "name", "properties": { "name": "urn:ogc:def:crs:OGC:1.3:CRS84" } },
"features": [
{ "type": "Feature", "properties": { "Name": "", "Description": "" }, "geometry": { "type": "Polygon", "coordinates": [ [ [ -95.934604, 31.777141 ], [ -95.936076, 31.774976 ], [ -95.93414, 31.775075 ], [ -95.933902, 31.774102 ], [ -95.93151, 31.774817 ], [ -95.930249, 31.774009 ], [ -95.930243, 31.772399 ], [ -95.925645, 31.766965 ], [ -95.924191, 31.766091 ], [ -95.922229, 31.766591 ], [ -95.920904, 31.768717 ], [ -95.919997, 31.76886 ], [ -95.918467, 31.767409 ], [ -95.914441, 31.765886 ], [ -95.911482, 31.766655 ], [ -95.907746, 31.765896 ], [ -95.904272, 31.767505 ], [ -95.902394, 31.767818 ], [ -95.900452, 31.767559 ], [ -95.899486, 31.770174 ], [ -95.898026, 31.770597 ], [ -95.898507, 31.772668 ], [ -95.895732, 31.776664 ], [ -95.896077, 31.782662 ], [ -95.896077, 31.787027 ], [ -95.896027, 31.791887 ], [ -95.896, 31.803856 ], [ -95.90004, 31.806681 ], [ -95.908892, 31.809248 ], [ -95.912377, 31.812395 ], [ -95.915107, 31.810317 ], [ -95.914689, 31.809262 ], [ -95.917044, 31.807635 ], [ -95.918319, 31.80563 ], [ -95.919522, 31.804888 ], [ -95.922556, 31.804397 ], [ -95.924986, 31.802944 ], [ -95.925262, 31.801565 ], [ -95.927167, 31.800596 ], [ -95.929004, 31.798876 ], [ -95.929244, 31.796933 ], [ -95.928164, 31.796499 ], [ -95.927656, 31.793345 ], [ -95.92469, 31.792779 ], [ -95.924666, 31.790709 ], [ -95.9278, 31.788912 ], [ -95.92711, 31.787264 ], [ -95.925809, 31.786472 ], [ -95.927128, 31.785846 ], [ -95.927004, 31.783785 ], [ -95.927886, 31.782074 ], [ -95.92509, 31.779586 ], [ -95.926833, 31.779003 ], [ -95.928866, 31.779712 ], [ -95.92994, 31.776833 ], [ -95.931458, 31.777916 ], [ -95.932185, 31.780097 ], [ -95.931747, 31.78207 ], [ -95.932757, 31.782064 ], [ -95.932262, 31.780861 ], [ -95.934681, 31.780257 ], [ -95.934604, 31.777141 ] ] ] } }
]
}
