{
"type": "FeatureCollection",
"name": "75903",
"crs": { "type": "name", "properties": { "name": "urn:ogc:def:crs:OGC:1.3:CRS84" } },
"features": [
{ "type": "Feature", "properties": { "Name": "", "Description": "" }, "geometry": { "type": "Polygon", "coordinates": [ [ [ -94.753981, 31.369687 ], [ -94.753912, 31.369403 ], [ -94.75379, 31.368533 ], [ -94.74998, 31.368249 ], [ -94.747931, 31.37 ], [ -94.746079, 31.371211 ], [ -94.747359, 31.372298 ], [ -94.745097, 31.372729 ], [ -94.744898, 31.372238 ], [ -94.744379, 31.372445 ], [ -94.743211, 31.372935 ], [ -94.744338, 31.379154 ], [ -94.750695, 31.379195 ], [ -94.750747, 31.36997 ], [ -94.752926, 31.369952 ], [ -94.753981, 31.369687 ] ] ] } }
]
}
