{
"type": "FeatureCollection",
"name": "76005",
"crs": { "type": "name", "properties": { "name": "urn:ogc:def:crs:OGC:1.3:CRS84" } },
"features": [
{ "type": "Feature", "properties": { "Name": "", "Description": "" }, "geometry": { "type": "Polygon", "coordinates": [ [ [ -97.099517, 32.80876 ], [ -97.099421, 32.805781 ], [ -97.097905, 32.799802 ], [ -97.097596, 32.796698 ], [ -97.097275, 32.790066 ], [ -97.096003, 32.786011 ], [ -97.092186, 32.786633 ], [ -97.088774, 32.788005 ], [ -97.089174, 32.785161 ], [ -97.088481, 32.784028 ], [ -97.086471, 32.782899 ], [ -97.084079, 32.783079 ], [ -97.082956, 32.781626 ], [ -97.081807, 32.782786 ], [ -97.081629, 32.784537 ], [ -97.080431, 32.784782 ], [ -97.078521, 32.783318 ], [ -97.075194, 32.784011 ], [ -97.073473, 32.785297 ], [ -97.073773, 32.78773 ], [ -97.073413, 32.790746 ], [ -97.070708, 32.791018 ], [ -97.069545, 32.79285 ], [ -97.069067, 32.794925 ], [ -97.067547, 32.793931 ], [ -97.066403, 32.796297 ], [ -97.064144, 32.796253 ], [ -97.063687, 32.798236 ], [ -97.065346, 32.799753 ], [ -97.063356, 32.800283 ], [ -97.062681, 32.802114 ], [ -97.062187, 32.804454 ], [ -97.062671, 32.808321 ], [ -97.0598, 32.807789 ], [ -97.060166, 32.809593 ], [ -97.058539, 32.81115 ], [ -97.060108, 32.81379 ], [ -97.058464, 32.815023 ], [ -97.056575, 32.813645 ], [ -97.057939, 32.815649 ], [ -97.058901, 32.817121 ], [ -97.05923, 32.817121 ], [ -97.064295, 32.816743 ], [ -97.068038, 32.816083 ], [ -97.076496, 32.814055 ], [ -97.082667, 32.812655 ], [ -97.082456, 32.812224 ], [ -97.082451, 32.810774 ], [ -97.090294, 32.810865 ], [ -97.099517, 32.80876 ] ] ] } }
]
}
