{
"type": "FeatureCollection",
"name": "76880",
"crs": { "type": "name", "properties": { "name": "urn:ogc:def:crs:OGC:1.3:CRS84" } },
"features": [
{ "type": "Feature", "properties": { "Name": "", "Description": "" }, "geometry": { "type": "Polygon", "coordinates": [ [ [ -98.344028, 31.438526 ], [ -98.345224, 31.437803 ], [ -98.343496, 31.437824 ], [ -98.341607, 31.436574 ], [ -98.343405, 31.435812 ], [ -98.341673, 31.434724 ], [ -98.341737, 31.433316 ], [ -98.339742, 31.434048 ], [ -98.337972, 31.435341 ], [ -98.336548, 31.435 ], [ -98.33669, 31.438938 ], [ -98.335426, 31.438223 ], [ -98.333252, 31.439351 ], [ -98.333155, 31.438124 ], [ -98.331493, 31.43455 ], [ -98.332173, 31.432344 ], [ -98.33105, 31.432603 ], [ -98.328516, 31.429413 ], [ -98.327415, 31.429208 ], [ -98.324802, 31.429874 ], [ -98.3059, 31.433346 ], [ -98.283042, 31.431223 ], [ -98.28184, 31.431204 ], [ -98.302265, 31.459601 ], [ -98.306339, 31.457927 ], [ -98.308449, 31.462797 ], [ -98.313468, 31.461345 ], [ -98.314637, 31.462446 ], [ -98.315541, 31.464437 ], [ -98.322722, 31.461964 ], [ -98.323593, 31.461487 ], [ -98.324649, 31.458173 ], [ -98.325312, 31.457342 ], [ -98.327737, 31.457958 ], [ -98.330451, 31.459279 ], [ -98.335033, 31.457752 ], [ -98.334203, 31.455946 ], [ -98.334563, 31.454004 ], [ -98.342215, 31.443381 ], [ -98.344028, 31.438526 ] ] ] } }
]
}
