{
"type": "FeatureCollection",
"name": "76909",
"crs": { "type": "name", "properties": { "name": "urn:ogc:def:crs:OGC:1.3:CRS84" } },
"features": [
{ "type": "Feature", "properties": { "Name": "", "Description": "" }, "geometry": { "type": "Polygon", "coordinates": [ [ [ -100.469741, 31.443657 ], [ -100.469742, 31.441211 ], [ -100.468375, 31.441219 ], [ -100.468366, 31.439385 ], [ -100.465769, 31.438685 ], [ -100.463148, 31.43932 ], [ -100.46333, 31.443224 ], [ -100.466032, 31.443419 ], [ -100.469741, 31.443657 ] ] ] } }
]
}
