{
"type": "FeatureCollection",
"name": "76902",
"crs": { "type": "name", "properties": { "name": "urn:ogc:def:crs:OGC:1.3:CRS84" } },
"features": [
{ "type": "Feature", "properties": { "Name": "", "Description": "" }, "geometry": { "type": "Polygon", "coordinates": [ [ [ -100.756938, 31.556124 ], [ -100.75564, 31.553423 ], [ -100.753469, 31.550231 ], [ -100.752522, 31.547965 ], [ -100.750851, 31.545923 ], [ -100.748661, 31.544332 ], [ -100.745414, 31.543571 ], [ -100.743559, 31.541639 ], [ -100.743059, 31.538911 ], [ -100.744039, 31.534686 ], [ -100.742267, 31.533521 ], [ -100.738806, 31.528448 ], [ -100.737506, 31.527751 ], [ -100.735683, 31.524442 ], [ -100.693299, 31.523956 ], [ -100.691634, 31.526501 ], [ -100.691016, 31.536367 ], [ -100.690342, 31.538332 ], [ -100.692082, 31.540091 ], [ -100.6934, 31.540265 ], [ -100.693626, 31.542255 ], [ -100.695685, 31.545346 ], [ -100.698179, 31.54637 ], [ -100.701878, 31.544102 ], [ -100.705667, 31.544346 ], [ -100.709152, 31.548818 ], [ -100.71082, 31.549924 ], [ -100.712522, 31.552552 ], [ -100.713013, 31.554907 ], [ -100.71727, 31.555357 ], [ -100.718946, 31.555918 ], [ -100.719076, 31.557412 ], [ -100.719822, 31.560112 ], [ -100.721993, 31.564826 ], [ -100.722685, 31.568471 ], [ -100.723812, 31.570486 ], [ -100.726009, 31.571934 ], [ -100.729451, 31.570376 ], [ -100.731245, 31.569563 ], [ -100.735661, 31.569487 ], [ -100.737227, 31.570553 ], [ -100.739532, 31.568351 ], [ -100.740887, 31.566452 ], [ -100.743212, 31.566154 ], [ -100.747542, 31.564946 ], [ -100.750386, 31.5637 ], [ -100.751833, 31.5638 ], [ -100.752565, 31.563109 ], [ -100.753804, 31.559712 ], [ -100.756938, 31.556124 ] ] ] } }
]
}
