{
"type": "FeatureCollection",
"name": "77204",
"crs": { "type": "name", "properties": { "name": "urn:ogc:def:crs:OGC:1.3:CRS84" } },
"features": [
{ "type": "Feature", "properties": { "Name": "", "Description": "" }, "geometry": { "type": "Polygon", "coordinates": [ [ [ -95.350935, 29.723728 ], [ -95.352559, 29.719644 ], [ -95.34587, 29.717616 ], [ -95.340181, 29.715892 ], [ -95.341328, 29.712935 ], [ -95.341509, 29.711799 ], [ -95.340097, 29.711333 ], [ -95.339025, 29.714093 ], [ -95.339623, 29.714704 ], [ -95.339989, 29.715863 ], [ -95.339696, 29.717369 ], [ -95.337109, 29.723778 ], [ -95.337805, 29.725649 ], [ -95.338341, 29.728186 ], [ -95.340123, 29.729313 ], [ -95.341406, 29.727413 ], [ -95.343626, 29.72812 ], [ -95.343962, 29.727275 ], [ -95.344468, 29.726441 ], [ -95.345787, 29.724773 ], [ -95.346385, 29.723515 ], [ -95.350517, 29.724795 ], [ -95.350935, 29.723728 ] ] ] } }
]
}
