{
"type": "FeatureCollection",
"name": "77431",
"crs": { "type": "name", "properties": { "name": "urn:ogc:def:crs:OGC:1.3:CRS84" } },
"features": [
{ "type": "Feature", "properties": { "Name": "", "Description": "" }, "geometry": { "type": "Polygon", "coordinates": [ [ [ -95.850647, 29.152839 ], [ -95.850703, 29.151877 ], [ -95.849224, 29.149343 ], [ -95.848134, 29.148228 ], [ -95.848058, 29.146232 ], [ -95.844971, 29.145376 ], [ -95.843743, 29.144073 ], [ -95.843611, 29.142655 ], [ -95.842722, 29.142298 ], [ -95.840481, 29.142705 ], [ -95.839786, 29.141958 ], [ -95.840017, 29.140182 ], [ -95.839296, 29.138083 ], [ -95.838319, 29.136813 ], [ -95.837761, 29.133564 ], [ -95.837948, 29.13125 ], [ -95.837541, 29.129914 ], [ -95.83899, 29.127116 ], [ -95.840726, 29.124247 ], [ -95.840425, 29.121999 ], [ -95.841581, 29.117354 ], [ -95.842439, 29.116595 ], [ -95.841011, 29.114364 ], [ -95.842516, 29.113731 ], [ -95.843545, 29.112862 ], [ -95.843576, 29.110982 ], [ -95.846379, 29.10743 ], [ -95.843205, 29.106568 ], [ -95.843505, 29.105155 ], [ -95.842859, 29.102451 ], [ -95.841031, 29.101165 ], [ -95.842132, 29.100148 ], [ -95.841499, 29.09862 ], [ -95.839045, 29.097598 ], [ -95.838525, 29.095086 ], [ -95.836453, 29.09285 ], [ -95.835333, 29.092932 ], [ -95.83435, 29.094054 ], [ -95.831997, 29.092532 ], [ -95.832034, 29.091883 ], [ -95.829042, 29.088921 ], [ -95.82841, 29.089663 ], [ -95.822127, 29.090681 ], [ -95.819799, 29.090489 ], [ -95.817657, 29.089491 ], [ -95.814594, 29.094378 ], [ -95.812095, 29.097076 ], [ -95.807062, 29.101415 ], [ -95.80776, 29.102668 ], [ -95.805935, 29.102622 ], [ -95.805177, 29.104225 ], [ -95.806794, 29.105462 ], [ -95.806401, 29.107432 ], [ -95.808357, 29.108372 ], [ -95.808565, 29.110113 ], [ -95.810756, 29.109678 ], [ -95.809608, 29.110732 ], [ -95.806999, 29.11096 ], [ -95.802436, 29.108736 ], [ -95.800976, 29.108414 ], [ -95.801081, 29.107246 ], [ -95.787135, 29.119976 ], [ -95.788034, 29.12272 ], [ -95.793919, 29.128474 ], [ -95.800652, 29.136694 ], [ -95.803647, 29.133886 ], [ -95.804534, 29.134642 ], [ -95.803202, 29.137069 ], [ -95.804036, 29.13778 ], [ -95.806255, 29.137955 ], [ -95.810503, 29.134114 ], [ -95.815685, 29.138213 ], [ -95.812147, 29.141728 ], [ -95.814215, 29.143036 ], [ -95.815628, 29.145471 ], [ -95.815574, 29.147844 ], [ -95.813979, 29.152024 ], [ -95.812966, 29.153516 ], [ -95.799193, 29.166056 ], [ -95.811835, 29.169764 ], [ -95.838679, 29.17628 ], [ -95.841707, 29.173521 ], [ -95.839362, 29.172504 ], [ -95.84032, 29.171443 ], [ -95.839537, 29.168997 ], [ -95.840025, 29.168173 ], [ -95.841804, 29.168255 ], [ -95.843213, 29.169035 ], [ -95.844628, 29.167869 ], [ -95.847008, 29.167225 ], [ -95.846738, 29.165554 ], [ -95.848385, 29.165417 ], [ -95.848948, 29.164383 ], [ -95.848046, 29.163163 ], [ -95.8477, 29.160349 ], [ -95.850186, 29.159936 ], [ -95.84986, 29.157979 ], [ -95.850492, 29.156923 ], [ -95.849057, 29.154978 ], [ -95.850647, 29.152839 ] ] ] } }
]
}
