{
"type": "FeatureCollection",
"name": "77582",
"crs": { "type": "name", "properties": { "name": "urn:ogc:def:crs:OGC:1.3:CRS84" } },
"features": [
{ "type": "Feature", "properties": { "Name": "", "Description": "" }, "geometry": { "type": "Polygon", "coordinates": [ [ [ -94.69918, 30.038692 ], [ -94.698898, 30.028411 ], [ -94.698677, 30.01418 ], [ -94.699104, 30.013847 ], [ -94.698873, 30.00764 ], [ -94.673097, 30.00784 ], [ -94.674317, 30.005759 ], [ -94.674431, 29.995267 ], [ -94.674716, 29.994131 ], [ -94.675759, 29.993163 ], [ -94.681414, 29.992679 ], [ -94.682526, 29.991857 ], [ -94.682935, 29.99077 ], [ -94.682925, 29.97842 ], [ -94.669811, 29.978526 ], [ -94.660776, 29.978308 ], [ -94.659547, 29.975256 ], [ -94.656279, 29.972356 ], [ -94.652488, 29.971898 ], [ -94.650989, 29.97225 ], [ -94.649826, 29.973494 ], [ -94.649071, 29.975564 ], [ -94.639999, 29.965627 ], [ -94.639307, 29.964375 ], [ -94.639512, 30.007867 ], [ -94.638327, 30.007854 ], [ -94.63812, 30.007851 ], [ -94.628259, 30.007752 ], [ -94.623807, 30.007929 ], [ -94.620752, 30.00769 ], [ -94.598292, 30.007433 ], [ -94.598794, 30.013774 ], [ -94.598841, 30.014361 ], [ -94.599996, 30.028107 ], [ -94.600791, 30.028995 ], [ -94.601538, 30.029174 ], [ -94.603127, 30.029552 ], [ -94.608067, 30.030701 ], [ -94.625539, 30.034772 ], [ -94.638092, 30.036806 ], [ -94.638016, 30.037254 ], [ -94.669898, 30.042293 ], [ -94.694965, 30.046238 ], [ -94.698108, 30.046745 ], [ -94.698226, 30.038717 ], [ -94.69918, 30.038692 ] ] ] } }
]
}
