{
"type": "FeatureCollection",
"name": "77843",
"crs": { "type": "name", "properties": { "name": "urn:ogc:def:crs:OGC:1.3:CRS84" } },
"features": [
{ "type": "Feature", "properties": { "Name": "", "Description": "" }, "geometry": { "type": "Polygon", "coordinates": [ [ [ -96.345469, 30.618304 ], [ -96.348573, 30.61569 ], [ -96.343429, 30.610177 ], [ -96.338989, 30.613211 ], [ -96.339241, 30.614631 ], [ -96.336026, 30.610992 ], [ -96.332271, 30.613536 ], [ -96.335196, 30.616723 ], [ -96.334622, 30.618914 ], [ -96.335357, 30.619963 ], [ -96.338025, 30.61992 ], [ -96.341145, 30.617782 ], [ -96.342513, 30.61919 ], [ -96.34455, 30.617142 ], [ -96.345469, 30.618304 ] ] ] } }
]
}
