{
"type": "FeatureCollection",
"name": "77852",
"crs": { "type": "name", "properties": { "name": "urn:ogc:def:crs:OGC:1.3:CRS84" } },
"features": [
{ "type": "Feature", "properties": { "Name": "", "Description": "" }, "geometry": { "type": "Polygon", "coordinates": [ [ [ -96.75934, 30.430021 ], [ -96.76173, 30.426527 ], [ -96.758614, 30.423227 ], [ -96.75633, 30.424477 ], [ -96.758003, 30.425934 ], [ -96.753552, 30.42926 ], [ -96.754793, 30.430241 ], [ -96.753312, 30.429908 ], [ -96.752123, 30.431117 ], [ -96.753509, 30.432307 ], [ -96.756188, 30.432293 ], [ -96.757593, 30.430897 ], [ -96.75934, 30.430021 ] ] ] } }
]
}
