{
"type": "FeatureCollection",
"name": "77866",
"crs": { "type": "name", "properties": { "name": "urn:ogc:def:crs:OGC:1.3:CRS84" } },
"features": [
{ "type": "Feature", "properties": { "Name": "", "Description": "" }, "geometry": { "type": "Polygon", "coordinates": [ [ [ -96.224755, 30.497602 ], [ -96.224279, 30.495656 ], [ -96.222956, 30.493893 ], [ -96.223167, 30.492427 ], [ -96.221263, 30.490664 ], [ -96.220231, 30.488534 ], [ -96.218327, 30.488099 ], [ -96.218168, 30.485718 ], [ -96.217393, 30.484234 ], [ -96.216984, 30.4757 ], [ -96.214368, 30.47341 ], [ -96.209847, 30.473278 ], [ -96.209059, 30.470928 ], [ -96.204305, 30.470086 ], [ -96.203569, 30.47464 ], [ -96.204132, 30.477318 ], [ -96.205939, 30.481374 ], [ -96.205173, 30.485199 ], [ -96.199121, 30.492288 ], [ -96.198202, 30.495374 ], [ -96.198267, 30.498551 ], [ -96.197581, 30.501068 ], [ -96.197465, 30.50488 ], [ -96.202716, 30.508847 ], [ -96.203136, 30.509189 ], [ -96.20648, 30.512567 ], [ -96.211076, 30.511988 ], [ -96.21149, 30.510785 ], [ -96.214299, 30.510193 ], [ -96.216113, 30.51052 ], [ -96.215889, 30.507502 ], [ -96.216519, 30.506713 ], [ -96.21921, 30.506688 ], [ -96.219775, 30.504019 ], [ -96.221044, 30.502633 ], [ -96.221566, 30.503212 ], [ -96.22138, 30.500044 ], [ -96.22362, 30.500055 ], [ -96.224755, 30.497602 ] ] ] } }
]
}
