{
"type": "FeatureCollection",
"name": "77863",
"crs": { "type": "name", "properties": { "name": "urn:ogc:def:crs:OGC:1.3:CRS84" } },
"features": [
{ "type": "Feature", "properties": { "Name": "", "Description": "" }, "geometry": { "type": "Polygon", "coordinates": [ [ [ -96.568747, 30.392737 ], [ -96.569336, 30.392295 ], [ -96.566528, 30.389649 ], [ -96.566373, 30.388526 ], [ -96.567154, 30.387942 ], [ -96.566326, 30.385959 ], [ -96.564923, 30.386882 ], [ -96.562322, 30.384853 ], [ -96.561569, 30.384005 ], [ -96.552599, 30.390041 ], [ -96.552056, 30.390509 ], [ -96.551014, 30.392578 ], [ -96.551724, 30.399117 ], [ -96.552546, 30.398185 ], [ -96.557791, 30.40266 ], [ -96.559751, 30.401231 ], [ -96.562749, 30.39711 ], [ -96.56553, 30.395938 ], [ -96.569222, 30.39357 ], [ -96.568747, 30.392737 ] ] ] } }
]
}
