{
"type": "FeatureCollection",
"name": "77875",
"crs": { "type": "name", "properties": { "name": "urn:ogc:def:crs:OGC:1.3:CRS84" } },
"features": [
{ "type": "Feature", "properties": { "Name": "", "Description": "" }, "geometry": { "type": "Polygon", "coordinates": [ [ [ -95.957995, 30.597512 ], [ -95.955878, 30.588208 ], [ -95.94499, 30.584818 ], [ -95.944468, 30.583581 ], [ -95.945324, 30.581696 ], [ -95.952208, 30.57198 ], [ -95.950599, 30.564776 ], [ -95.948688, 30.562062 ], [ -95.949193, 30.560369 ], [ -95.947291, 30.558793 ], [ -95.945871, 30.562251 ], [ -95.943582, 30.566684 ], [ -95.942035, 30.568988 ], [ -95.936605, 30.577924 ], [ -95.934979, 30.580368 ], [ -95.933957, 30.582855 ], [ -95.934834, 30.584812 ], [ -95.936753, 30.583944 ], [ -95.939955, 30.58352 ], [ -95.944074, 30.584537 ], [ -95.943759, 30.587989 ], [ -95.948959, 30.600509 ], [ -95.957995, 30.597512 ] ] ] } }
]
}
