{
"type": "FeatureCollection",
"name": "77882",
"crs": { "type": "name", "properties": { "name": "urn:ogc:def:crs:OGC:1.3:CRS84" } },
"features": [
{ "type": "Feature", "properties": { "Name": "", "Description": "" }, "geometry": { "type": "Polygon", "coordinates": [ [ [ -96.401467, 30.912923 ], [ -96.399908, 30.90696 ], [ -96.399268, 30.905947 ], [ -96.392534, 30.899866 ], [ -96.393484, 30.898934 ], [ -96.391028, 30.897239 ], [ -96.386277, 30.901531 ], [ -96.377544, 30.905411 ], [ -96.378012, 30.909682 ], [ -96.378161, 30.914114 ], [ -96.377655, 30.915219 ], [ -96.375147, 30.914419 ], [ -96.374858, 30.913104 ], [ -96.370578, 30.90839 ], [ -96.369355, 30.909171 ], [ -96.365775, 30.907255 ], [ -96.361315, 30.90898 ], [ -96.357337, 30.913145 ], [ -96.358456, 30.914257 ], [ -96.355166, 30.917716 ], [ -96.356427, 30.919318 ], [ -96.35443, 30.921547 ], [ -96.35594, 30.922649 ], [ -96.389568, 30.915456 ], [ -96.395337, 30.91393 ], [ -96.396393, 30.914008 ], [ -96.401467, 30.912923 ] ] ] } }
]
}
