{
"type": "FeatureCollection",
"name": "78074",
"crs": { "type": "name", "properties": { "name": "urn:ogc:def:crs:OGC:1.3:CRS84" } },
"features": [
{ "type": "Feature", "properties": { "Name": "", "Description": "" }, "geometry": { "type": "Polygon", "coordinates": [ [ [ -98.80869, 29.94484 ], [ -98.808635, 29.928199 ], [ -98.80013, 29.925528 ], [ -98.795701, 29.925612 ], [ -98.793494, 29.924072 ], [ -98.79203, 29.925784 ], [ -98.789605, 29.925294 ], [ -98.788058, 29.926024 ], [ -98.787827, 29.925846 ], [ -98.786977, 29.926131 ], [ -98.786512, 29.926179 ], [ -98.786261, 29.926126 ], [ -98.786244, 29.926641 ], [ -98.782619, 29.927482 ], [ -98.782278, 29.927823 ], [ -98.782687, 29.930423 ], [ -98.782397, 29.93157 ], [ -98.780362, 29.934722 ], [ -98.77887, 29.938281 ], [ -98.77952, 29.939733 ], [ -98.781036, 29.940163 ], [ -98.781213, 29.941577 ], [ -98.775483, 29.942461 ], [ -98.774472, 29.944282 ], [ -98.77552, 29.946208 ], [ -98.775266, 29.947781 ], [ -98.774363, 29.948089 ], [ -98.771331, 29.946129 ], [ -98.76955, 29.945788 ], [ -98.768276, 29.946385 ], [ -98.774858, 29.951234 ], [ -98.776496, 29.955597 ], [ -98.776458, 29.95704 ], [ -98.785993, 29.956908 ], [ -98.78658, 29.96271 ], [ -98.792991, 29.959286 ], [ -98.795772, 29.957565 ], [ -98.801135, 29.954964 ], [ -98.805216, 29.950711 ], [ -98.80431, 29.950013 ], [ -98.808465, 29.946125 ], [ -98.80869, 29.94484 ] ] ] } }
]
}
