{
"type": "FeatureCollection",
"name": "78111",
"crs": { "type": "name", "properties": { "name": "urn:ogc:def:crs:OGC:1.3:CRS84" } },
"features": [
{ "type": "Feature", "properties": { "Name": "", "Description": "" }, "geometry": { "type": "Polygon", "coordinates": [ [ [ -97.771466, 29.047186 ], [ -97.771387, 29.039188 ], [ -97.771127, 29.038131 ], [ -97.769169, 29.038033 ], [ -97.768778, 29.034127 ], [ -97.767861, 29.034673 ], [ -97.764542, 29.0336 ], [ -97.762484, 29.032446 ], [ -97.759719, 29.032046 ], [ -97.759394, 29.029748 ], [ -97.758526, 29.028984 ], [ -97.757154, 29.029455 ], [ -97.753847, 29.02853 ], [ -97.753541, 29.027209 ], [ -97.745179, 29.027169 ], [ -97.745634, 29.024704 ], [ -97.745589, 29.013546 ], [ -97.725691, 29.028271 ], [ -97.714274, 29.03672 ], [ -97.714282, 29.049912 ], [ -97.740051, 29.049791 ], [ -97.740163, 29.045812 ], [ -97.746147, 29.045893 ], [ -97.751459, 29.046501 ], [ -97.768854, 29.046495 ], [ -97.771466, 29.047186 ] ] ] } }
]
}
