{
"type": "FeatureCollection",
"name": "78360",
"crs": { "type": "name", "properties": { "name": "urn:ogc:def:crs:OGC:1.3:CRS84" } },
"features": [
{ "type": "Feature", "properties": { "Name": "", "Description": "" }, "geometry": { "type": "Polygon", "coordinates": [ [ [ -98.954301, 26.835477 ], [ -98.95423, 26.785694 ], [ -98.928317, 26.785597 ], [ -98.8753, 26.785394 ], [ -98.874718, 26.785494 ], [ -98.85127, 26.785335 ], [ -98.824297, 26.785207 ], [ -98.814183, 26.784771 ], [ -98.809551, 26.784916 ], [ -98.808875, 26.785146 ], [ -98.699436, 26.784349 ], [ -98.699301, 26.810274 ], [ -98.699329, 26.823415 ], [ -98.699303, 26.824791 ], [ -98.699263, 26.864366 ], [ -98.702963, 26.864924 ], [ -98.712117, 26.864808 ], [ -98.712527, 26.866758 ], [ -98.714803, 26.868363 ], [ -98.718358, 26.869738 ], [ -98.730988, 26.880457 ], [ -98.737966, 26.880457 ], [ -98.737671, 26.882953 ], [ -98.736419, 26.885132 ], [ -98.748726, 26.896158 ], [ -98.749981, 26.900171 ], [ -98.756707, 26.907351 ], [ -98.757606, 26.908826 ], [ -98.757794, 26.934871 ], [ -98.757547, 26.938535 ], [ -98.757523, 26.950796 ], [ -98.759244, 26.950695 ], [ -98.763966, 26.949789 ], [ -98.769413, 26.951637 ], [ -98.797965, 26.942906 ], [ -98.798936, 26.942815 ], [ -98.80001, 26.943022 ], [ -98.818707, 26.952493 ], [ -98.824854, 26.953252 ], [ -98.831639, 26.955727 ], [ -98.833252, 26.955587 ], [ -98.83274, 26.954877 ], [ -98.834019, 26.952445 ], [ -98.836322, 26.953936 ], [ -98.835684, 26.957042 ], [ -98.88049, 26.961681 ], [ -98.883484, 26.961658 ], [ -98.882936, 26.964887 ], [ -98.898598, 26.967048 ], [ -98.900981, 26.95521 ], [ -98.908046, 26.956223 ], [ -98.912292, 26.933037 ], [ -98.912422, 26.930863 ], [ -98.911637, 26.927954 ], [ -98.908537, 26.923099 ], [ -98.90755, 26.919434 ], [ -98.907755, 26.918024 ], [ -98.912289, 26.906969 ], [ -98.911985, 26.905482 ], [ -98.912574, 26.904208 ], [ -98.913129, 26.903839 ], [ -98.91616, 26.903787 ], [ -98.936352, 26.894813 ], [ -98.940961, 26.893365 ], [ -98.943413, 26.892948 ], [ -98.943533, 26.892154 ], [ -98.945697, 26.892512 ], [ -98.945669, 26.886415 ], [ -98.948161, 26.886175 ], [ -98.949467, 26.882266 ], [ -98.954199, 26.877763 ], [ -98.954301, 26.835477 ] ] ] } }
]
}
