{
"type": "FeatureCollection",
"name": "78540",
"crs": { "type": "name", "properties": { "name": "urn:ogc:def:crs:OGC:1.3:CRS84" } },
"features": [
{ "type": "Feature", "properties": { "Name": "", "Description": "" }, "geometry": { "type": "Polygon", "coordinates": [ [ [ -98.023257, 26.577006 ], [ -98.022307, 26.570197 ], [ -98.020475, 26.570219 ], [ -98.019791, 26.571296 ], [ -98.015461, 26.571042 ], [ -98.007303, 26.573138 ], [ -98.0074, 26.572061 ], [ -97.997777, 26.570654 ], [ -97.999196, 26.563244 ], [ -97.993166, 26.562626 ], [ -97.991581, 26.561875 ], [ -97.992775, 26.555153 ], [ -98.017768, 26.558647 ], [ -98.019207, 26.550136 ], [ -98.020684, 26.54195 ], [ -97.992923, 26.537966 ], [ -97.989264, 26.537434 ], [ -97.98972, 26.536037 ], [ -97.993492, 26.536467 ], [ -97.994551, 26.530404 ], [ -98.00599, 26.532705 ], [ -98.012836, 26.53315 ], [ -98.014538, 26.523642 ], [ -98.007552, 26.522631 ], [ -98.007901, 26.524122 ], [ -98.003369, 26.523415 ], [ -98.002074, 26.522117 ], [ -97.987308, 26.519982 ], [ -97.984367, 26.536578 ], [ -97.980479, 26.53599 ], [ -97.963943, 26.53364 ], [ -97.96884, 26.551355 ], [ -97.970067, 26.552253 ], [ -97.96876, 26.55398 ], [ -97.968244, 26.560175 ], [ -97.968657, 26.5622 ], [ -97.968087, 26.568919 ], [ -97.964423, 26.568751 ], [ -97.963418, 26.574517 ], [ -97.966465, 26.574413 ], [ -97.96811, 26.572869 ], [ -97.968372, 26.569092 ], [ -98.007067, 26.574756 ], [ -98.023257, 26.577006 ] ] ] } }
]
}
