{
"type": "FeatureCollection",
"name": "78547",
"crs": { "type": "name", "properties": { "name": "urn:ogc:def:crs:OGC:1.3:CRS84" } },
"features": [
{ "type": "Feature", "properties": { "Name": "", "Description": "" }, "geometry": { "type": "Polygon", "coordinates": [ [ [ -98.70703, 26.292237 ], [ -98.708814, 26.289869 ], [ -98.706305, 26.289132 ], [ -98.706181, 26.289555 ], [ -98.701226, 26.289525 ], [ -98.694766, 26.293078 ], [ -98.693056, 26.294263 ], [ -98.692907, 26.296093 ], [ -98.693735, 26.297746 ], [ -98.690795, 26.301541 ], [ -98.690145, 26.304975 ], [ -98.69117, 26.309541 ], [ -98.691025, 26.310469 ], [ -98.691427, 26.310637 ], [ -98.692274, 26.314041 ], [ -98.690394, 26.313923 ], [ -98.689945, 26.316348 ], [ -98.689808, 26.316672 ], [ -98.688666, 26.315965 ], [ -98.684566, 26.315434 ], [ -98.683869, 26.318064 ], [ -98.682293, 26.320587 ], [ -98.684319, 26.321353 ], [ -98.687411, 26.321838 ], [ -98.68919, 26.320487 ], [ -98.691244, 26.320814 ], [ -98.691727, 26.323761 ], [ -98.694453, 26.323873 ], [ -98.694597, 26.321134 ], [ -98.703493, 26.323801 ], [ -98.703801, 26.322178 ], [ -98.701789, 26.321417 ], [ -98.702535, 26.319439 ], [ -98.702605, 26.319392 ], [ -98.705311, 26.320359 ], [ -98.706226, 26.316299 ], [ -98.705056, 26.315336 ], [ -98.706235, 26.308417 ], [ -98.707044, 26.305079 ], [ -98.701134, 26.304204 ], [ -98.701269, 26.301284 ], [ -98.699841, 26.300214 ], [ -98.701272, 26.298285 ], [ -98.700585, 26.295674 ], [ -98.70703, 26.292237 ] ] ] } }
]
}
