{
"type": "FeatureCollection",
"name": "78599",
"crs": { "type": "name", "properties": { "name": "urn:ogc:def:crs:OGC:1.3:CRS84" } },
"features": [
{ "type": "Feature", "properties": { "Name": "", "Description": "" }, "geometry": { "type": "Polygon", "coordinates": [ [ [ -98.022765, 26.263843 ], [ -98.022557, 26.23995 ], [ -98.022317, 26.234817 ], [ -98.022285, 26.227456 ], [ -98.02213, 26.207147 ], [ -98.022321, 26.199958 ], [ -98.022238, 26.186339 ], [ -98.022387, 26.183973 ], [ -98.022247, 26.183976 ], [ -98.022258, 26.182947 ], [ -98.022177, 26.174862 ], [ -98.017635, 26.173297 ], [ -98.015174, 26.172784 ], [ -98.015245, 26.17254 ], [ -98.015089, 26.172515 ], [ -98.012749, 26.172345 ], [ -98.008275, 26.172358 ], [ -98.008209, 26.169649 ], [ -98.006927, 26.169675 ], [ -98.006968, 26.172358 ], [ -97.998966, 26.17251 ], [ -97.998974, 26.172759 ], [ -97.990974, 26.172772 ], [ -97.98286, 26.172632 ], [ -97.980769, 26.172452 ], [ -97.979013, 26.172041 ], [ -97.977869, 26.171663 ], [ -97.966607, 26.165602 ], [ -97.958473, 26.161138 ], [ -97.949677, 26.156724 ], [ -97.949751, 26.16495 ], [ -97.949779, 26.166827 ], [ -97.949802, 26.170586 ], [ -97.949808, 26.174186 ], [ -97.949859, 26.177816 ], [ -97.949903, 26.185061 ], [ -97.952458, 26.185035 ], [ -97.952952, 26.185023 ], [ -97.958785, 26.184966 ], [ -97.959058, 26.199476 ], [ -97.959124, 26.202978 ], [ -97.950365, 26.203323 ], [ -97.95039, 26.206073 ], [ -97.950465, 26.214134 ], [ -97.959456, 26.214005 ], [ -97.959475, 26.215638 ], [ -97.959449, 26.21596 ], [ -97.961524, 26.215955 ], [ -97.963833, 26.217846 ], [ -97.963988, 26.225276 ], [ -97.967702, 26.225214 ], [ -97.967756, 26.228421 ], [ -97.964051, 26.22849 ], [ -97.964067, 26.235761 ], [ -97.968794, 26.235691 ], [ -97.970129, 26.239265 ], [ -97.976047, 26.23909 ], [ -97.976115, 26.242837 ], [ -97.986574, 26.242681 ], [ -97.991143, 26.246203 ], [ -97.9923, 26.245993 ], [ -97.99237, 26.24985 ], [ -97.976256, 26.250093 ], [ -97.970839, 26.250174 ], [ -97.970894, 26.253737 ], [ -97.972231, 26.255509 ], [ -97.972516, 26.264735 ], [ -97.972589, 26.268306 ], [ -97.97472, 26.268253 ], [ -97.974837, 26.271903 ], [ -97.976665, 26.271876 ], [ -97.976832, 26.279148 ], [ -97.992929, 26.278879 ], [ -98.003993, 26.278689 ], [ -98.007014, 26.282351 ], [ -98.009101, 26.282321 ], [ -98.009171, 26.285877 ], [ -98.013137, 26.285815 ], [ -98.012684, 26.264034 ], [ -98.012789, 26.264031 ], [ -98.022765, 26.263843 ] ] ] } }
]
}
