{
"type": "FeatureCollection",
"name": "78658",
"crs": { "type": "name", "properties": { "name": "urn:ogc:def:crs:OGC:1.3:CRS84" } },
"features": [
{ "type": "Feature", "properties": { "Name": "", "Description": "" }, "geometry": { "type": "Polygon", "coordinates": [ [ [ -97.664987, 29.60772 ], [ -97.664632, 29.606977 ], [ -97.663095, 29.606755 ], [ -97.657654, 29.604537 ], [ -97.655832, 29.602451 ], [ -97.651052, 29.59948 ], [ -97.649111, 29.597116 ], [ -97.648688, 29.594396 ], [ -97.645621, 29.593977 ], [ -97.639299, 29.587461 ], [ -97.638169, 29.586026 ], [ -97.642019, 29.583343 ], [ -97.63967, 29.580951 ], [ -97.639481, 29.57787 ], [ -97.641057, 29.57724 ], [ -97.647116, 29.572949 ], [ -97.645967, 29.569846 ], [ -97.645716, 29.568948 ], [ -97.648164, 29.567376 ], [ -97.641352, 29.563066 ], [ -97.639171, 29.564858 ], [ -97.633131, 29.565553 ], [ -97.632158, 29.566036 ], [ -97.631101, 29.569387 ], [ -97.629734, 29.570881 ], [ -97.625298, 29.573135 ], [ -97.622031, 29.571244 ], [ -97.619863, 29.571751 ], [ -97.618863, 29.570402 ], [ -97.618885, 29.568778 ], [ -97.617099, 29.568071 ], [ -97.613368, 29.567571 ], [ -97.609441, 29.563687 ], [ -97.601178, 29.569954 ], [ -97.605303, 29.574397 ], [ -97.604846, 29.575718 ], [ -97.608236, 29.578828 ], [ -97.606516, 29.580245 ], [ -97.609132, 29.585408 ], [ -97.608845, 29.586418 ], [ -97.604388, 29.59087 ], [ -97.603483, 29.58978 ], [ -97.595801, 29.590195 ], [ -97.59092, 29.592927 ], [ -97.593778, 29.594803 ], [ -97.594541, 29.596437 ], [ -97.601237, 29.597593 ], [ -97.601899, 29.603411 ], [ -97.605895, 29.606149 ], [ -97.610671, 29.61107 ], [ -97.613901, 29.613091 ], [ -97.619855, 29.615935 ], [ -97.621354, 29.618566 ], [ -97.622317, 29.619015 ], [ -97.625303, 29.62183 ], [ -97.626109, 29.623582 ], [ -97.62807, 29.62228 ], [ -97.630514, 29.62141 ], [ -97.634556, 29.618176 ], [ -97.638234, 29.617785 ], [ -97.641244, 29.613031 ], [ -97.645948, 29.609497 ], [ -97.649588, 29.612965 ], [ -97.652673, 29.611487 ], [ -97.653842, 29.611434 ], [ -97.656193, 29.612498 ], [ -97.660398, 29.612596 ], [ -97.661837, 29.611863 ], [ -97.664987, 29.60772 ] ] ] } }
]
}
