{
"type": "FeatureCollection",
"name": "78674",
"crs": { "type": "name", "properties": { "name": "urn:ogc:def:crs:OGC:1.3:CRS84" } },
"features": [
{ "type": "Feature", "properties": { "Name": "", "Description": "" }, "geometry": { "type": "Polygon", "coordinates": [ [ [ -97.607847, 30.672662 ], [ -97.610174, 30.672164 ], [ -97.604263, 30.670769 ], [ -97.601756, 30.669944 ], [ -97.59725, 30.666827 ], [ -97.596225, 30.665227 ], [ -97.59606, 30.664249 ], [ -97.595811, 30.663247 ], [ -97.595858, 30.667066 ], [ -97.593692, 30.667322 ], [ -97.594519, 30.671185 ], [ -97.591685, 30.672278 ], [ -97.588269, 30.672992 ], [ -97.587947, 30.673096 ], [ -97.586475, 30.67339 ], [ -97.586442, 30.675788 ], [ -97.590148, 30.674952 ], [ -97.591099, 30.67392 ], [ -97.590499, 30.677215 ], [ -97.591687, 30.680765 ], [ -97.593423, 30.680352 ], [ -97.592398, 30.677167 ], [ -97.591913, 30.673873 ], [ -97.598899, 30.67345 ], [ -97.607847, 30.672662 ] ] ] } }
]
}
