{
"type": "FeatureCollection",
"name": "78841",
"crs": { "type": "name", "properties": { "name": "urn:ogc:def:crs:OGC:1.3:CRS84" } },
"features": [
{ "type": "Feature", "properties": { "Name": "", "Description": "" }, "geometry": { "type": "Polygon", "coordinates": [ [ [ -101.540763, 29.830542 ], [ -101.537913, 29.827983 ], [ -101.536565, 29.827715 ], [ -101.535218, 29.825123 ], [ -101.53309, 29.825451 ], [ -101.533567, 29.82192 ], [ -101.530887, 29.819296 ], [ -101.526205, 29.818691 ], [ -101.529245, 29.816976 ], [ -101.532169, 29.814063 ], [ -101.484056, 29.804632 ], [ -101.480557, 29.804288 ], [ -101.464749, 29.803815 ], [ -101.461445, 29.803455 ], [ -101.457834, 29.801606 ], [ -101.45019, 29.794857 ], [ -101.449316, 29.795585 ], [ -101.445747, 29.794156 ], [ -101.441962, 29.790111 ], [ -101.440107, 29.788901 ], [ -101.434549, 29.787885 ], [ -101.435614, 29.794856 ], [ -101.436623, 29.796725 ], [ -101.434101, 29.797977 ], [ -101.439854, 29.801185 ], [ -101.446247, 29.801935 ], [ -101.450908, 29.80387 ], [ -101.451761, 29.806848 ], [ -101.451279, 29.809331 ], [ -101.448583, 29.813111 ], [ -101.444925, 29.817148 ], [ -101.44052, 29.819448 ], [ -101.43924, 29.819761 ], [ -101.437418, 29.819811 ], [ -101.431914, 29.819112 ], [ -101.426517, 29.819332 ], [ -101.417274, 29.821333 ], [ -101.409783, 29.821898 ], [ -101.403301, 29.824123 ], [ -101.393576, 29.828717 ], [ -101.391014, 29.833148 ], [ -101.389859, 29.836237 ], [ -101.386895, 29.838364 ], [ -101.384441, 29.839457 ], [ -101.384723, 29.843641 ], [ -101.387311, 29.852279 ], [ -101.389278, 29.854666 ], [ -101.391567, 29.855343 ], [ -101.398113, 29.859397 ], [ -101.398661, 29.860667 ], [ -101.402155, 29.863455 ], [ -101.402962, 29.863466 ], [ -101.414372, 29.86951 ], [ -101.41564, 29.870296 ], [ -101.416794, 29.870588 ], [ -101.418251, 29.87111 ], [ -101.422623, 29.873293 ], [ -101.428439, 29.873304 ], [ -101.43435, 29.874118 ], [ -101.437371, 29.87486 ], [ -101.438179, 29.875259 ], [ -101.441069, 29.877551 ], [ -101.446962, 29.885165 ], [ -101.450236, 29.888771 ], [ -101.452085, 29.889118 ], [ -101.458161, 29.891085 ], [ -101.462149, 29.891722 ], [ -101.463821, 29.891353 ], [ -101.472257, 29.893116 ], [ -101.476718, 29.895413 ], [ -101.48118, 29.896956 ], [ -101.484934, 29.897312 ], [ -101.489375, 29.895809 ], [ -101.494101, 29.895054 ], [ -101.498327, 29.893172 ], [ -101.500973, 29.890219 ], [ -101.508553, 29.885043 ], [ -101.517499, 29.884365 ], [ -101.518812, 29.882557 ], [ -101.515949, 29.879829 ], [ -101.515818, 29.878246 ], [ -101.513763, 29.87521 ], [ -101.513177, 29.872458 ], [ -101.513985, 29.869259 ], [ -101.51673, 29.866648 ], [ -101.519904, 29.864863 ], [ -101.524806, 29.863541 ], [ -101.521325, 29.862421 ], [ -101.522482, 29.85945 ], [ -101.521394, 29.858021 ], [ -101.514921, 29.857141 ], [ -101.512117, 29.858015 ], [ -101.511308, 29.855598 ], [ -101.513348, 29.853708 ], [ -101.515585, 29.849436 ], [ -101.52053, 29.844873 ], [ -101.52645, 29.842843 ], [ -101.530808, 29.839968 ], [ -101.532095, 29.837319 ], [ -101.534959, 29.834178 ], [ -101.540763, 29.830542 ] ] ] } }
]
}
