{
"type": "FeatureCollection",
"name": "78842",
"crs": { "type": "name", "properties": { "name": "urn:ogc:def:crs:OGC:1.3:CRS84" } },
"features": [
{ "type": "Feature", "properties": { "Name": "", "Description": "" }, "geometry": { "type": "Polygon", "coordinates": [ [ [ -101.100009, 29.671281 ], [ -101.10296, 29.672048 ], [ -101.095964, 29.657332 ], [ -101.076304, 29.64216 ], [ -101.008809, 29.590389 ], [ -101.008403, 29.591651 ], [ -101.008615, 29.595132 ], [ -101.00793, 29.59417 ], [ -101.007875, 29.591167 ], [ -101.009267, 29.587038 ], [ -101.006645, 29.585497 ], [ -101.005669, 29.585579 ], [ -101.00696, 29.583814 ], [ -101.003935, 29.582174 ], [ -101.002576, 29.582053 ], [ -101.00155, 29.58307 ], [ -101.002801, 29.584407 ], [ -101.001429, 29.585264 ], [ -101.000719, 29.58407 ], [ -100.999335, 29.584947 ], [ -100.994277, 29.584878 ], [ -100.993157, 29.585609 ], [ -100.9937, 29.588903 ], [ -100.992617, 29.586704 ], [ -100.991453, 29.586496 ], [ -100.990974, 29.585132 ], [ -100.98988, 29.587118 ], [ -100.988459, 29.588004 ], [ -100.988907, 29.590027 ], [ -100.99031, 29.589944 ], [ -100.990141, 29.591325 ], [ -100.991915, 29.591599 ], [ -100.992237, 29.593149 ], [ -100.995812, 29.594281 ], [ -100.993937, 29.594666 ], [ -100.992256, 29.593826 ], [ -100.99113, 29.594151 ], [ -100.993906, 29.595442 ], [ -100.993164, 29.59586 ], [ -100.994077, 29.597911 ], [ -100.995475, 29.598658 ], [ -100.994827, 29.599599 ], [ -100.993505, 29.598934 ], [ -100.993386, 29.599918 ], [ -100.991832, 29.599529 ], [ -100.992448, 29.598736 ], [ -100.99132, 29.59673 ], [ -100.99025, 29.596076 ], [ -100.989219, 29.597748 ], [ -100.987854, 29.59754 ], [ -100.987375, 29.59583 ], [ -100.985928, 29.597766 ], [ -100.987195, 29.600366 ], [ -100.985333, 29.602325 ], [ -100.983521, 29.602188 ], [ -100.984214, 29.604338 ], [ -100.983598, 29.605015 ], [ -100.982092, 29.602667 ], [ -100.980243, 29.604136 ], [ -100.977317, 29.604885 ], [ -100.977116, 29.605589 ], [ -100.979194, 29.607062 ], [ -100.981617, 29.607507 ], [ -100.980201, 29.607843 ], [ -100.980831, 29.609239 ], [ -100.984923, 29.6124 ], [ -100.98549, 29.613626 ], [ -100.982751, 29.6114 ], [ -100.979654, 29.609768 ], [ -100.978792, 29.609905 ], [ -100.978857, 29.613568 ], [ -100.979771, 29.616301 ], [ -100.981225, 29.617433 ], [ -100.980722, 29.618775 ], [ -100.980281, 29.617257 ], [ -100.977978, 29.618204 ], [ -100.979116, 29.615328 ], [ -100.977674, 29.613574 ], [ -100.977232, 29.61072 ], [ -100.974833, 29.608505 ], [ -100.972285, 29.608879 ], [ -100.97163, 29.609545 ], [ -100.97282, 29.610518 ], [ -100.97155, 29.612537 ], [ -100.969423, 29.612686 ], [ -100.966088, 29.616135 ], [ -100.966435, 29.617922 ], [ -100.964911, 29.616003 ], [ -100.96274, 29.615635 ], [ -100.963375, 29.614167 ], [ -100.960323, 29.615751 ], [ -100.958983, 29.615614 ], [ -100.959127, 29.614569 ], [ -100.961367, 29.613205 ], [ -100.963463, 29.61255 ], [ -100.963576, 29.611725 ], [ -100.961178, 29.612627 ], [ -100.960064, 29.61216 ], [ -100.953576, 29.612997 ], [ -100.954432, 29.61463 ], [ -100.956478, 29.61485 ], [ -100.956473, 29.619744 ], [ -100.955698, 29.616687 ], [ -100.954791, 29.61567 ], [ -100.952444, 29.61589 ], [ -100.951254, 29.613625 ], [ -100.950259, 29.614901 ], [ -100.95065, 29.616226 ], [ -100.952948, 29.619883 ], [ -100.954591, 29.620201 ], [ -100.950871, 29.620906 ], [ -100.948184, 29.622193 ], [ -100.948495, 29.625317 ], [ -100.950968, 29.62706 ], [ -100.948683, 29.626236 ], [ -100.947624, 29.624679 ], [ -100.946711, 29.621995 ], [ -100.949008, 29.620917 ], [ -100.949146, 29.619751 ], [ -100.950839, 29.619465 ], [ -100.950569, 29.618228 ], [ -100.947806, 29.61847 ], [ -100.948831, 29.61643 ], [ -100.94637, 29.616996 ], [ -100.946333, 29.618382 ], [ -100.944885, 29.618063 ], [ -100.942796, 29.620764 ], [ -100.941657, 29.623909 ], [ -100.942427, 29.625389 ], [ -100.944861, 29.62381 ], [ -100.942761, 29.627198 ], [ -100.941225, 29.626066 ], [ -100.938392, 29.629657 ], [ -100.93945, 29.631175 ], [ -100.937555, 29.630625 ], [ -100.937448, 29.631449 ], [ -100.940023, 29.632841 ], [ -100.939255, 29.634562 ], [ -100.941578, 29.63526 ], [ -100.939588, 29.635601 ], [ -100.938266, 29.634832 ], [ -100.93792, 29.633176 ], [ -100.936756, 29.632956 ], [ -100.935276, 29.634491 ], [ -100.934653, 29.633176 ], [ -100.933734, 29.635167 ], [ -100.932041, 29.636239 ], [ -100.933212, 29.637856 ], [ -100.934672, 29.637042 ], [ -100.933627, 29.63872 ], [ -100.936315, 29.64082 ], [ -100.932085, 29.638813 ], [ -100.931525, 29.637752 ], [ -100.930549, 29.639308 ], [ -100.933426, 29.640688 ], [ -100.932009, 29.643015 ], [ -100.932053, 29.644378 ], [ -100.930573, 29.646913 ], [ -100.930668, 29.643339 ], [ -100.931348, 29.641238 ], [ -100.929245, 29.64176 ], [ -100.928351, 29.643339 ], [ -100.92849, 29.64478 ], [ -100.927464, 29.644967 ], [ -100.92825, 29.646248 ], [ -100.927023, 29.64715 ], [ -100.928546, 29.647788 ], [ -100.926871, 29.648002 ], [ -100.926708, 29.649267 ], [ -100.92779, 29.651291 ], [ -100.929213, 29.651483 ], [ -100.928206, 29.652308 ], [ -100.926475, 29.650647 ], [ -100.926103, 29.655311 ], [ -100.927387, 29.655498 ], [ -100.927519, 29.657687 ], [ -100.926291, 29.656763 ], [ -100.927865, 29.659716 ], [ -100.928854, 29.660332 ], [ -100.932625, 29.658462 ], [ -100.929634, 29.661179 ], [ -100.932776, 29.664407 ], [ -100.933715, 29.664869 ], [ -100.936347, 29.665738 ], [ -100.937071, 29.66361 ], [ -100.937417, 29.665903 ], [ -100.939029, 29.666068 ], [ -100.944262, 29.663901 ], [ -100.946887, 29.662289 ], [ -100.95079, 29.658819 ], [ -100.950633, 29.656157 ], [ -100.952138, 29.657911 ], [ -100.957784, 29.653648 ], [ -100.960926, 29.651657 ], [ -100.966579, 29.648983 ], [ -100.965861, 29.647955 ], [ -100.967523, 29.649 ], [ -100.972427, 29.648767 ], [ -100.977055, 29.649882 ], [ -100.983566, 29.651893 ], [ -100.986744, 29.650291 ], [ -100.9848, 29.652244 ], [ -100.990487, 29.655382 ], [ -100.993372, 29.658175 ], [ -100.997196, 29.662413 ], [ -101.001499, 29.665061 ], [ -101.002096, 29.666254 ], [ -101.003602, 29.664473 ], [ -101.002555, 29.666579 ], [ -101.001441, 29.666754 ], [ -101.002837, 29.669521 ], [ -101.004071, 29.669731 ], [ -101.006623, 29.667482 ], [ -101.007769, 29.667126 ], [ -101.009739, 29.667742 ], [ -101.010949, 29.66727 ], [ -101.014036, 29.663867 ], [ -101.017085, 29.659359 ], [ -101.016891, 29.657522 ], [ -101.018047, 29.6538 ], [ -101.02185, 29.654774 ], [ -101.023892, 29.654478 ], [ -101.026604, 29.65327 ], [ -101.028728, 29.65518 ], [ -101.034972, 29.654887 ], [ -101.039335, 29.656024 ], [ -101.041506, 29.65583 ], [ -101.046199, 29.653904 ], [ -101.045796, 29.656005 ], [ -101.049057, 29.65479 ], [ -101.0503, 29.658241 ], [ -101.050054, 29.666863 ], [ -101.050174, 29.66883 ], [ -101.051299, 29.67464 ], [ -101.052066, 29.67547 ], [ -101.054223, 29.6758 ], [ -101.053475, 29.678277 ], [ -101.055264, 29.679217 ], [ -101.059047, 29.678847 ], [ -101.059373, 29.679191 ], [ -101.064197, 29.676231 ], [ -101.065687, 29.674767 ], [ -101.068889, 29.673885 ], [ -101.075605, 29.667629 ], [ -101.080921, 29.664946 ], [ -101.081076, 29.666291 ], [ -101.079124, 29.670393 ], [ -101.077021, 29.672449 ], [ -101.080458, 29.673254 ], [ -101.077511, 29.675059 ], [ -101.074834, 29.675951 ], [ -101.073441, 29.677763 ], [ -101.071186, 29.677775 ], [ -101.074892, 29.678952 ], [ -101.079558, 29.68359 ], [ -101.080102, 29.682751 ], [ -101.082453, 29.682139 ], [ -101.081479, 29.680194 ], [ -101.081818, 29.678853 ], [ -101.083659, 29.678059 ], [ -101.085278, 29.676553 ], [ -101.090045, 29.673843 ], [ -101.093685, 29.673258 ], [ -101.094861, 29.6735 ], [ -101.095509, 29.67203 ], [ -101.093454, 29.670438 ], [ -101.094907, 29.66673 ], [ -101.097199, 29.668879 ], [ -101.098636, 29.671441 ], [ -101.100009, 29.671281 ] ] ] } }
]
}
