{
"type": "FeatureCollection",
"name": "79002",
"crs": { "type": "name", "properties": { "name": "urn:ogc:def:crs:OGC:1.3:CRS84" } },
"features": [
{ "type": "Feature", "properties": { "Name": "", "Description": "" }, "geometry": { "type": "Polygon", "coordinates": [ [ [ -100.814272, 35.186876 ], [ -100.814204, 35.183206 ], [ -100.787627, 35.183139 ], [ -100.750416, 35.18314 ], [ -100.749596, 35.183265 ], [ -100.750618, 35.184671 ], [ -100.751827, 35.188148 ], [ -100.751652, 35.189861 ], [ -100.752862, 35.19292 ], [ -100.749447, 35.194143 ], [ -100.747774, 35.19538 ], [ -100.749507, 35.199867 ], [ -100.748058, 35.20131 ], [ -100.745681, 35.201355 ], [ -100.741272, 35.203467 ], [ -100.738588, 35.202159 ], [ -100.736845, 35.202918 ], [ -100.736561, 35.204665 ], [ -100.733977, 35.20839 ], [ -100.724039, 35.208384 ], [ -100.723306, 35.208133 ], [ -100.723425, 35.213866 ], [ -100.729106, 35.215093 ], [ -100.734403, 35.215171 ], [ -100.734401, 35.215429 ], [ -100.741746, 35.215236 ], [ -100.750337, 35.213206 ], [ -100.752961, 35.212791 ], [ -100.756974, 35.212794 ], [ -100.760548, 35.213368 ], [ -100.76646, 35.214928 ], [ -100.768657, 35.215176 ], [ -100.77156, 35.21489 ], [ -100.773811, 35.214101 ], [ -100.776167, 35.212569 ], [ -100.780993, 35.207777 ], [ -100.785258, 35.205273 ], [ -100.792531, 35.202222 ], [ -100.795955, 35.200208 ], [ -100.808778, 35.189811 ], [ -100.814272, 35.186876 ] ] ] } }
]
}
