{
"type": "FeatureCollection",
"name": "79008",
"crs": { "type": "name", "properties": { "name": "urn:ogc:def:crs:OGC:1.3:CRS84" } },
"features": [
{ "type": "Feature", "properties": { "Name": "", "Description": "" }, "geometry": { "type": "Polygon", "coordinates": [ [ [ -101.435773, 35.683586 ], [ -101.433567, 35.683736 ], [ -101.433146, 35.685224 ], [ -101.431687, 35.686528 ], [ -101.42588, 35.689504 ], [ -101.422652, 35.690305 ], [ -101.420155, 35.689755 ], [ -101.419089, 35.690236 ], [ -101.4185, 35.691769 ], [ -101.418892, 35.694378 ], [ -101.419846, 35.695981 ], [ -101.421473, 35.696484 ], [ -101.420407, 35.698132 ], [ -101.420659, 35.699437 ], [ -101.418582, 35.700535 ], [ -101.417572, 35.703784 ], [ -101.416561, 35.704151 ], [ -101.415242, 35.706325 ], [ -101.414921, 35.708009 ], [ -101.415608, 35.710136 ], [ -101.416275, 35.710112 ], [ -101.420507, 35.712677 ], [ -101.421315, 35.712651 ], [ -101.435773, 35.683586 ] ] ] } }
]
}
