{
"type": "FeatureCollection",
"name": "79066",
"crs": { "type": "name", "properties": { "name": "urn:ogc:def:crs:OGC:1.3:CRS84" } },
"features": [
{ "type": "Feature", "properties": { "Name": "", "Description": "" }, "geometry": { "type": "Polygon", "coordinates": [ [ [ -101.043045, 35.509979 ], [ -101.04298, 35.496799 ], [ -101.042942, 35.488772 ], [ -101.025171, 35.488966 ], [ -101.025245, 35.502345 ], [ -101.026134, 35.503629 ], [ -101.033757, 35.500171 ], [ -101.024767, 35.504382 ], [ -101.025249, 35.508416 ], [ -101.028463, 35.507934 ], [ -101.028546, 35.510314 ], [ -101.032886, 35.509927 ], [ -101.043045, 35.509979 ] ] ] } }
]
}
