{
"type": "FeatureCollection",
"name": "79223",
"crs": { "type": "name", "properties": { "name": "urn:ogc:def:crs:OGC:1.3:CRS84" } },
"features": [
{ "type": "Feature", "properties": { "Name": "", "Description": "" }, "geometry": { "type": "Polygon", "coordinates": [ [ [ -100.517626, 34.250068 ], [ -100.518042, 34.212151 ], [ -100.516484, 34.211623 ], [ -100.513871, 34.209553 ], [ -100.512297, 34.209153 ], [ -100.51076, 34.20993 ], [ -100.508692, 34.209721 ], [ -100.496863, 34.209476 ], [ -100.493063, 34.20899 ], [ -100.492064, 34.20941 ], [ -100.495316, 34.20752 ], [ -100.494569, 34.204772 ], [ -100.494123, 34.197672 ], [ -100.492193, 34.196391 ], [ -100.491917, 34.194971 ], [ -100.45511, 34.194637 ], [ -100.454225, 34.217899 ], [ -100.452942, 34.218404 ], [ -100.452739, 34.223404 ], [ -100.445654, 34.223288 ], [ -100.445286, 34.237656 ], [ -100.442723, 34.24035 ], [ -100.441289, 34.240742 ], [ -100.439801, 34.244773 ], [ -100.442007, 34.248346 ], [ -100.444986, 34.248941 ], [ -100.443301, 34.252029 ], [ -100.444128, 34.254045 ], [ -100.445866, 34.253495 ], [ -100.447879, 34.256037 ], [ -100.449396, 34.256312 ], [ -100.449369, 34.258052 ], [ -100.450197, 34.25977 ], [ -100.451686, 34.261098 ], [ -100.451852, 34.262839 ], [ -100.45359, 34.264716 ], [ -100.456238, 34.265678 ], [ -100.460569, 34.265494 ], [ -100.463466, 34.265814 ], [ -100.464717, 34.264765 ], [ -100.468926, 34.265188 ], [ -100.469838, 34.263181 ], [ -100.469523, 34.259825 ], [ -100.488449, 34.260209 ], [ -100.493172, 34.261338 ], [ -100.49913, 34.262297 ], [ -100.502407, 34.262437 ], [ -100.505443, 34.261798 ], [ -100.507981, 34.260562 ], [ -100.511567, 34.26077 ], [ -100.513525, 34.26045 ], [ -100.514767, 34.25942 ], [ -100.517588, 34.258445 ], [ -100.517626, 34.250068 ] ] ] } }
]
}
