{
"type": "FeatureCollection",
"name": "79383",
"crs": { "type": "name", "properties": { "name": "urn:ogc:def:crs:OGC:1.3:CRS84" } },
"features": [
{ "type": "Feature", "properties": { "Name": "", "Description": "" }, "geometry": { "type": "Polygon", "coordinates": [ [ [ -101.912515, 33.332597 ], [ -101.913145, 33.329006 ], [ -101.911764, 33.329006 ], [ -101.911752, 33.319692 ], [ -101.903039, 33.319658 ], [ -101.903129, 33.327002 ], [ -101.910256, 33.326973 ], [ -101.91032, 33.330144 ], [ -101.909173, 33.331206 ], [ -101.911765, 33.331827 ], [ -101.912515, 33.332597 ] ] ] } }
]
}
