{
"type": "FeatureCollection",
"name": "79769",
"crs": { "type": "name", "properties": { "name": "urn:ogc:def:crs:OGC:1.3:CRS84" } },
"features": [
{ "type": "Feature", "properties": { "Name": "", "Description": "" }, "geometry": { "type": "Polygon", "coordinates": [ [ [ -102.6966, 31.679638 ], [ -102.69995, 31.67723 ], [ -102.692855, 31.664776 ], [ -102.693158, 31.658122 ], [ -102.69312, 31.65288 ], [ -102.690959, 31.65143 ], [ -102.633068, 31.651206 ], [ -102.533468, 31.651307 ], [ -102.567708, 31.684207 ], [ -102.570454, 31.687369 ], [ -102.571584, 31.68939 ], [ -102.572181, 31.690971 ], [ -102.584082, 31.728132 ], [ -102.585244, 31.730718 ], [ -102.590482, 31.735616 ], [ -102.591221, 31.737026 ], [ -102.59548, 31.735399 ], [ -102.598507, 31.734524 ], [ -102.608396, 31.731018 ], [ -102.609846, 31.730277 ], [ -102.6966, 31.679638 ] ] ] } }
]
}
