{
"type": "FeatureCollection",
"name": "79776",
"crs": { "type": "name", "properties": { "name": "urn:ogc:def:crs:OGC:1.3:CRS84" } },
"features": [
{ "type": "Feature", "properties": { "Name": "", "Description": "" }, "geometry": { "type": "Polygon", "coordinates": [ [ [ -102.565948, 31.774308 ], [ -102.567123, 31.767015 ], [ -102.559102, 31.75322 ], [ -102.55167, 31.757796 ], [ -102.5437, 31.760324 ], [ -102.542332, 31.761241 ], [ -102.541824, 31.762547 ], [ -102.5406, 31.763303 ], [ -102.545455, 31.776932 ], [ -102.548847, 31.784282 ], [ -102.553331, 31.798248 ], [ -102.565766, 31.795536 ], [ -102.565476, 31.780484 ], [ -102.565948, 31.774308 ] ] ] } }
]
}
