{
"type": "FeatureCollection",
"name": "79832",
"crs": { "type": "name", "properties": { "name": "urn:ogc:def:crs:OGC:1.3:CRS84" } },
"features": [
{ "type": "Feature", "properties": { "Name": "", "Description": "" }, "geometry": { "type": "Polygon", "coordinates": [ [ [ -103.653068, 30.363986 ], [ -103.654061, 30.363702 ], [ -103.652707, 30.360227 ], [ -103.647875, 30.36167 ], [ -103.646396, 30.362255 ], [ -103.643913, 30.363168 ], [ -103.645139, 30.363854 ], [ -103.645919, 30.366034 ], [ -103.650461, 30.364759 ], [ -103.652105, 30.36429 ], [ -103.653068, 30.363986 ] ] ] } }
]
}
