{
"type": "FeatureCollection",
"name": "79918",
"crs": { "type": "name", "properties": { "name": "urn:ogc:def:crs:OGC:1.3:CRS84" } },
"features": [
{ "type": "Feature", "properties": { "Name": "", "Description": "" }, "geometry": { "type": "Polygon", "coordinates": [ [ [ -106.415174, 31.833519 ], [ -106.41506, 31.829942 ], [ -106.413252, 31.829429 ], [ -106.413218, 31.827729 ], [ -106.403431, 31.827944 ], [ -106.403423, 31.826858 ], [ -106.40129, 31.827582 ], [ -106.395689, 31.832414 ], [ -106.390903, 31.832526 ], [ -106.390803, 31.829264 ], [ -106.38889, 31.829261 ], [ -106.388856, 31.826793 ], [ -106.373023, 31.827052 ], [ -106.371502, 31.827213 ], [ -106.368679, 31.82923 ], [ -106.367607, 31.835625 ], [ -106.367089, 31.836582 ], [ -106.35273, 31.846702 ], [ -106.348834, 31.843013 ], [ -106.344906, 31.842214 ], [ -106.342836, 31.84229 ], [ -106.342022, 31.841349 ], [ -106.337088, 31.84108 ], [ -106.324875, 31.841332 ], [ -106.324545, 31.841343 ], [ -106.326922, 31.844835 ], [ -106.329983, 31.850106 ], [ -106.339783, 31.866378 ], [ -106.345818, 31.863541 ], [ -106.347726, 31.862001 ], [ -106.354248, 31.859462 ], [ -106.353945, 31.860892 ], [ -106.356633, 31.860378 ], [ -106.357373, 31.860897 ], [ -106.35774, 31.863998 ], [ -106.353972, 31.86735 ], [ -106.357183, 31.870094 ], [ -106.364035, 31.870317 ], [ -106.376592, 31.859203 ], [ -106.384696, 31.858975 ], [ -106.397671, 31.847407 ], [ -106.396834, 31.845809 ], [ -106.398737, 31.844972 ], [ -106.399384, 31.845923 ], [ -106.405357, 31.840444 ], [ -106.405281, 31.833671 ], [ -106.415174, 31.833519 ] ] ] } }
]
}
