{
"type": "FeatureCollection",
"name": "80430",
"crs": { "type": "name", "properties": { "name": "urn:ogc:def:crs:OGC:1.3:CRS84" } },
"features": [
{ "type": "Feature", "properties": { "Name": "", "Description": "" }, "geometry": { "type": "Polygon", "coordinates": [ [ [ -106.63872, 40.55243 ], [ -106.63717, 40.5509 ], [ -106.63705, 40.54923 ], [ -106.63544, 40.54779 ], [ -106.63033, 40.54617 ], [ -106.627638, 40.546804 ], [ -106.623954, 40.545918 ], [ -106.62489, 40.54239 ], [ -106.6284, 40.54035 ], [ -106.62972, 40.53803 ], [ -106.6316, 40.53717 ], [ -106.62956, 40.53574 ], [ -106.6288, 40.53254 ], [ -106.62744, 40.53212 ], [ -106.623136, 40.528749 ], [ -106.62352, 40.52696 ], [ -106.625177, 40.526611 ], [ -106.62603, 40.52535 ], [ -106.625194, 40.521244 ], [ -106.62395, 40.51901 ], [ -106.62582, 40.51476 ], [ -106.62604, 40.5091 ], [ -106.62737, 40.50788 ], [ -106.62589, 40.504746 ], [ -106.626071, 40.501234 ], [ -106.62536, 40.49913 ], [ -106.62523, 40.49454 ], [ -106.62683, 40.49288 ], [ -106.628491, 40.492255 ], [ -106.625927, 40.490999 ], [ -106.62575, 40.4887 ], [ -106.6269, 40.48708 ], [ -106.623892, 40.486421 ], [ -106.62331, 40.48477 ], [ -106.626014, 40.482683 ], [ -106.62593, 40.480651 ], [ -106.626867, 40.478855 ], [ -106.625313, 40.476842 ], [ -106.620888, 40.473561 ], [ -106.61811, 40.47023 ], [ -106.615787, 40.469787 ], [ -106.61251, 40.468215 ], [ -106.610262, 40.464486 ], [ -106.612671, 40.459592 ], [ -106.610598, 40.460213 ], [ -106.607302, 40.458467 ], [ -106.60826, 40.456887 ], [ -106.610208, 40.456108 ], [ -106.612157, 40.456746 ], [ -106.614313, 40.455715 ], [ -106.613176, 40.453884 ], [ -106.610391, 40.45139 ], [ -106.604674, 40.450908 ], [ -106.601159, 40.45291 ], [ -106.599842, 40.454329 ], [ -106.599245, 40.456937 ], [ -106.592985, 40.459273 ], [ -106.588134, 40.460418 ], [ -106.585441, 40.46209 ], [ -106.582991, 40.45973 ], [ -106.581597, 40.459393 ], [ -106.575872, 40.459947 ], [ -106.569944, 40.459148 ], [ -106.567285, 40.461361 ], [ -106.563849, 40.461296 ], [ -106.560614, 40.46006 ], [ -106.559097, 40.458314 ], [ -106.55689, 40.458621 ], [ -106.553684, 40.457781 ], [ -106.551657, 40.459242 ], [ -106.546855, 40.458632 ], [ -106.546287, 40.45979 ], [ -106.544044, 40.459532 ], [ -106.542577, 40.457949 ], [ -106.542386, 40.455847 ], [ -106.54088, 40.45606 ], [ -106.5394, 40.45501 ], [ -106.53891, 40.45349 ], [ -106.53871, 40.44967 ], [ -106.53766, 40.44943 ], [ -106.53464, 40.44659 ], [ -106.53228, 40.4455 ], [ -106.53098, 40.44401 ], [ -106.52735, 40.44262 ], [ -106.52824, 40.44143 ], [ -106.52724, 40.43934 ], [ -106.52844, 40.43681 ], [ -106.53068, 40.43611 ], [ -106.53087, 40.4351 ], [ -106.52804, 40.43259 ], [ -106.52619, 40.43168 ], [ -106.52428, 40.42959 ], [ -106.52276, 40.4269 ], [ -106.51739, 40.42629 ], [ -106.50818, 40.42985 ], [ -106.50663, 40.43129 ], [ -106.50626, 40.43492 ], [ -106.50495, 40.43629 ], [ -106.499291, 40.438037 ], [ -106.48988, 40.43709 ], [ -106.48324, 40.43701 ], [ -106.47894, 40.43536 ], [ -106.47547, 40.43492 ], [ -106.46818, 40.43676 ], [ -106.46168, 40.43668 ], [ -106.45747, 40.43589 ], [ -106.45237, 40.43641 ], [ -106.45018, 40.43728 ], [ -106.44579, 40.44125 ], [ -106.44545, 40.44232 ], [ -106.444708, 40.451177 ], [ -106.443601, 40.451122 ], [ -106.443457, 40.449519 ], [ -106.442156, 40.447679 ], [ -106.439533, 40.446279 ], [ -106.439022, 40.442842 ], [ -106.438023, 40.442304 ], [ -106.435537, 40.440596 ], [ -106.433417, 40.440914 ], [ -106.430046, 40.439245 ], [ -106.426984, 40.439151 ], [ -106.423133, 40.437366 ], [ -106.421566, 40.437915 ], [ -106.418031, 40.437959 ], [ -106.414869, 40.436844 ], [ -106.410054, 40.436552 ], [ -106.407166, 40.434909 ], [ -106.405148, 40.431888 ], [ -106.403151, 40.430493 ], [ -106.397841, 40.430519 ], [ -106.392913, 40.428562 ], [ -106.388925, 40.428385 ], [ -106.381802, 40.431215 ], [ -106.377519, 40.431592 ], [ -106.371585, 40.432656 ], [ -106.368775, 40.4324 ], [ -106.367099, 40.430056 ], [ -106.361939, 40.428471 ], [ -106.361331, 40.424168 ], [ -106.36146, 40.42675 ], [ -106.36053, 40.42821 ], [ -106.36152, 40.4301 ], [ -106.36127, 40.43182 ], [ -106.3632, 40.43342 ], [ -106.36375, 40.4348 ], [ -106.36565, 40.43705 ], [ -106.35495, 40.43601 ], [ -106.35322, 40.43673 ], [ -106.35142, 40.43876 ], [ -106.34742, 40.43967 ], [ -106.34712, 40.44197 ], [ -106.35136, 40.44723 ], [ -106.35401, 40.44933 ], [ -106.35383, 40.45066 ], [ -106.35543, 40.45181 ], [ -106.35652, 40.45514 ], [ -106.35863, 40.45696 ], [ -106.36141, 40.46013 ], [ -106.36151, 40.4624 ], [ -106.36405, 40.46621 ], [ -106.36158, 40.46792 ], [ -106.36113, 40.47377 ], [ -106.35748, 40.47688 ], [ -106.35558, 40.47915 ], [ -106.35519, 40.48067 ], [ -106.352361, 40.481363 ], [ -106.352492, 40.489884 ], [ -106.355883, 40.488822 ], [ -106.357303, 40.486078 ], [ -106.362712, 40.479904 ], [ -106.365069, 40.478462 ], [ -106.368723, 40.477545 ], [ -106.368843, 40.478026 ], [ -106.372483, 40.4783 ], [ -106.3831, 40.48813 ], [ -106.38426, 40.49187 ], [ -106.38359, 40.49451 ], [ -106.38214, 40.50838 ], [ -106.38224, 40.50921 ], [ -106.389647, 40.522055 ], [ -106.38995, 40.52318 ], [ -106.37303, 40.52306 ], [ -106.36465, 40.52263 ], [ -106.35605, 40.52391 ], [ -106.35311, 40.524 ], [ -106.35058, 40.5226 ], [ -106.34535, 40.52171 ], [ -106.33092, 40.51802 ], [ -106.32062, 40.51478 ], [ -106.31928, 40.51402 ], [ -106.31311, 40.50918 ], [ -106.30506, 40.50457 ], [ -106.30118, 40.50254 ], [ -106.29869, 40.502457 ], [ -106.293147, 40.500459 ], [ -106.291738, 40.500354 ], [ -106.287066, 40.498228 ], [ -106.285239, 40.497752 ], [ -106.283379, 40.499569 ], [ -106.27841, 40.4989 ], [ -106.27473, 40.49765 ], [ -106.245164, 40.497348 ], [ -106.24168, 40.49729 ], [ -106.23646, 40.49657 ], [ -106.23399, 40.49647 ], [ -106.22846, 40.49756 ], [ -106.21657, 40.49773 ], [ -106.21554, 40.49796 ], [ -106.22114, 40.50938 ], [ -106.23819, 40.53174 ], [ -106.24079, 40.53432 ], [ -106.28466, 40.57242 ], [ -106.29601, 40.58923 ], [ -106.29631, 40.58987 ], [ -106.30721, 40.58848 ], [ -106.31108, 40.58613 ], [ -106.31728, 40.5845 ], [ -106.32613, 40.58449 ], [ -106.32872, 40.58408 ], [ -106.33771, 40.583717 ], [ -106.34181, 40.58354 ], [ -106.3434, 40.5803 ], [ -106.34489, 40.57962 ], [ -106.34688, 40.57624 ], [ -106.34901, 40.57447 ], [ -106.35486, 40.56754 ], [ -106.35644, 40.565 ], [ -106.35862, 40.56371 ], [ -106.36584, 40.55666 ], [ -106.36994, 40.55495 ], [ -106.37356, 40.55475 ], [ -106.37768, 40.55215 ], [ -106.38641, 40.54967 ], [ -106.388, 40.54847 ], [ -106.38832, 40.54113 ], [ -106.39699, 40.54127 ], [ -106.39831, 40.54399 ], [ -106.400809, 40.544465 ], [ -106.402105, 40.543411 ], [ -106.402515, 40.544767 ], [ -106.404106, 40.544828 ], [ -106.404826, 40.543159 ], [ -106.407087, 40.542122 ], [ -106.406397, 40.539019 ], [ -106.409917, 40.538993 ], [ -106.411458, 40.537247 ], [ -106.40999, 40.536033 ], [ -106.410674, 40.534957 ], [ -106.413423, 40.53526 ], [ -106.412315, 40.534436 ], [ -106.41492, 40.53453 ], [ -106.414136, 40.533838 ], [ -106.415, 40.532246 ], [ -106.412611, 40.530988 ], [ -106.415418, 40.530077 ], [ -106.415786, 40.529198 ], [ -106.414628, 40.527062 ], [ -106.418061, 40.525635 ], [ -106.416255, 40.525157 ], [ -106.416147, 40.522983 ], [ -106.417809, 40.523472 ], [ -106.418738, 40.522132 ], [ -106.417781, 40.521182 ], [ -106.419911, 40.52132 ], [ -106.42479, 40.517565 ], [ -106.42374, 40.516873 ], [ -106.424568, 40.513886 ], [ -106.423597, 40.513551 ], [ -106.424036, 40.512013 ], [ -106.425417, 40.512359 ], [ -106.428561, 40.511355 ], [ -106.429504, 40.510361 ], [ -106.428367, 40.508538 ], [ -106.429965, 40.507594 ], [ -106.429173, 40.506852 ], [ -106.42962, 40.504941 ], [ -106.432296, 40.506765 ], [ -106.433677, 40.506583 ], [ -106.432512, 40.50632 ], [ -106.433986, 40.504541 ], [ -106.432778, 40.503399 ], [ -106.433374, 40.502362 ], [ -106.43518, 40.503327 ], [ -106.436029, 40.504744 ], [ -106.436238, 40.503322 ], [ -106.438187, 40.503459 ], [ -106.445031, 40.49802 ], [ -106.44457, 40.496905 ], [ -106.445915, 40.496252 ], [ -106.448376, 40.497767 ], [ -106.45003, 40.497234 ], [ -106.451958, 40.498157 ], [ -106.456489, 40.497387 ], [ -106.458093, 40.497864 ], [ -106.461214, 40.497282 ], [ -106.46325, 40.498899 ], [ -106.469566, 40.500665 ], [ -106.470369, 40.50282 ], [ -106.472121, 40.504834 ], [ -106.477696, 40.50562 ], [ -106.478097, 40.508296 ], [ -106.482569, 40.509455 ], [ -106.481939, 40.510742 ], [ -106.475104, 40.512067 ], [ -106.470984, 40.510816 ], [ -106.46633, 40.512194 ], [ -106.461814, 40.512589 ], [ -106.460254, 40.513822 ], [ -106.457404, 40.514182 ], [ -106.452834, 40.515784 ], [ -106.450227, 40.515214 ], [ -106.448986, 40.513176 ], [ -106.44635, 40.51474 ], [ -106.44551, 40.51624 ], [ -106.44286, 40.51843 ], [ -106.44304, 40.51994 ], [ -106.44208, 40.52144 ], [ -106.44248, 40.52453 ], [ -106.44519, 40.52802 ], [ -106.44431, 40.53165 ], [ -106.44219, 40.53675 ], [ -106.44053, 40.54288 ], [ -106.43933, 40.54967 ], [ -106.43744, 40.55401 ], [ -106.4375, 40.55632 ], [ -106.44108, 40.55843 ], [ -106.44326, 40.56082 ], [ -106.44541, 40.5617 ], [ -106.44681, 40.5675 ], [ -106.44627, 40.56937 ], [ -106.44789, 40.57531 ], [ -106.44892, 40.57813 ], [ -106.450647, 40.577535 ], [ -106.449091, 40.57417 ], [ -106.450019, 40.572863 ], [ -106.451395, 40.573219 ], [ -106.451682, 40.571347 ], [ -106.45354, 40.572593 ], [ -106.45462, 40.571879 ], [ -106.45359, 40.569892 ], [ -106.457672, 40.568436 ], [ -106.458112, 40.569968 ], [ -106.460092, 40.569429 ], [ -106.462568, 40.566442 ], [ -106.461948, 40.565212 ], [ -106.463452, 40.564114 ], [ -106.465972, 40.563855 ], [ -106.466591, 40.562762 ], [ -106.471415, 40.562651 ], [ -106.470593, 40.561416 ], [ -106.472839, 40.560613 ], [ -106.471954, 40.561887 ], [ -106.474467, 40.562551 ], [ -106.478282, 40.561457 ], [ -106.477794, 40.562814 ], [ -106.479853, 40.563603 ], [ -106.480898, 40.565217 ], [ -106.484641, 40.563187 ], [ -106.488682, 40.562442 ], [ -106.492759, 40.560853 ], [ -106.495393, 40.563838 ], [ -106.49803, 40.5639 ], [ -106.500622, 40.562821 ], [ -106.504307, 40.56295 ], [ -106.508008, 40.561269 ], [ -106.51256, 40.560591 ], [ -106.514857, 40.562747 ], [ -106.519735, 40.565484 ], [ -106.521232, 40.56675 ], [ -106.523683, 40.567193 ], [ -106.52214, 40.57066 ], [ -106.52168, 40.5728 ], [ -106.52047, 40.57464 ], [ -106.52052, 40.57788 ], [ -106.49551, 40.57787 ], [ -106.49612, 40.590995 ], [ -106.497063, 40.589671 ], [ -106.50226, 40.590452 ], [ -106.502045, 40.588656 ], [ -106.504538, 40.588136 ], [ -106.508234, 40.585897 ], [ -106.509012, 40.586304 ], [ -106.51036, 40.584734 ], [ -106.512362, 40.584647 ], [ -106.513182, 40.58568 ], [ -106.514731, 40.585257 ], [ -106.516603, 40.586581 ], [ -106.518858, 40.585544 ], [ -106.5206, 40.586297 ], [ -106.523604, 40.585271 ], [ -106.525577, 40.5857 ], [ -106.526205, 40.583762 ], [ -106.527205, 40.585174 ], [ -106.52964, 40.584049 ], [ -106.531296, 40.584702 ], [ -106.531577, 40.58361 ], [ -106.533673, 40.58439 ], [ -106.534703, 40.582732 ], [ -106.538909, 40.582469 ], [ -106.539488, 40.580762 ], [ -106.53951, 40.58267 ], [ -106.53825, 40.58495 ], [ -106.54199, 40.58635 ], [ -106.54319, 40.58901 ], [ -106.54291, 40.59034 ], [ -106.546335, 40.594713 ], [ -106.558376, 40.588175 ], [ -106.559514, 40.585809 ], [ -106.563676, 40.583289 ], [ -106.565549, 40.581598 ], [ -106.564296, 40.582098 ], [ -106.561458, 40.581049 ], [ -106.560796, 40.579984 ], [ -106.558513, 40.580473 ], [ -106.557742, 40.579709 ], [ -106.553421, 40.579501 ], [ -106.55306, 40.57718 ], [ -106.55215, 40.57618 ], [ -106.54929, 40.57494 ], [ -106.56003, 40.57076 ], [ -106.56287, 40.56924 ], [ -106.56596, 40.56515 ], [ -106.56926, 40.56245 ], [ -106.57088, 40.55956 ], [ -106.57059, 40.5583 ], [ -106.56901, 40.55693 ], [ -106.56934, 40.55513 ], [ -106.57246, 40.55256 ], [ -106.57322, 40.55003 ], [ -106.57671, 40.54809 ], [ -106.57682, 40.54162 ], [ -106.57839, 40.54066 ], [ -106.58078, 40.53795 ], [ -106.581412, 40.528724 ], [ -106.583099, 40.525727 ], [ -106.582018, 40.522974 ], [ -106.58197, 40.520442 ], [ -106.582834, 40.515176 ], [ -106.585423, 40.512474 ], [ -106.586084, 40.510832 ], [ -106.591779, 40.504763 ], [ -106.592706, 40.503023 ], [ -106.597008, 40.502406 ], [ -106.599556, 40.499399 ], [ -106.600597, 40.495407 ], [ -106.604701, 40.491848 ], [ -106.606729, 40.491808 ], [ -106.609636, 40.493976 ], [ -106.612463, 40.493722 ], [ -106.613587, 40.492676 ], [ -106.61407, 40.49352 ], [ -106.61028, 40.49797 ], [ -106.60938, 40.50071 ], [ -106.60931, 40.50342 ], [ -106.61, 40.50534 ], [ -106.60984, 40.50916 ], [ -106.60865, 40.5159 ], [ -106.60987, 40.51854 ], [ -106.61023, 40.52182 ], [ -106.60967, 40.52388 ], [ -106.60973, 40.52895 ], [ -106.61042, 40.53027 ], [ -106.61074, 40.53318 ], [ -106.61216, 40.53824 ], [ -106.61143, 40.5403 ], [ -106.61203, 40.54119 ], [ -106.61019, 40.54617 ], [ -106.61248, 40.54857 ], [ -106.61276, 40.55118 ], [ -106.61628, 40.54998 ], [ -106.61797, 40.54891 ], [ -106.61845, 40.54971 ], [ -106.61625, 40.55228 ], [ -106.61453, 40.55355 ], [ -106.61502, 40.55605 ], [ -106.61237, 40.55657 ], [ -106.61052, 40.55634 ], [ -106.60736, 40.55758 ], [ -106.60499, 40.55712 ], [ -106.60314, 40.55593 ], [ -106.60042, 40.55688 ], [ -106.6, 40.56007 ], [ -106.60308, 40.56115 ], [ -106.60334, 40.56455 ], [ -106.60533, 40.56794 ], [ -106.60732, 40.56831 ], [ -106.6106, 40.56747 ], [ -106.612338, 40.564925 ], [ -106.615211, 40.564365 ], [ -106.617877, 40.562919 ], [ -106.62229, 40.562491 ], [ -106.623211, 40.560393 ], [ -106.626346, 40.562737 ], [ -106.629098, 40.563158 ], [ -106.6296, 40.5617 ], [ -106.628991, 40.559944 ], [ -106.63271, 40.559496 ], [ -106.633953, 40.560554 ], [ -106.637436, 40.561319 ], [ -106.636069, 40.557603 ], [ -106.637202, 40.555619 ], [ -106.63676, 40.555026 ], [ -106.63872, 40.55243 ] ] ] } }
]
}
