{
"type": "FeatureCollection",
"name": "80474",
"crs": { "type": "name", "properties": { "name": "urn:ogc:def:crs:OGC:1.3:CRS84" } },
"features": [
{ "type": "Feature", "properties": { "Name": "", "Description": "" }, "geometry": { "type": "Polygon", "coordinates": [ [ [ -105.656439, 39.932386 ], [ -105.656422, 39.931186 ], [ -105.653565, 39.929298 ], [ -105.64945, 39.927797 ], [ -105.647165, 39.927843 ], [ -105.645146, 39.926434 ], [ -105.645257, 39.925411 ], [ -105.647796, 39.924307 ], [ -105.648083, 39.92286 ], [ -105.64281, 39.922225 ], [ -105.638563, 39.922955 ], [ -105.633317, 39.922851 ], [ -105.630234, 39.923785 ], [ -105.625866, 39.925837 ], [ -105.620243, 39.926122 ], [ -105.615422, 39.925227 ], [ -105.613586, 39.925691 ], [ -105.612027, 39.92498 ], [ -105.612264, 39.924117 ], [ -105.615446, 39.922439 ], [ -105.615648, 39.92131 ], [ -105.613194, 39.921708 ], [ -105.610444, 39.922977 ], [ -105.609073, 39.924137 ], [ -105.603959, 39.924804 ], [ -105.5991, 39.92352 ], [ -105.592951, 39.923863 ], [ -105.591096, 39.923319 ], [ -105.59019, 39.921578 ], [ -105.59138, 39.91942 ], [ -105.590715, 39.916641 ], [ -105.586735, 39.915521 ], [ -105.584089, 39.91511 ], [ -105.583168, 39.912803 ], [ -105.583524, 39.91076 ], [ -105.582682, 39.909552 ], [ -105.57923, 39.908223 ], [ -105.577076, 39.908399 ], [ -105.57428, 39.907971 ], [ -105.566713, 39.907982 ], [ -105.565223, 39.908241 ], [ -105.561179, 39.908059 ], [ -105.558239, 39.908396 ], [ -105.556935, 39.909026 ], [ -105.554546, 39.911327 ], [ -105.5516, 39.912947 ], [ -105.542106, 39.913918 ], [ -105.537748, 39.915021 ], [ -105.536543, 39.91445 ], [ -105.532307, 39.913531 ], [ -105.530352, 39.913575 ], [ -105.525673, 39.915029 ], [ -105.522435, 39.914764 ], [ -105.520056, 39.915857 ], [ -105.520123, 39.91646 ], [ -105.517549, 39.917515 ], [ -105.516687, 39.91768 ], [ -105.514345, 39.917805 ], [ -105.50254, 39.9172 ], [ -105.502343, 39.916627 ], [ -105.501826, 39.91462 ], [ -105.499098, 39.914002 ], [ -105.49678, 39.914201 ], [ -105.494732, 39.913867 ], [ -105.493149, 39.913884 ], [ -105.491073, 39.913144 ], [ -105.486843, 39.912152 ], [ -105.485459, 39.912015 ], [ -105.483968, 39.912186 ], [ -105.483483, 39.912147 ], [ -105.48312, 39.911983 ], [ -105.482756, 39.911664 ], [ -105.481, 39.909419 ], [ -105.480237, 39.909832 ], [ -105.48167, 39.910433 ], [ -105.482648, 39.911751 ], [ -105.483381, 39.912201 ], [ -105.484213, 39.91232 ], [ -105.486328, 39.912229 ], [ -105.492777, 39.913916 ], [ -105.49165, 39.917958 ], [ -105.494297, 39.917874 ], [ -105.498563, 39.919269 ], [ -105.498354, 39.921779 ], [ -105.50274, 39.92197 ], [ -105.502876, 39.925142 ], [ -105.502471, 39.92626 ], [ -105.501928, 39.928979 ], [ -105.499712, 39.931271 ], [ -105.501154, 39.932388 ], [ -105.510981, 39.932294 ], [ -105.515434, 39.932387 ], [ -105.518249, 39.932387 ], [ -105.519031, 39.93229 ], [ -105.520353, 39.932387 ], [ -105.625668, 39.932386 ], [ -105.62877, 39.932086 ], [ -105.656439, 39.932386 ] ] ] } }
]
}
