{
"type": "FeatureCollection",
"name": "80732",
"crs": { "type": "name", "properties": { "name": "urn:ogc:def:crs:OGC:1.3:CRS84" } },
"features": [
{ "type": "Feature", "properties": { "Name": "", "Description": "" }, "geometry": { "type": "Polygon", "coordinates": [ [ [ -104.315373, 40.981248 ], [ -104.314911, 40.98001 ], [ -104.314419, 40.979547 ], [ -104.304248, 40.973418 ], [ -104.296491, 40.973488 ], [ -104.296428, 40.988315 ], [ -104.295817560960998, 41.0015979949276 ], [ -104.314664992332993, 41.001584286621103 ], [ -104.315373, 40.981248 ] ] ] } }
]
}
