{
"type": "FeatureCollection",
"name": "81046",
"crs": { "type": "name", "properties": { "name": "urn:ogc:def:crs:OGC:1.3:CRS84" } },
"features": [
{ "type": "Feature", "properties": { "Name": "", "Description": "" }, "geometry": { "type": "Polygon", "coordinates": [ [ [ -104.379918, 37.281101 ], [ -104.378682, 37.280944 ], [ -104.359233, 37.297906 ], [ -104.35868, 37.298268 ], [ -104.360065, 37.300201 ], [ -104.364389, 37.300668 ], [ -104.364465, 37.303614 ], [ -104.366584, 37.305191 ], [ -104.36803, 37.307063 ], [ -104.36973, 37.306453 ], [ -104.370175, 37.300171 ], [ -104.374415, 37.300045 ], [ -104.374421, 37.292832 ], [ -104.371532, 37.292564 ], [ -104.374441, 37.285893 ], [ -104.376154, 37.285445 ], [ -104.378189, 37.283707 ], [ -104.379918, 37.281101 ] ] ] } }
]
}
