{
"type": "FeatureCollection",
"name": "81228",
"crs": { "type": "name", "properties": { "name": "urn:ogc:def:crs:OGC:1.3:CRS84" } },
"features": [
{ "type": "Feature", "properties": { "Name": "", "Description": "" }, "geometry": { "type": "Polygon", "coordinates": [ [ [ -106.305976, 39.040151 ], [ -106.305419, 39.038686 ], [ -106.305771, 39.036878 ], [ -106.302573, 39.033399 ], [ -106.302609, 39.026892 ], [ -106.297267, 39.023256 ], [ -106.291662, 39.018522 ], [ -106.289755, 39.019414 ], [ -106.285823, 39.019757 ], [ -106.283359, 39.0182 ], [ -106.279986, 39.017718 ], [ -106.276788, 39.018335 ], [ -106.276142, 39.019136 ], [ -106.274676, 39.017968 ], [ -106.271302, 39.018562 ], [ -106.269777, 39.017784 ], [ -106.260303, 39.016842 ], [ -106.253967, 39.015511 ], [ -106.247683, 39.015532 ], [ -106.245279, 39.017021 ], [ -106.240596, 39.018527 ], [ -106.238802, 39.017457 ], [ -106.239758, 39.019132 ], [ -106.243022, 39.021749 ], [ -106.244611, 39.023788 ], [ -106.246588, 39.028847 ], [ -106.24951, 39.030595 ], [ -106.251739, 39.032628 ], [ -106.257382, 39.033719 ], [ -106.261702, 39.037266 ], [ -106.264496, 39.039238 ], [ -106.26607, 39.042951 ], [ -106.266065, 39.04624 ], [ -106.268633, 39.051726 ], [ -106.269351, 39.052454 ], [ -106.271954, 39.053334 ], [ -106.272888, 39.054897 ], [ -106.272799, 39.056425 ], [ -106.292489, 39.056434 ], [ -106.292427, 39.05466 ], [ -106.29071, 39.052104 ], [ -106.285532, 39.050821 ], [ -106.29091, 39.049898 ], [ -106.298666, 39.050771 ], [ -106.301984, 39.049991 ], [ -106.303275, 39.049122 ], [ -106.302307, 39.047222 ], [ -106.302249, 39.04443 ], [ -106.304978, 39.042874 ], [ -106.305976, 39.040151 ] ] ] } }
]
}
