{
"type": "FeatureCollection",
"name": "82218",
"crs": { "type": "name", "properties": { "name": "urn:ogc:def:crs:OGC:1.3:CRS84" } },
"features": [
{ "type": "Feature", "properties": { "Name": "", "Description": "" }, "geometry": { "type": "Polygon", "coordinates": [ [ [ -104.149864, 41.943517 ], [ -104.149812, 41.935895 ], [ -104.149771, 41.928946 ], [ -104.146391, 41.928935 ], [ -104.136753, 41.928915 ], [ -104.130266, 41.928923 ], [ -104.130296, 41.943542 ], [ -104.149864, 41.943517 ] ] ] } }
]
}
