{
"type": "FeatureCollection",
"name": "82310",
"crs": { "type": "name", "properties": { "name": "urn:ogc:def:crs:OGC:1.3:CRS84" } },
"features": [
{ "type": "Feature", "properties": { "Name": "", "Description": "" }, "geometry": { "type": "Polygon", "coordinates": [ [ [ -107.966088, 42.419181 ], [ -107.966488, 42.417398 ], [ -107.962818, 42.421033 ], [ -107.96032, 42.42156 ], [ -107.958468, 42.420097 ], [ -107.957573, 42.420326 ], [ -107.957388, 42.418611 ], [ -107.958466, 42.415868 ], [ -107.957571, 42.414337 ], [ -107.954979, 42.412211 ], [ -107.953406, 42.40956 ], [ -107.954299, 42.407594 ], [ -107.954237, 42.405262 ], [ -107.953188, 42.404211 ], [ -107.953248, 42.398062 ], [ -107.951336, 42.396325 ], [ -107.948344, 42.396394 ], [ -107.946277, 42.3958 ], [ -107.945691, 42.392599 ], [ -107.943995, 42.392782 ], [ -107.939708, 42.394314 ], [ -107.93718, 42.393423 ], [ -107.931018, 42.392424 ], [ -107.929557, 42.390484 ], [ -107.928271, 42.389983 ], [ -107.924684, 42.390284 ], [ -107.922163, 42.388587 ], [ -107.918525, 42.386906 ], [ -107.918124, 42.385877 ], [ -107.917385, 42.382083 ], [ -107.91899, 42.378951 ], [ -107.921518, 42.376643 ], [ -107.922906, 42.376026 ], [ -107.92242, 42.374678 ], [ -107.925626, 42.371701 ], [ -107.925169, 42.36837 ], [ -107.924332, 42.369136 ], [ -107.921187, 42.369918 ], [ -107.918938, 42.367449 ], [ -107.916224, 42.366465 ], [ -107.909104, 42.366487 ], [ -107.909166, 42.365115 ], [ -107.91117, 42.363264 ], [ -107.910184, 42.361915 ], [ -107.905499, 42.36116 ], [ -107.902079, 42.360199 ], [ -107.900013, 42.360976 ], [ -107.898997, 42.359832 ], [ -107.894698, 42.36328 ], [ -107.889242, 42.365973 ], [ -107.88637, 42.367036 ], [ -107.881937, 42.369836 ], [ -107.87648, 42.374272 ], [ -107.876352, 42.375424 ], [ -107.874488, 42.378041 ], [ -107.873133, 42.379025 ], [ -107.867739, 42.380833 ], [ -107.867929, 42.383352 ], [ -107.867048, 42.385074 ], [ -107.864017, 42.3882 ], [ -107.860717, 42.390941 ], [ -107.860744, 42.393998 ], [ -107.86572, 42.393852 ], [ -107.871517, 42.398298 ], [ -107.876088, 42.40208 ], [ -107.856042, 42.402354 ], [ -107.854871, 42.404979 ], [ -107.85556, 42.406532 ], [ -107.854099, 42.412491 ], [ -107.85501, 42.412957 ], [ -107.85408, 42.417121 ], [ -107.852103, 42.418565 ], [ -107.853185, 42.419525 ], [ -107.85306, 42.421242 ], [ -107.851182, 42.424359 ], [ -107.849622, 42.425268 ], [ -107.84663, 42.429013 ], [ -107.846601, 42.430209 ], [ -107.844084, 42.431433 ], [ -107.843293, 42.434083 ], [ -107.84156, 42.435625 ], [ -107.836799, 42.437849 ], [ -107.832304, 42.441811 ], [ -107.832253, 42.443994 ], [ -107.830202, 42.444917 ], [ -107.830409, 42.445646 ], [ -107.828151, 42.447836 ], [ -107.828366, 42.449427 ], [ -107.826677, 42.450541 ], [ -107.824321, 42.451079 ], [ -107.824085, 42.452028 ], [ -107.82144, 42.454382 ], [ -107.817625, 42.456928 ], [ -107.81355, 42.457707 ], [ -107.809127, 42.460336 ], [ -107.804518, 42.460155 ], [ -107.801961, 42.460857 ], [ -107.799198, 42.460725 ], [ -107.7957, 42.462776 ], [ -107.784057, 42.466983 ], [ -107.782946, 42.466544 ], [ -107.78067, 42.468085 ], [ -107.776772, 42.469027 ], [ -107.775401, 42.468659 ], [ -107.770502, 42.469764 ], [ -107.769301, 42.469481 ], [ -107.765669, 42.470399 ], [ -107.758069, 42.47134 ], [ -107.755802, 42.472794 ], [ -107.755948, 42.475163 ], [ -107.753994, 42.477663 ], [ -107.752584, 42.478636 ], [ -107.747001, 42.480198 ], [ -107.748014, 42.488056 ], [ -107.755209, 42.488358 ], [ -107.804231, 42.490412 ], [ -107.805364, 42.490568 ], [ -107.820082, 42.493389 ], [ -107.82335, 42.48791 ], [ -107.825234, 42.488654 ], [ -107.825645, 42.491631 ], [ -107.827393, 42.491934 ], [ -107.825732, 42.494025 ], [ -107.828982, 42.495106 ], [ -107.864584, 42.501952 ], [ -107.894038, 42.507572 ], [ -107.903355, 42.509334 ], [ -107.914832, 42.510635 ], [ -107.918116, 42.507702 ], [ -107.918678, 42.506173 ], [ -107.921254, 42.503094 ], [ -107.922344, 42.500562 ], [ -107.92233, 42.497612 ], [ -107.921199, 42.494052 ], [ -107.923091, 42.491863 ], [ -107.923935, 42.48901 ], [ -107.927509, 42.482667 ], [ -107.928382, 42.479974 ], [ -107.927868, 42.476393 ], [ -107.92902, 42.473609 ], [ -107.928875, 42.470734 ], [ -107.930648, 42.466718 ], [ -107.93011, 42.463396 ], [ -107.928487, 42.461168 ], [ -107.930479, 42.455084 ], [ -107.929989, 42.451273 ], [ -107.931409, 42.447302 ], [ -107.934125, 42.447302 ], [ -107.936841, 42.446616 ], [ -107.937057, 42.445381 ], [ -107.94147, 42.437518 ], [ -107.942982, 42.433609 ], [ -107.946406, 42.427116 ], [ -107.946053, 42.431107 ], [ -107.946821, 42.431969 ], [ -107.950733, 42.431039 ], [ -107.955531, 42.427969 ], [ -107.959488, 42.426717 ], [ -107.961362, 42.425239 ], [ -107.961614, 42.423748 ], [ -107.964429, 42.423264 ], [ -107.965256, 42.42213 ], [ -107.966088, 42.419181 ] ] ] } }
]
}
