{
"type": "FeatureCollection",
"name": "84008",
"crs": { "type": "name", "properties": { "name": "urn:ogc:def:crs:OGC:1.3:CRS84" } },
"features": [
{ "type": "Feature", "properties": { "Name": "", "Description": "" }, "geometry": { "type": "Polygon", "coordinates": [ [ [ -109.215497, 40.036531 ], [ -109.214297, 40.035697 ], [ -109.211768, 40.03524 ], [ -109.21225, 40.03464 ], [ -109.211518, 40.03171 ], [ -109.210206, 40.030573 ], [ -109.206466, 40.029357 ], [ -109.204408, 40.028008 ], [ -109.200463, 40.027197 ], [ -109.197703, 40.02336 ], [ -109.194465, 40.021467 ], [ -109.192731, 40.023212 ], [ -109.186503, 40.021986 ], [ -109.186676, 40.023812 ], [ -109.187794, 40.025434 ], [ -109.186488, 40.025702 ], [ -109.183467, 40.025164 ], [ -109.181282, 40.02362 ], [ -109.173975, 40.021218 ], [ -109.174948, 40.023219 ], [ -109.177489, 40.027065 ], [ -109.183517, 40.035968 ], [ -109.184511, 40.037645 ], [ -109.185155, 40.03913 ], [ -109.186422, 40.044266 ], [ -109.188639, 40.048084 ], [ -109.196103, 40.045816 ], [ -109.203627, 40.037942 ], [ -109.207445, 40.036321 ], [ -109.212548, 40.039035 ], [ -109.215497, 40.036531 ] ] ] } }
]
}
