{
"type": "FeatureCollection",
"name": "84059",
"crs": { "type": "name", "properties": { "name": "urn:ogc:def:crs:OGC:1.3:CRS84" } },
"features": [
{ "type": "Feature", "properties": { "Name": "", "Description": "" }, "geometry": { "type": "Polygon", "coordinates": [ [ [ -111.765563, 40.320451 ], [ -111.766963, 40.316751 ], [ -111.764563, 40.312051 ], [ -111.765163, 40.310752 ], [ -111.764063, 40.305452 ], [ -111.762363, 40.301752 ], [ -111.763363, 40.296252 ], [ -111.761763, 40.287752 ], [ -111.758963, 40.284252 ], [ -111.758587, 40.279922 ], [ -111.757956, 40.278538 ], [ -111.748107, 40.278943 ], [ -111.747057, 40.278745 ], [ -111.742893, 40.276928 ], [ -111.740121, 40.276971 ], [ -111.738912, 40.279124 ], [ -111.737501, 40.27883 ], [ -111.737528, 40.277984 ], [ -111.735202, 40.278016 ], [ -111.734102, 40.276146 ], [ -111.728278, 40.276144 ], [ -111.729671, 40.277827 ], [ -111.730344, 40.279081 ], [ -111.731224, 40.280858 ], [ -111.732141, 40.282306 ], [ -111.732479, 40.282804 ], [ -111.733559, 40.284691 ], [ -111.733629, 40.284966 ], [ -111.733674, 40.285239 ], [ -111.733693, 40.28548 ], [ -111.733692, 40.286164 ], [ -111.733692, 40.286473 ], [ -111.733686, 40.289823 ], [ -111.733721, 40.29092 ], [ -111.733821, 40.297125 ], [ -111.733773, 40.30351 ], [ -111.733571, 40.304182 ], [ -111.73329, 40.304601 ], [ -111.734664, 40.311864 ], [ -111.737332, 40.326269 ], [ -111.737603, 40.32627 ], [ -111.739092, 40.326274 ], [ -111.739178, 40.329921 ], [ -111.746314, 40.329886 ], [ -111.746343, 40.331041 ], [ -111.753473, 40.331007 ], [ -111.753508, 40.333478 ], [ -111.753656, 40.333478 ], [ -111.753333, 40.326132 ], [ -111.758636, 40.326109 ], [ -111.759252, 40.326119 ], [ -111.762686, 40.326182 ], [ -111.764466, 40.326488 ], [ -111.764663, 40.325151 ], [ -111.766463, 40.322551 ], [ -111.765563, 40.320451 ] ] ] } }
]
}
