{
"type": "FeatureCollection",
"name": "84129",
"crs": { "type": "name", "properties": { "name": "urn:ogc:def:crs:OGC:1.3:CRS84" } },
"features": [
{ "type": "Feature", "properties": { "Name": "", "Description": "" }, "geometry": { "type": "Polygon", "coordinates": [ [ [ -111.991525, 40.634479 ], [ -111.991511, 40.631324 ], [ -111.985173, 40.631328 ], [ -111.984141, 40.631322 ], [ -111.984248, 40.631478 ], [ -111.985625, 40.635133 ], [ -111.982806, 40.636571 ], [ -111.981213, 40.637344 ], [ -111.97936, 40.638579 ], [ -111.976726, 40.638573 ], [ -111.976522, 40.638584 ], [ -111.976363, 40.631302 ], [ -111.971703, 40.631275 ], [ -111.967361, 40.63129 ], [ -111.959626, 40.631303 ], [ -111.957824, 40.631888 ], [ -111.957816, 40.635254 ], [ -111.957816, 40.638563 ], [ -111.955692, 40.638562 ], [ -111.955689, 40.635256 ], [ -111.95448, 40.635265 ], [ -111.954484, 40.637599 ], [ -111.952472, 40.638567 ], [ -111.951139, 40.638559 ], [ -111.951113, 40.635202 ], [ -111.95281, 40.634613 ], [ -111.952831, 40.633793 ], [ -111.948333, 40.634547 ], [ -111.948337, 40.632704 ], [ -111.94968, 40.633222 ], [ -111.954269, 40.632236 ], [ -111.954408, 40.631746 ], [ -111.948328, 40.63163 ], [ -111.948298, 40.631305 ], [ -111.943534, 40.631314 ], [ -111.943544, 40.634935 ], [ -111.939298, 40.634955 ], [ -111.939489, 40.635591 ], [ -111.942071, 40.638582 ], [ -111.940621, 40.638595 ], [ -111.938769, 40.638535 ], [ -111.938791, 40.644513 ], [ -111.942956, 40.644661 ], [ -111.945162, 40.645144 ], [ -111.945094, 40.647066 ], [ -111.943354, 40.647088 ], [ -111.94299, 40.652254 ], [ -111.939923, 40.653158 ], [ -111.939952, 40.654935 ], [ -111.938818, 40.655127 ], [ -111.93882, 40.657182 ], [ -111.938825, 40.661051 ], [ -111.940409, 40.661014 ], [ -111.94049, 40.663665 ], [ -111.9395, 40.665583 ], [ -111.939914, 40.667651 ], [ -111.93884, 40.667653 ], [ -111.938872, 40.669818 ], [ -111.947722, 40.670104 ], [ -111.948188, 40.674558 ], [ -111.94804, 40.675133 ], [ -111.944304, 40.675141 ], [ -111.938855, 40.673763 ], [ -111.93886, 40.675461 ], [ -111.939947, 40.675438 ], [ -111.939988, 40.679343 ], [ -111.938877, 40.679703 ], [ -111.93888, 40.682122 ], [ -111.940219, 40.682122 ], [ -111.942808, 40.682124 ], [ -111.945492, 40.681694 ], [ -111.945989, 40.682126 ], [ -111.946322, 40.682127 ], [ -111.948444, 40.682129 ], [ -111.951651, 40.682135 ], [ -111.958022, 40.682146 ], [ -111.958041, 40.675248 ], [ -111.958036, 40.674868 ], [ -111.957976, 40.669038 ], [ -111.962231, 40.669128 ], [ -111.963482, 40.667611 ], [ -111.967453, 40.667599 ], [ -111.967453, 40.667802 ], [ -111.971227, 40.66802 ], [ -111.972197, 40.668823 ], [ -111.977013, 40.668357 ], [ -111.980318, 40.669363 ], [ -111.981421, 40.66861 ], [ -111.981407, 40.667554 ], [ -111.98658, 40.667564 ], [ -111.986708, 40.666682 ], [ -111.982909, 40.66355 ], [ -111.981448, 40.662859 ], [ -111.981459, 40.66122 ], [ -111.981493, 40.660312 ], [ -111.982507, 40.660655 ], [ -111.982511, 40.661359 ], [ -111.982498, 40.6629 ], [ -111.985328, 40.664976 ], [ -111.986914, 40.663611 ], [ -111.986818, 40.666226 ], [ -111.987759, 40.665832 ], [ -111.9869, 40.660654 ], [ -111.986922, 40.659966 ], [ -111.98691, 40.659267 ], [ -111.986904, 40.652996 ], [ -111.986893, 40.65078 ], [ -111.986921, 40.649151 ], [ -111.987307, 40.649153 ], [ -111.987302, 40.648794 ], [ -111.987433, 40.646472 ], [ -111.986941, 40.646511 ], [ -111.986944, 40.646219 ], [ -111.986928, 40.645807 ], [ -111.986482, 40.644876 ], [ -111.986458, 40.641586 ], [ -111.986974, 40.641545 ], [ -111.986966, 40.639609 ], [ -111.986477, 40.63964 ], [ -111.986479, 40.638578 ], [ -111.988148, 40.638568 ], [ -111.988142, 40.637046 ], [ -111.988147, 40.634808 ], [ -111.989824, 40.634801 ], [ -111.991525, 40.634479 ] ] ] } }
]
}
