{
"type": "FeatureCollection",
"name": "84150",
"crs": { "type": "name", "properties": { "name": "urn:ogc:def:crs:OGC:1.3:CRS84" } },
"features": [
{ "type": "Feature", "properties": { "Name": "", "Description": "" }, "geometry": { "type": "MultiPolygon", "coordinates": [ [ [ [ -111.891098, 40.771548 ], [ -111.891097, 40.769346 ], [ -111.888229, 40.769349 ], [ -111.888226, 40.77002 ], [ -111.888224, 40.771517 ], [ -111.888224, 40.771547 ], [ -111.891098, 40.771548 ] ] ], [ [ [ -111.893957, 40.773692 ], [ -111.893957, 40.771548 ], [ -111.891098, 40.771548 ], [ -111.8911, 40.773647 ], [ -111.893957, 40.773692 ] ] ] ] } }
]
}
