{
"type": "FeatureCollection",
"name": "84408",
"crs": { "type": "name", "properties": { "name": "urn:ogc:def:crs:OGC:1.3:CRS84" } },
"features": [
{ "type": "Feature", "properties": { "Name": "", "Description": "" }, "geometry": { "type": "Polygon", "coordinates": [ [ [ -111.94885, 41.190545 ], [ -111.948972, 41.18747 ], [ -111.947832, 41.186624 ], [ -111.943996, 41.186113 ], [ -111.940799, 41.190301 ], [ -111.938039, 41.190348 ], [ -111.929674, 41.190263 ], [ -111.929486, 41.197382 ], [ -111.937631, 41.197446 ], [ -111.937814, 41.196857 ], [ -111.938221, 41.195745 ], [ -111.942061, 41.195729 ], [ -111.943843, 41.194792 ], [ -111.948749, 41.195852 ], [ -111.94885, 41.190545 ] ] ] } }
]
}
