{
"type": "FeatureCollection",
"name": "84602",
"crs": { "type": "name", "properties": { "name": "urn:ogc:def:crs:OGC:1.3:CRS84" } },
"features": [
{ "type": "Feature", "properties": { "Name": "", "Description": "" }, "geometry": { "type": "Polygon", "coordinates": [ [ [ -111.656092, 40.255766 ], [ -111.65615, 40.25063 ], [ -111.654392, 40.250648 ], [ -111.652044, 40.252174 ], [ -111.651087, 40.252459 ], [ -111.650545, 40.253358 ], [ -111.649872, 40.253088 ], [ -111.643232, 40.252968 ], [ -111.643266, 40.253683 ], [ -111.643255, 40.256688 ], [ -111.647401, 40.256599 ], [ -111.649746, 40.255721 ], [ -111.65015, 40.255639 ], [ -111.650504, 40.255625 ], [ -111.650715, 40.255584 ], [ -111.653167, 40.2557 ], [ -111.655456, 40.255709 ], [ -111.655841, 40.255767 ], [ -111.656092, 40.255766 ] ] ] } }
]
}
