{
"type": "FeatureCollection",
"name": "84644",
"crs": { "type": "name", "properties": { "name": "urn:ogc:def:crs:OGC:1.3:CRS84" } },
"features": [
{ "type": "Feature", "properties": { "Name": "", "Description": "" }, "geometry": { "type": "Polygon", "coordinates": [ [ [ -112.497045, 38.936708 ], [ -112.494913, 38.929071 ], [ -112.495185, 38.916306 ], [ -112.492282, 38.915546 ], [ -112.490995, 38.911577 ], [ -112.48883, 38.909062 ], [ -112.486173, 38.903506 ], [ -112.479767, 38.903552 ], [ -112.454013, 38.888375 ], [ -112.453846, 38.885455 ], [ -112.453893, 38.87387 ], [ -112.435645, 38.873584 ], [ -112.433707, 38.873563 ], [ -112.428782, 38.873553 ], [ -112.424354, 38.872511 ], [ -112.420778, 38.87286 ], [ -112.414333, 38.872813 ], [ -112.420852, 38.855221 ], [ -112.407602, 38.855102 ], [ -112.402824, 38.854869 ], [ -112.399951, 38.854305 ], [ -112.398728, 38.854937 ], [ -112.384362, 38.854803 ], [ -112.385818, 38.853627 ], [ -112.391235, 38.851841 ], [ -112.391891, 38.851198 ], [ -112.391899, 38.850049 ], [ -112.393341, 38.848333 ], [ -112.395379, 38.844078 ], [ -112.395325, 38.841155 ], [ -112.39596, 38.839963 ], [ -112.396828, 38.835041 ], [ -112.396691, 38.833168 ], [ -112.397102, 38.826585 ], [ -112.397377, 38.825388 ], [ -112.398758, 38.824484 ], [ -112.398888, 38.822951 ], [ -112.396783, 38.822651 ], [ -112.391282, 38.820554 ], [ -112.385124, 38.815973 ], [ -112.381126, 38.812349 ], [ -112.377747, 38.810303 ], [ -112.374459, 38.807124 ], [ -112.371315, 38.806837 ], [ -112.367866, 38.806765 ], [ -112.358834, 38.806978 ], [ -112.356583, 38.807306 ], [ -112.355271, 38.808691 ], [ -112.353508, 38.809473 ], [ -112.350738, 38.811956 ], [ -112.348327, 38.813034 ], [ -112.344673, 38.814108 ], [ -112.337906, 38.815722 ], [ -112.335038, 38.816764 ], [ -112.333961, 38.817821 ], [ -112.33004, 38.820083 ], [ -112.327866, 38.820085 ], [ -112.322457, 38.822088 ], [ -112.319893, 38.824212 ], [ -112.319488, 38.825762 ], [ -112.317756, 38.827846 ], [ -112.314667, 38.828786 ], [ -112.316621, 38.830107 ], [ -112.313637, 38.831663 ], [ -112.312096, 38.833879 ], [ -112.309586, 38.833195 ], [ -112.308106, 38.833735 ], [ -112.308518, 38.834072 ], [ -112.304603, 38.833021 ], [ -112.297937, 38.830397 ], [ -112.294686, 38.830023 ], [ -112.29298, 38.82912 ], [ -112.288079, 38.828352 ], [ -112.283899, 38.826402 ], [ -112.280036, 38.825137 ], [ -112.275716, 38.825788 ], [ -112.273705, 38.827181 ], [ -112.271446, 38.827151 ], [ -112.269951, 38.825262 ], [ -112.26854, 38.825232 ], [ -112.268285, 38.826916 ], [ -112.266701, 38.82804 ], [ -112.265813, 38.830349 ], [ -112.264073, 38.830246 ], [ -112.260352, 38.828602 ], [ -112.260224, 38.830437 ], [ -112.254206, 38.834653 ], [ -112.251746, 38.837666 ], [ -112.246166, 38.83878 ], [ -112.243023, 38.841088 ], [ -112.236985, 38.841982 ], [ -112.238801, 38.842722 ], [ -112.241364, 38.84533 ], [ -112.248383, 38.847873 ], [ -112.24857, 38.848433 ], [ -112.251725, 38.848924 ], [ -112.255399, 38.849013 ], [ -112.258825, 38.850503 ], [ -112.2629, 38.850154 ], [ -112.266327, 38.851693 ], [ -112.268855, 38.852325 ], [ -112.270175, 38.853419 ], [ -112.273314, 38.854815 ], [ -112.280963, 38.856405 ], [ -112.282466, 38.857493 ], [ -112.283962, 38.857707 ], [ -112.286076, 38.859333 ], [ -112.289237, 38.860092 ], [ -112.290866, 38.86414 ], [ -112.29192, 38.866002 ], [ -112.29362, 38.867123 ], [ -112.295291, 38.871128 ], [ -112.296246, 38.871199 ], [ -112.298094, 38.87266 ], [ -112.302162, 38.874808 ], [ -112.305539, 38.877502 ], [ -112.306698, 38.878969 ], [ -112.312249, 38.881759 ], [ -112.315187, 38.884286 ], [ -112.317246, 38.885308 ], [ -112.318729, 38.886736 ], [ -112.322165, 38.887658 ], [ -112.324577, 38.890186 ], [ -112.327565, 38.891792 ], [ -112.330969, 38.892467 ], [ -112.335775, 38.895005 ], [ -112.338258, 38.896666 ], [ -112.340114, 38.897173 ], [ -112.344373, 38.897562 ], [ -112.348575, 38.897569 ], [ -112.358634, 38.896676 ], [ -112.365852, 38.894437 ], [ -112.367618, 38.894306 ], [ -112.370931, 38.894858 ], [ -112.397849, 38.895164 ], [ -112.397811, 38.898701 ], [ -112.405054, 38.898564 ], [ -112.4055, 38.898588 ], [ -112.411582, 38.893548 ], [ -112.411744, 38.898605 ], [ -112.412895, 38.898957 ], [ -112.42111, 38.899057 ], [ -112.420701, 38.915843 ], [ -112.42078, 38.917248 ], [ -112.420322, 38.935621 ], [ -112.497045, 38.936708 ] ] ] } }
]
}
