{
"type": "FeatureCollection",
"name": "85329",
"crs": { "type": "name", "properties": { "name": "urn:ogc:def:crs:OGC:1.3:CRS84" } },
"features": [
{ "type": "Feature", "properties": { "Name": "", "Description": "" }, "geometry": { "type": "Polygon", "coordinates": [ [ [ -112.302375, 33.434272 ], [ -112.302334, 33.428167 ], [ -112.297908, 33.428173 ], [ -112.297911, 33.428905 ], [ -112.293788, 33.428897 ], [ -112.293782, 33.428185 ], [ -112.289652, 33.428168 ], [ -112.289674, 33.432067 ], [ -112.291461, 33.432592 ], [ -112.292273, 33.434851 ], [ -112.293828, 33.434863 ], [ -112.29383, 33.435457 ], [ -112.302303, 33.43547 ], [ -112.302375, 33.434272 ] ] ] } }
]
}
