{
"type": "FeatureCollection",
"name": "85378",
"crs": { "type": "name", "properties": { "name": "urn:ogc:def:crs:OGC:1.3:CRS84" } },
"features": [
{ "type": "Feature", "properties": { "Name": "", "Description": "" }, "geometry": { "type": "Polygon", "coordinates": [ [ [ -112.355486, 33.645944 ], [ -112.356833, 33.644755 ], [ -112.34916, 33.638722 ], [ -112.349785, 33.638721 ], [ -112.349631, 33.6386 ], [ -112.342081, 33.632808 ], [ -112.336196, 33.628172 ], [ -112.335905, 33.628464 ], [ -112.330288, 33.624062 ], [ -112.330587, 33.623796 ], [ -112.330283, 33.623581 ], [ -112.329533, 33.623518 ], [ -112.329086, 33.623505 ], [ -112.324814, 33.623477 ], [ -112.324785, 33.630782 ], [ -112.312074, 33.630724 ], [ -112.311183, 33.630716 ], [ -112.309963, 33.630703 ], [ -112.307664, 33.630683 ], [ -112.302594, 33.63073 ], [ -112.3022, 33.638343 ], [ -112.301499, 33.638319 ], [ -112.301002, 33.645215 ], [ -112.298492, 33.645223 ], [ -112.298498, 33.645699 ], [ -112.298537, 33.652544 ], [ -112.302925, 33.652447 ], [ -112.307808, 33.652325 ], [ -112.307718, 33.666169 ], [ -112.307754, 33.667707 ], [ -112.311701, 33.667691 ], [ -112.312086, 33.667265 ], [ -112.314293, 33.664684 ], [ -112.314615, 33.663299 ], [ -112.316062, 33.661271 ], [ -112.315529, 33.656356 ], [ -112.315898, 33.654508 ], [ -112.316435, 33.650842 ], [ -112.316305, 33.65034 ], [ -112.321583, 33.649896 ], [ -112.324831, 33.650012 ], [ -112.324721, 33.638742 ], [ -112.324777, 33.638742 ], [ -112.329132, 33.638619 ], [ -112.334325, 33.638576 ], [ -112.334517, 33.638573 ], [ -112.334678, 33.638572 ], [ -112.339413, 33.638725 ], [ -112.339584, 33.639848 ], [ -112.342028, 33.643381 ], [ -112.347167, 33.643428 ], [ -112.355486, 33.645944 ] ] ] } }
]
}
