{
"type": "FeatureCollection",
"name": "85532",
"crs": { "type": "name", "properties": { "name": "urn:ogc:def:crs:OGC:1.3:CRS84" } },
"features": [
{ "type": "Feature", "properties": { "Name": "", "Description": "" }, "geometry": { "type": "Polygon", "coordinates": [ [ [ -110.852435, 33.408673 ], [ -110.852174, 33.40818 ], [ -110.851268, 33.406461 ], [ -110.849581, 33.406461 ], [ -110.849194, 33.401535 ], [ -110.847566, 33.401922 ], [ -110.846973, 33.402051 ], [ -110.847646, 33.409309 ], [ -110.84517, 33.407517 ], [ -110.842976, 33.4073 ], [ -110.842979, 33.406568 ], [ -110.840772, 33.406543 ], [ -110.839585, 33.405614 ], [ -110.839329, 33.404729 ], [ -110.838601, 33.404854 ], [ -110.838618, 33.409318 ], [ -110.840797, 33.409352 ], [ -110.840796, 33.409441 ], [ -110.840772, 33.412242 ], [ -110.84414, 33.410724 ], [ -110.845657, 33.410593 ], [ -110.846979, 33.410607 ], [ -110.848245, 33.410558 ], [ -110.851361, 33.409382 ], [ -110.852435, 33.408673 ] ] ] } }
]
}
