{
"type": "FeatureCollection",
"name": "85639",
"crs": { "type": "name", "properties": { "name": "urn:ogc:def:crs:OGC:1.3:CRS84" } },
"features": [
{ "type": "Feature", "properties": { "Name": "", "Description": "" }, "geometry": { "type": "Polygon", "coordinates": [ [ [ -111.854173, 31.80763 ], [ -111.854951, 31.804814 ], [ -111.852439, 31.805211 ], [ -111.850963, 31.804278 ], [ -111.852912, 31.803216 ], [ -111.851768, 31.803291 ], [ -111.849703, 31.80368 ], [ -111.849092, 31.803602 ], [ -111.848633, 31.803116 ], [ -111.849224, 31.80137 ], [ -111.848294, 31.798413 ], [ -111.846016, 31.797858 ], [ -111.844284, 31.799175 ], [ -111.841571, 31.797345 ], [ -111.840725, 31.794186 ], [ -111.839771, 31.794171 ], [ -111.839118, 31.794555 ], [ -111.836973, 31.794231 ], [ -111.833696, 31.794159 ], [ -111.833005, 31.794301 ], [ -111.830718, 31.794276 ], [ -111.829805, 31.792222 ], [ -111.824122, 31.793547 ], [ -111.820741, 31.792387 ], [ -111.816975, 31.792718 ], [ -111.80954, 31.790859 ], [ -111.790454, 31.758995 ], [ -111.790191, 31.758321 ], [ -111.783162, 31.730535 ], [ -111.781041, 31.731052 ], [ -111.771461, 31.73023 ], [ -111.766428, 31.731208 ], [ -111.764935, 31.731834 ], [ -111.761203, 31.730573 ], [ -111.757437, 31.732511 ], [ -111.735987, 31.737856 ], [ -111.73135, 31.739687 ], [ -111.722426, 31.744541 ], [ -111.719082, 31.746106 ], [ -111.716075, 31.748607 ], [ -111.711137, 31.751091 ], [ -111.705211, 31.750887 ], [ -111.702672, 31.752087 ], [ -111.703866, 31.746397 ], [ -111.703514, 31.744555 ], [ -111.703818, 31.741547 ], [ -111.704699, 31.739703 ], [ -111.715815, 31.733754 ], [ -111.71693, 31.73297 ], [ -111.738369, 31.721399 ], [ -111.735794, 31.708515 ], [ -111.726319, 31.709119 ], [ -111.723996, 31.709146 ], [ -111.724907, 31.706689 ], [ -111.72203, 31.706556 ], [ -111.714957, 31.705532 ], [ -111.70919, 31.705313 ], [ -111.706766, 31.704879 ], [ -111.70167, 31.705096 ], [ -111.696824, 31.70451 ], [ -111.704134, 31.700301 ], [ -111.705106, 31.699001 ], [ -111.706319, 31.692263 ], [ -111.709141, 31.691686 ], [ -111.711784, 31.692055 ], [ -111.713378, 31.691281 ], [ -111.718821, 31.689859 ], [ -111.719522, 31.689286 ], [ -111.723387, 31.687883 ], [ -111.721561, 31.68297 ], [ -111.722152, 31.681226 ], [ -111.725352, 31.681843 ], [ -111.730537, 31.681732 ], [ -111.729877, 31.680881 ], [ -111.730447, 31.677491 ], [ -111.727586, 31.678261 ], [ -111.722996, 31.678786 ], [ -111.721615, 31.678699 ], [ -111.721734, 31.675883 ], [ -111.720826, 31.66403 ], [ -111.716976, 31.663652 ], [ -111.711884, 31.663654 ], [ -111.712562, 31.659947 ], [ -111.707208, 31.660906 ], [ -111.70367, 31.661849 ], [ -111.701265, 31.661219 ], [ -111.697238, 31.660874 ], [ -111.695316, 31.661145 ], [ -111.686541, 31.660206 ], [ -111.68449, 31.659562 ], [ -111.682189, 31.6601 ], [ -111.680527, 31.659848 ], [ -111.678624, 31.65809 ], [ -111.678532, 31.657979 ], [ -111.677869, 31.657766 ], [ -111.67669, 31.65832 ], [ -111.673244, 31.656873 ], [ -111.6672, 31.658902 ], [ -111.665451, 31.658175 ], [ -111.662528, 31.660017 ], [ -111.660544, 31.659324 ], [ -111.65984, 31.660575 ], [ -111.659972, 31.660688 ], [ -111.659972, 31.661386 ], [ -111.658865, 31.661941 ], [ -111.657997, 31.662288 ], [ -111.657644, 31.66204 ], [ -111.65729, 31.66226 ], [ -111.656672, 31.662152 ], [ -111.650642, 31.66062 ], [ -111.65102, 31.662352 ], [ -111.648711, 31.663831 ], [ -111.648363, 31.665277 ], [ -111.646981, 31.665447 ], [ -111.646697, 31.667136 ], [ -111.644259, 31.669181 ], [ -111.642948, 31.668399 ], [ -111.640818, 31.670994 ], [ -111.641814, 31.672958 ], [ -111.639984, 31.675133 ], [ -111.634442, 31.674857 ], [ -111.633242, 31.675305 ], [ -111.631095, 31.677807 ], [ -111.63095, 31.680002 ], [ -111.631465, 31.682209 ], [ -111.636364, 31.683201 ], [ -111.636822, 31.683994 ], [ -111.640891, 31.684885 ], [ -111.642448, 31.686305 ], [ -111.642027, 31.688935 ], [ -111.637211, 31.691344 ], [ -111.636253, 31.695369 ], [ -111.634308, 31.69553 ], [ -111.632688, 31.696636 ], [ -111.631008, 31.696669 ], [ -111.629882, 31.698723 ], [ -111.627608, 31.700335 ], [ -111.624674, 31.700387 ], [ -111.623294, 31.701957 ], [ -111.621705, 31.7023 ], [ -111.621203, 31.703337 ], [ -111.618734, 31.703486 ], [ -111.614703, 31.707026 ], [ -111.613609, 31.709 ], [ -111.610679, 31.710849 ], [ -111.611671, 31.713859 ], [ -111.612932, 31.714194 ], [ -111.615466, 31.716851 ], [ -111.615386, 31.721753 ], [ -111.616697, 31.721782 ], [ -111.618256, 31.723757 ], [ -111.616713, 31.725129 ], [ -111.617259, 31.726421 ], [ -111.616428, 31.73195 ], [ -111.615567, 31.733752 ], [ -111.612532, 31.737118 ], [ -111.612144, 31.738659 ], [ -111.609835, 31.740292 ], [ -111.602983, 31.742443 ], [ -111.602196, 31.746025 ], [ -111.600707, 31.746186 ], [ -111.598496, 31.748984 ], [ -111.598348, 31.750072 ], [ -111.600177, 31.751317 ], [ -111.600172, 31.754788 ], [ -111.599184, 31.755912 ], [ -111.599621, 31.757675 ], [ -111.59706, 31.759888 ], [ -111.595872, 31.763128 ], [ -111.595958, 31.76483 ], [ -111.594453, 31.767661 ], [ -111.594958, 31.769453 ], [ -111.595826, 31.771087 ], [ -111.594696, 31.771372 ], [ -111.592496, 31.773807 ], [ -111.588752, 31.775022 ], [ -111.589424, 31.776775 ], [ -111.588875, 31.779783 ], [ -111.588098, 31.78038 ], [ -111.58753, 31.782645 ], [ -111.588195, 31.784552 ], [ -111.587527, 31.789531 ], [ -111.584174, 31.791129 ], [ -111.581331, 31.793538 ], [ -111.580312, 31.795315 ], [ -111.580894, 31.79732 ], [ -111.580628, 31.799574 ], [ -111.583669, 31.803476 ], [ -111.58372, 31.80463 ], [ -111.582304, 31.809438 ], [ -111.582963, 31.811659 ], [ -111.582079, 31.81199 ], [ -111.582201, 31.813563 ], [ -111.581188, 31.814179 ], [ -111.580409, 31.816955 ], [ -111.579338, 31.817514 ], [ -111.579621, 31.819053 ], [ -111.576553, 31.822481 ], [ -111.576363, 31.825655 ], [ -111.57555, 31.826381 ], [ -111.576867, 31.829815 ], [ -111.574427, 31.832042 ], [ -111.574971, 31.83412 ], [ -111.576608, 31.835856 ], [ -111.575849, 31.838849 ], [ -111.571806, 31.842206 ], [ -111.572126, 31.845342 ], [ -111.573765, 31.848797 ], [ -111.576623, 31.851482 ], [ -111.578319, 31.854267 ], [ -111.580595, 31.855698 ], [ -111.580872, 31.85831 ], [ -111.583135, 31.860864 ], [ -111.585773, 31.860903 ], [ -111.589026, 31.863398 ], [ -111.590559, 31.865046 ], [ -111.592119, 31.865087 ], [ -111.592944, 31.866072 ], [ -111.595841, 31.867198 ], [ -111.596716, 31.869176 ], [ -111.599406, 31.871142 ], [ -111.599482, 31.871924 ], [ -111.597707, 31.873693 ], [ -111.5972, 31.876242 ], [ -111.598204, 31.879706 ], [ -111.595525, 31.881665 ], [ -111.594917, 31.882754 ], [ -111.594665, 31.885619 ], [ -111.597062, 31.887704 ], [ -111.598971, 31.887948 ], [ -111.600245, 31.88891 ], [ -111.602394, 31.891843 ], [ -111.605274, 31.893678 ], [ -111.605168, 31.894711 ], [ -111.605531, 31.897205 ], [ -111.60524, 31.898856 ], [ -111.606171, 31.898469 ], [ -111.60686, 31.896499 ], [ -111.608226, 31.894624 ], [ -111.611293, 31.892186 ], [ -111.616714, 31.892409 ], [ -111.619117, 31.889087 ], [ -111.620406, 31.888602 ], [ -111.62163, 31.887172 ], [ -111.620268, 31.885511 ], [ -111.621396, 31.884752 ], [ -111.619132, 31.883081 ], [ -111.620767, 31.878466 ], [ -111.620186, 31.877999 ], [ -111.621055, 31.875183 ], [ -111.623608, 31.87452 ], [ -111.626717, 31.877079 ], [ -111.630023, 31.877328 ], [ -111.641022, 31.872849 ], [ -111.643898, 31.868984 ], [ -111.644017, 31.86744 ], [ -111.646684, 31.865665 ], [ -111.649941, 31.863956 ], [ -111.653473, 31.862663 ], [ -111.655289, 31.861555 ], [ -111.657529, 31.858617 ], [ -111.658723, 31.853667 ], [ -111.660875, 31.846086 ], [ -111.660366, 31.842114 ], [ -111.659695, 31.841538 ], [ -111.654328, 31.840141 ], [ -111.651522, 31.83835 ], [ -111.655337, 31.837752 ], [ -111.66075, 31.835596 ], [ -111.662875, 31.833899 ], [ -111.664044, 31.832293 ], [ -111.669137, 31.829996 ], [ -111.674212, 31.826836 ], [ -111.676174, 31.824027 ], [ -111.67521, 31.822517 ], [ -111.674105, 31.81796 ], [ -111.675766, 31.814658 ], [ -111.677216, 31.813474 ], [ -111.680536, 31.812254 ], [ -111.681617, 31.811423 ], [ -111.680149, 31.81052 ], [ -111.680534, 31.809252 ], [ -111.683243, 31.808682 ], [ -111.688162, 31.808905 ], [ -111.692178, 31.808666 ], [ -111.700605, 31.809927 ], [ -111.701979, 31.811633 ], [ -111.704635, 31.81056 ], [ -111.707775, 31.809907 ], [ -111.708526, 31.809143 ], [ -111.708684, 31.806764 ], [ -111.70992, 31.806164 ], [ -111.717037, 31.8046 ], [ -111.720679, 31.806809 ], [ -111.722646, 31.807089 ], [ -111.725476, 31.808151 ], [ -111.727092, 31.809269 ], [ -111.730445, 31.809247 ], [ -111.733987, 31.809749 ], [ -111.741481, 31.810492 ], [ -111.747946, 31.811569 ], [ -111.762458, 31.813004 ], [ -111.764412, 31.812967 ], [ -111.766227, 31.813594 ], [ -111.770528, 31.814337 ], [ -111.773887, 31.814493 ], [ -111.776936, 31.814082 ], [ -111.779992, 31.814447 ], [ -111.783361, 31.814436 ], [ -111.78397, 31.815381 ], [ -111.785497, 31.814787 ], [ -111.794928, 31.814122 ], [ -111.801029, 31.814241 ], [ -111.805093, 31.818515 ], [ -111.806349, 31.818598 ], [ -111.809176, 31.81768 ], [ -111.812113, 31.818241 ], [ -111.815173, 31.817597 ], [ -111.817208, 31.817674 ], [ -111.819449, 31.817014 ], [ -111.822176, 31.816975 ], [ -111.821888, 31.818619 ], [ -111.825518, 31.816997 ], [ -111.825645, 31.817893 ], [ -111.829146, 31.826063 ], [ -111.830404, 31.825882 ], [ -111.833706, 31.824176 ], [ -111.83744, 31.829911 ], [ -111.839059, 31.829332 ], [ -111.842148, 31.824957 ], [ -111.845719, 31.823525 ], [ -111.848646, 31.820173 ], [ -111.851035, 31.819158 ], [ -111.853275, 31.815687 ], [ -111.852256, 31.812905 ], [ -111.852325, 31.810029 ], [ -111.854173, 31.80763 ] ] ] } }
]
}
