{
"type": "FeatureCollection",
"name": "85709",
"crs": { "type": "name", "properties": { "name": "urn:ogc:def:crs:OGC:1.3:CRS84" } },
"features": [
{ "type": "Feature", "properties": { "Name": "", "Description": "" }, "geometry": { "type": "Polygon", "coordinates": [ [ [ -110.994583, 32.14186 ], [ -110.993118, 32.139069 ], [ -110.992608, 32.133784 ], [ -110.986669, 32.133992 ], [ -110.986815, 32.148544 ], [ -110.991526, 32.148384 ], [ -110.994013, 32.148619 ], [ -110.994334, 32.148143 ], [ -110.99258, 32.144134 ], [ -110.994583, 32.14186 ] ] ] } }
]
}
