{
"type": "FeatureCollection",
"name": "85902",
"crs": { "type": "name", "properties": { "name": "urn:ogc:def:crs:OGC:1.3:CRS84" } },
"features": [
{ "type": "Feature", "properties": { "Name": "", "Description": "" }, "geometry": { "type": "Polygon", "coordinates": [ [ [ -110.324969, 34.199905 ], [ -110.325603, 34.198942 ], [ -110.324831, 34.196766 ], [ -110.324417, 34.19404 ], [ -110.324753, 34.190191 ], [ -110.32329, 34.188769 ], [ -110.321585, 34.18902 ], [ -110.320369, 34.187896 ], [ -110.322353, 34.186148 ], [ -110.319195, 34.1841 ], [ -110.318776, 34.182743 ], [ -110.317428, 34.182006 ], [ -110.316117, 34.178895 ], [ -110.313688, 34.177659 ], [ -110.31226, 34.175746 ], [ -110.306611, 34.174471 ], [ -110.305203, 34.174733 ], [ -110.302148, 34.17294 ], [ -110.301783, 34.171698 ], [ -110.303304, 34.17143 ], [ -110.301786, 34.170786 ], [ -110.300174, 34.170473 ], [ -110.297688, 34.168212 ], [ -110.294885, 34.163836 ], [ -110.292847, 34.16268 ], [ -110.293102, 34.16137 ], [ -110.290255, 34.156795 ], [ -110.288963, 34.153688 ], [ -110.288662, 34.150777 ], [ -110.286658, 34.148492 ], [ -110.286197, 34.147087 ], [ -110.284809, 34.145849 ], [ -110.284197, 34.144431 ], [ -110.284114, 34.142325 ], [ -110.282681, 34.141375 ], [ -110.282902, 34.138765 ], [ -110.281003, 34.133173 ], [ -110.280074, 34.13127 ], [ -110.278304, 34.129488 ], [ -110.279197, 34.127227 ], [ -110.277858, 34.12319 ], [ -110.278379, 34.120204 ], [ -110.278215, 34.114774 ], [ -110.278291, 34.109916 ], [ -110.278861, 34.108151 ], [ -110.278375, 34.106049 ], [ -110.279087, 34.105105 ], [ -110.277005, 34.102196 ], [ -110.276151, 34.099549 ], [ -110.277186, 34.098009 ], [ -110.275319, 34.093525 ], [ -110.27576, 34.091132 ], [ -110.27516, 34.086306 ], [ -110.275559, 34.085085 ], [ -110.275195, 34.081823 ], [ -110.275918, 34.078285 ], [ -110.276666, 34.076794 ], [ -110.278364, 34.075039 ], [ -110.280163, 34.071434 ], [ -110.278949, 34.069498 ], [ -110.278963, 34.065117 ], [ -110.27924, 34.063042 ], [ -110.280705, 34.057528 ], [ -110.28356, 34.051497 ], [ -110.286359, 34.043925 ], [ -110.287132, 34.043087 ], [ -110.288823, 34.039571 ], [ -110.290195, 34.037731 ], [ -110.291111, 34.033627 ], [ -110.292049, 34.032275 ], [ -110.292066, 34.030615 ], [ -110.294098, 34.028774 ], [ -110.294471, 34.026363 ], [ -110.298629, 34.022416 ], [ -110.298996, 34.018957 ], [ -110.29698, 34.016108 ], [ -110.296044, 34.013484 ], [ -110.294518, 34.011877 ], [ -110.293454, 34.00986 ], [ -110.290415, 34.007004 ], [ -110.290256, 34.004366 ], [ -110.287742, 34.001891 ], [ -110.287251, 34.000048 ], [ -110.276728, 34.000051 ], [ -110.252495, 34.000047 ], [ -110.070964, 34.000046 ], [ -110.071629, 34.002378 ], [ -110.069855, 34.002765 ], [ -110.068595, 34.004909 ], [ -110.068192, 34.006998 ], [ -110.068549, 34.011193 ], [ -110.069797, 34.013975 ], [ -110.069282, 34.016372 ], [ -110.070775, 34.023568 ], [ -110.070168, 34.026701 ], [ -110.069303, 34.028724 ], [ -110.068722, 34.029494 ], [ -110.06445, 34.031231 ], [ -110.060482, 34.036316 ], [ -110.055522, 34.040863 ], [ -110.052009, 34.043671 ], [ -110.051256, 34.044705 ], [ -110.04617, 34.046953 ], [ -110.042181, 34.048128 ], [ -110.040801, 34.04931 ], [ -110.034725, 34.049694 ], [ -110.030553, 34.052031 ], [ -110.028808, 34.053599 ], [ -110.027875, 34.053799 ], [ -110.024762, 34.055529 ], [ -110.021154, 34.059263 ], [ -110.020647, 34.060704 ], [ -110.021437, 34.06452 ], [ -110.020807, 34.067183 ], [ -110.021856, 34.068897 ], [ -110.021854, 34.07036 ], [ -110.02096, 34.074786 ], [ -110.018941, 34.076317 ], [ -110.018537, 34.077671 ], [ -110.016936, 34.077751 ], [ -110.015656, 34.078887 ], [ -110.01371, 34.078958 ], [ -110.010827, 34.081212 ], [ -110.010058, 34.084313 ], [ -110.007917, 34.084378 ], [ -110.008045, 34.082423 ], [ -110.006957, 34.08299 ], [ -110.005905, 34.084425 ], [ -110.00539, 34.087447 ], [ -110.004531, 34.089537 ], [ -110.004392, 34.09071 ], [ -110.007041, 34.089807 ], [ -110.008108, 34.089748 ], [ -110.010775, 34.090584 ], [ -110.01283, 34.092264 ], [ -110.013005, 34.093121 ], [ -110.012502, 34.094709 ], [ -110.014361, 34.096853 ], [ -110.01459, 34.098159 ], [ -110.017109, 34.100643 ], [ -110.017507, 34.102528 ], [ -110.017411, 34.105822 ], [ -110.016621, 34.107296 ], [ -110.012892, 34.110106 ], [ -110.011332, 34.113486 ], [ -110.011658, 34.11486 ], [ -110.011289, 34.117419 ], [ -110.012265, 34.118602 ], [ -110.009629, 34.12133 ], [ -110.007755, 34.124093 ], [ -110.005114, 34.124611 ], [ -110.001492, 34.129227 ], [ -110.001101, 34.130318 ], [ -109.998258, 34.13071 ], [ -109.99478, 34.133958 ], [ -109.99378, 34.133874 ], [ -109.989395, 34.135348 ], [ -109.986195, 34.13524 ], [ -109.983569, 34.136943 ], [ -109.982223, 34.139485 ], [ -109.984595, 34.139689 ], [ -109.989763, 34.142073 ], [ -109.995595, 34.143553 ], [ -109.998148, 34.143485 ], [ -110.00205, 34.141953 ], [ -110.006873, 34.146109 ], [ -110.008457, 34.14681 ], [ -110.009916, 34.146334 ], [ -110.011483, 34.146732 ], [ -110.012147, 34.14749 ], [ -110.012569, 34.148259 ], [ -110.012279, 34.150017 ], [ -110.010727, 34.151649 ], [ -110.012592, 34.15432 ], [ -110.014533, 34.155925 ], [ -110.013977, 34.157619 ], [ -110.014422, 34.158599 ], [ -110.014094, 34.159517 ], [ -110.010609, 34.160999 ], [ -110.010797, 34.164973 ], [ -110.012341, 34.16462 ], [ -110.013807, 34.16499 ], [ -110.015983, 34.16605 ], [ -110.018175, 34.167678 ], [ -110.017982, 34.16956 ], [ -110.017562, 34.172174 ], [ -110.015898, 34.174562 ], [ -110.016754, 34.175736 ], [ -110.018986, 34.177371 ], [ -110.022108, 34.181069 ], [ -110.024391, 34.182456 ], [ -110.024834, 34.183547 ], [ -110.024754, 34.18442 ], [ -110.029338, 34.187272 ], [ -110.030148, 34.186292 ], [ -110.033987, 34.190353 ], [ -110.033204, 34.193514 ], [ -110.036687, 34.196949 ], [ -110.039548, 34.197285 ], [ -110.040942, 34.198204 ], [ -110.040958, 34.198886 ], [ -110.040716, 34.200474 ], [ -110.040963, 34.200972 ], [ -110.041154, 34.202913 ], [ -110.042118, 34.204175 ], [ -110.043927, 34.204536 ], [ -110.047847, 34.202179 ], [ -110.051764, 34.201005 ], [ -110.054162, 34.200691 ], [ -110.057082, 34.199066 ], [ -110.059967, 34.195886 ], [ -110.067136, 34.195123 ], [ -110.068006, 34.193867 ], [ -110.069168, 34.192975 ], [ -110.072827, 34.191205 ], [ -110.074968, 34.191229 ], [ -110.076122, 34.193493 ], [ -110.077581, 34.194275 ], [ -110.076506, 34.197927 ], [ -110.079349, 34.202732 ], [ -110.081034, 34.204352 ], [ -110.083281, 34.207569 ], [ -110.086749, 34.210535 ], [ -110.086979, 34.212379 ], [ -110.087856, 34.212486 ], [ -110.090194, 34.210373 ], [ -110.095148, 34.207271 ], [ -110.100675, 34.20576 ], [ -110.102627, 34.202802 ], [ -110.103852, 34.202341 ], [ -110.106408, 34.20246 ], [ -110.108335, 34.201861 ], [ -110.111159, 34.205679 ], [ -110.113781, 34.206841 ], [ -110.115611, 34.209547 ], [ -110.116756, 34.21316 ], [ -110.118571, 34.213755 ], [ -110.123216, 34.212388 ], [ -110.125667, 34.213092 ], [ -110.136092, 34.213569 ], [ -110.13769, 34.214444 ], [ -110.138652, 34.216351 ], [ -110.139718, 34.215901 ], [ -110.146546, 34.22007 ], [ -110.149944, 34.221537 ], [ -110.153262, 34.221738 ], [ -110.15619, 34.221359 ], [ -110.158322, 34.221975 ], [ -110.159227, 34.22604 ], [ -110.162844, 34.227225 ], [ -110.164063, 34.228632 ], [ -110.163224, 34.231892 ], [ -110.162856, 34.234443 ], [ -110.167455, 34.236794 ], [ -110.170789, 34.239136 ], [ -110.1766, 34.239 ], [ -110.177289, 34.237463 ], [ -110.179365, 34.237133 ], [ -110.181481, 34.238355 ], [ -110.182869, 34.237978 ], [ -110.18784, 34.238549 ], [ -110.190984, 34.240803 ], [ -110.190618, 34.242381 ], [ -110.19218, 34.242888 ], [ -110.192725, 34.247111 ], [ -110.194575, 34.247687 ], [ -110.197365, 34.249495 ], [ -110.200004, 34.249378 ], [ -110.201282, 34.250857 ], [ -110.202647, 34.250975 ], [ -110.202727, 34.247544 ], [ -110.203981, 34.246085 ], [ -110.207795, 34.24444 ], [ -110.212347, 34.24399 ], [ -110.216487, 34.243835 ], [ -110.21911, 34.24274 ], [ -110.22217, 34.240371 ], [ -110.227742, 34.234916 ], [ -110.230728, 34.230691 ], [ -110.231015, 34.225773 ], [ -110.233512, 34.223191 ], [ -110.239236, 34.21966 ], [ -110.2421, 34.21921 ], [ -110.25067, 34.219372 ], [ -110.260469, 34.217549 ], [ -110.261581, 34.216828 ], [ -110.268646, 34.217076 ], [ -110.273811, 34.216857 ], [ -110.284283, 34.218035 ], [ -110.287864, 34.218826 ], [ -110.292621, 34.220467 ], [ -110.29611, 34.222666 ], [ -110.299075, 34.225983 ], [ -110.302887, 34.224224 ], [ -110.303764, 34.223351 ], [ -110.30438, 34.220735 ], [ -110.306237, 34.218631 ], [ -110.306015, 34.21662 ], [ -110.306551, 34.215812 ], [ -110.308613, 34.214979 ], [ -110.310083, 34.213476 ], [ -110.311102, 34.210492 ], [ -110.312786, 34.20887 ], [ -110.315204, 34.208232 ], [ -110.316021, 34.205892 ], [ -110.320227, 34.20144 ], [ -110.322984, 34.199859 ], [ -110.324969, 34.199905 ] ] ] } }
]
}
