{
"type": "FeatureCollection",
"name": "86005",
"crs": { "type": "name", "properties": { "name": "urn:ogc:def:crs:OGC:1.3:CRS84" } },
"features": [
{ "type": "Feature", "properties": { "Name": "", "Description": "" }, "geometry": { "type": "Polygon", "coordinates": [ [ [ -111.812836, 35.118065 ], [ -111.813565, 35.113248 ], [ -111.812013, 35.106821 ], [ -111.81204, 35.106168 ], [ -111.808244, 35.106283 ], [ -111.806613, 35.104377 ], [ -111.800096, 35.099061 ], [ -111.745362, 35.137386 ], [ -111.73309, 35.141749 ], [ -111.733855, 35.13578 ], [ -111.734746, 35.134566 ], [ -111.732765, 35.130812 ], [ -111.730895, 35.123764 ], [ -111.726139, 35.120467 ], [ -111.726107, 35.118787 ], [ -111.726883, 35.116672 ], [ -111.731522, 35.114953 ], [ -111.733823, 35.114982 ], [ -111.734111, 35.113597 ], [ -111.735944, 35.110072 ], [ -111.736897, 35.109207 ], [ -111.737302, 35.10724 ], [ -111.739384, 35.104823 ], [ -111.739681, 35.103419 ], [ -111.741277, 35.101383 ], [ -111.740245, 35.100812 ], [ -111.740101, 35.098363 ], [ -111.739148, 35.095273 ], [ -111.735376, 35.090469 ], [ -111.733228, 35.090104 ], [ -111.732669, 35.088824 ], [ -111.73094, 35.088917 ], [ -111.729543, 35.083211 ], [ -111.730404, 35.075172 ], [ -111.73286, 35.065896 ], [ -111.732985, 35.063817 ], [ -111.732325, 35.059488 ], [ -111.732722, 35.053226 ], [ -111.733763, 35.040475 ], [ -111.733394, 35.037209 ], [ -111.734378, 35.034401 ], [ -111.733945, 35.031141 ], [ -111.734385, 35.029963 ], [ -111.735895, 35.02955 ], [ -111.735161, 35.028399 ], [ -111.73344, 35.02816 ], [ -111.732816, 35.02969 ], [ -111.729588, 35.03097 ], [ -111.725396, 35.030594 ], [ -111.723308, 35.03169 ], [ -111.72139, 35.034371 ], [ -111.719022, 35.03532 ], [ -111.716764, 35.035146 ], [ -111.719103, 35.036795 ], [ -111.721411, 35.040094 ], [ -111.72099, 35.042581 ], [ -111.722153, 35.042793 ], [ -111.724168, 35.044516 ], [ -111.723158, 35.044384 ], [ -111.724654, 35.047037 ], [ -111.726066, 35.047771 ], [ -111.725338, 35.048793 ], [ -111.725901, 35.051459 ], [ -111.724397, 35.052301 ], [ -111.723068, 35.054505 ], [ -111.719064, 35.054424 ], [ -111.717107, 35.058706 ], [ -111.71331, 35.060203 ], [ -111.711532, 35.059554 ], [ -111.711285, 35.061511 ], [ -111.705543, 35.062331 ], [ -111.705797, 35.06348 ], [ -111.704567, 35.064365 ], [ -111.702415, 35.06408 ], [ -111.701686, 35.065399 ], [ -111.699313, 35.067477 ], [ -111.698217, 35.06756 ], [ -111.694098, 35.06529 ], [ -111.692794, 35.066697 ], [ -111.691611, 35.066609 ], [ -111.691243, 35.064999 ], [ -111.689284, 35.065598 ], [ -111.689298, 35.066895 ], [ -111.68776, 35.067852 ], [ -111.686069, 35.067753 ], [ -111.683689, 35.069144 ], [ -111.682794, 35.068833 ], [ -111.684559, 35.065776 ], [ -111.685307, 35.06345 ], [ -111.685249, 35.061285 ], [ -111.684043, 35.057086 ], [ -111.682898, 35.054648 ], [ -111.682303, 35.052061 ], [ -111.681618, 35.052279 ], [ -111.681798, 35.054685 ], [ -111.680564, 35.057078 ], [ -111.678286, 35.056339 ], [ -111.676819, 35.055216 ], [ -111.673374, 35.05102 ], [ -111.670228, 35.050789 ], [ -111.666891, 35.048847 ], [ -111.66547, 35.046441 ], [ -111.665512, 35.042602 ], [ -111.663156, 35.039086 ], [ -111.660536, 35.036139 ], [ -111.659474, 35.035788 ], [ -111.658126, 35.032382 ], [ -111.657696, 35.029364 ], [ -111.659174, 35.027667 ], [ -111.658812, 35.026773 ], [ -111.659287, 35.023407 ], [ -111.660735, 35.021324 ], [ -111.659426, 35.020293 ], [ -111.659426, 35.018918 ], [ -111.658173, 35.01656 ], [ -111.660179, 35.013354 ], [ -111.660988, 35.009187 ], [ -111.662574, 35.009851 ], [ -111.662651, 35.007527 ], [ -111.660453, 35.004776 ], [ -111.661845, 35.001209 ], [ -111.661324, 34.998822 ], [ -111.657663, 34.995369 ], [ -111.655771, 34.994162 ], [ -111.65198, 34.992631 ], [ -111.650057, 34.989296 ], [ -111.650415, 34.987785 ], [ -111.647676, 34.98593 ], [ -111.640086, 34.984304 ], [ -111.638793, 34.984618 ], [ -111.637435, 34.986971 ], [ -111.635907, 34.987293 ], [ -111.63265, 34.985365 ], [ -111.628412, 34.984514 ], [ -111.625299, 34.982311 ], [ -111.621657, 34.98028 ], [ -111.618555, 34.976938 ], [ -111.616336, 34.975792 ], [ -111.616896, 34.975656 ], [ -111.612507, 34.9738 ], [ -111.610254, 34.971579 ], [ -111.608381, 34.968299 ], [ -111.606252, 34.967876 ], [ -111.604433, 34.968605 ], [ -111.603898, 34.969515 ], [ -111.600897, 34.967552 ], [ -111.597354, 34.967065 ], [ -111.592902, 34.966972 ], [ -111.592402, 34.967636 ], [ -111.594812, 34.971802 ], [ -111.593801, 34.974403 ], [ -111.592184, 34.976807 ], [ -111.592641, 34.977992 ], [ -111.590952, 34.979531 ], [ -111.586323, 34.977878 ], [ -111.582704, 34.977764 ], [ -111.579912, 34.978541 ], [ -111.577328, 34.980352 ], [ -111.576228, 34.982291 ], [ -111.577103, 34.984958 ], [ -111.579193, 34.986162 ], [ -111.580343, 34.986241 ], [ -111.580881, 34.987307 ], [ -111.578453, 34.988705 ], [ -111.576075, 34.990613 ], [ -111.576115, 34.994124 ], [ -111.576889, 34.999379 ], [ -111.575067, 35.001366 ], [ -111.571258, 34.999651 ], [ -111.567553, 34.997296 ], [ -111.564505, 34.996035 ], [ -111.557322, 34.990784 ], [ -111.553958, 34.988601 ], [ -111.551537, 34.987596 ], [ -111.549668, 34.986332 ], [ -111.547939, 34.987427 ], [ -111.541942, 34.987286 ], [ -111.53968, 34.986349 ], [ -111.537266, 34.984232 ], [ -111.53425, 34.980859 ], [ -111.532549, 34.979486 ], [ -111.530071, 34.97655 ], [ -111.529437, 34.974987 ], [ -111.525765, 34.97509 ], [ -111.525505, 34.975854 ], [ -111.526732, 34.978087 ], [ -111.525573, 34.980771 ], [ -111.522363, 34.983508 ], [ -111.519559, 34.98366 ], [ -111.516356, 34.985696 ], [ -111.515435, 34.986964 ], [ -111.512154, 34.988257 ], [ -111.509507, 34.990862 ], [ -111.507757, 34.991977 ], [ -111.504241, 34.995062 ], [ -111.501682, 34.996465 ], [ -111.496876, 34.99793 ], [ -111.494685, 34.997903 ], [ -111.488288, 34.997006 ], [ -111.485977, 34.994399 ], [ -111.484258, 34.989446 ], [ -111.482528, 34.987344 ], [ -111.480735, 34.986149 ], [ -111.479549, 34.98408 ], [ -111.478069, 34.983168 ], [ -111.476517, 34.981174 ], [ -111.474403, 34.984577 ], [ -111.473065, 34.985591 ], [ -111.470588, 34.98641 ], [ -111.464775, 34.987002 ], [ -111.463244, 34.986809 ], [ -111.455431, 34.985049 ], [ -111.449771, 34.98193 ], [ -111.448427, 34.981895 ], [ -111.453394, 34.994863 ], [ -111.454026, 34.998277 ], [ -111.454009, 35.000449 ], [ -111.453305, 35.003932 ], [ -111.451762, 35.008735 ], [ -111.451586, 35.015105 ], [ -111.451042, 35.019725 ], [ -111.45129, 35.021512 ], [ -111.453013, 35.025158 ], [ -111.453412, 35.028179 ], [ -111.4532, 35.032986 ], [ -111.453614, 35.035674 ], [ -111.455762, 35.040797 ], [ -111.456621, 35.044409 ], [ -111.456514, 35.048505 ], [ -111.457185, 35.051253 ], [ -111.459079, 35.054168 ], [ -111.461079, 35.055915 ], [ -111.463116, 35.057067 ], [ -111.466259, 35.058043 ], [ -111.475563, 35.059322 ], [ -111.480862, 35.060808 ], [ -111.490988, 35.065181 ], [ -111.495171, 35.065863 ], [ -111.499317, 35.065366 ], [ -111.504422, 35.06514 ], [ -111.507296, 35.065522 ], [ -111.509099, 35.066212 ], [ -111.514829, 35.069154 ], [ -111.519131, 35.070288 ], [ -111.520831, 35.071068 ], [ -111.528103, 35.076974 ], [ -111.531048, 35.080927 ], [ -111.532821, 35.085481 ], [ -111.534848, 35.088409 ], [ -111.53746, 35.091033 ], [ -111.53944, 35.092533 ], [ -111.541528, 35.093926 ], [ -111.552041, 35.097961 ], [ -111.555198, 35.09934 ], [ -111.560031, 35.102094 ], [ -111.564424, 35.104863 ], [ -111.5678, 35.106417 ], [ -111.575894, 35.109267 ], [ -111.580462, 35.111945 ], [ -111.583123, 35.113118 ], [ -111.586535, 35.113539 ], [ -111.589938, 35.115178 ], [ -111.593492, 35.119552 ], [ -111.593245, 35.12179 ], [ -111.595046, 35.122916 ], [ -111.595353, 35.126215 ], [ -111.596686, 35.128688 ], [ -111.597699, 35.128733 ], [ -111.60056, 35.129478 ], [ -111.601497, 35.130187 ], [ -111.601538, 35.131297 ], [ -111.599425, 35.133288 ], [ -111.598214, 35.13519 ], [ -111.598457, 35.137757 ], [ -111.59918, 35.14039 ], [ -111.598874, 35.14349 ], [ -111.59925, 35.145282 ], [ -111.59899, 35.147238 ], [ -111.599927, 35.149338 ], [ -111.59954, 35.150437 ], [ -111.600323, 35.151465 ], [ -111.601487, 35.152005 ], [ -111.602421, 35.153534 ], [ -111.604709, 35.156785 ], [ -111.605045, 35.159534 ], [ -111.603652, 35.16258 ], [ -111.603408, 35.167002 ], [ -111.60143, 35.171384 ], [ -111.601451, 35.172554 ], [ -111.608208, 35.173416 ], [ -111.607262, 35.176872 ], [ -111.610938, 35.176796 ], [ -111.610865, 35.170604 ], [ -111.613066, 35.170608 ], [ -111.613144, 35.176906 ], [ -111.614576, 35.176738 ], [ -111.628177, 35.17654 ], [ -111.638445, 35.177193 ], [ -111.641322, 35.177134 ], [ -111.644411, 35.174636 ], [ -111.648224, 35.172597 ], [ -111.650729, 35.171701 ], [ -111.655093, 35.17097 ], [ -111.659334, 35.171078 ], [ -111.662483, 35.171635 ], [ -111.662196, 35.172229 ], [ -111.66561, 35.173355 ], [ -111.672811, 35.176626 ], [ -111.676371, 35.177987 ], [ -111.682958, 35.179641 ], [ -111.683795, 35.179817 ], [ -111.693966, 35.181985 ], [ -111.7012, 35.183503 ], [ -111.704775, 35.184474 ], [ -111.709615, 35.185987 ], [ -111.723938, 35.190356 ], [ -111.722955, 35.192895 ], [ -111.725671, 35.192826 ], [ -111.728404, 35.194301 ], [ -111.73679, 35.194946 ], [ -111.737469, 35.194819 ], [ -111.741516, 35.197399 ], [ -111.743945, 35.19833 ], [ -111.753928, 35.199859 ], [ -111.760739, 35.201975 ], [ -111.767261, 35.204439 ], [ -111.769501, 35.20626 ], [ -111.772185, 35.210175 ], [ -111.77207, 35.207775 ], [ -111.771665, 35.202222 ], [ -111.771761, 35.189953 ], [ -111.771826, 35.165472 ], [ -111.798022, 35.165297 ], [ -111.795601, 35.164234 ], [ -111.794978, 35.164069 ], [ -111.801836, 35.161701 ], [ -111.804088, 35.156894 ], [ -111.8029, 35.152417 ], [ -111.801646, 35.151111 ], [ -111.803709, 35.150035 ], [ -111.802853, 35.148675 ], [ -111.798109, 35.148837 ], [ -111.797102, 35.144904 ], [ -111.800587, 35.142706 ], [ -111.797623, 35.141349 ], [ -111.795445, 35.138555 ], [ -111.795354, 35.13708 ], [ -111.793339, 35.135995 ], [ -111.788731, 35.135944 ], [ -111.792611, 35.132932 ], [ -111.79562, 35.131194 ], [ -111.798993, 35.128073 ], [ -111.800218, 35.124913 ], [ -111.804799, 35.121827 ], [ -111.809206, 35.122367 ], [ -111.810967, 35.121713 ], [ -111.812836, 35.118065 ] ] ] } }
]
}
