{
"type": "FeatureCollection",
"name": "87060",
"crs": { "type": "name", "properties": { "name": "urn:ogc:def:crs:OGC:1.3:CRS84" } },
"features": [
{ "type": "Feature", "properties": { "Name": "", "Description": "" }, "geometry": { "type": "Polygon", "coordinates": [ [ [ -106.737981, 34.742902 ], [ -106.738306, 34.739704 ], [ -106.736757, 34.734578 ], [ -106.73699, 34.732094 ], [ -106.732979, 34.73248 ], [ -106.734788, 34.736755 ], [ -106.734574, 34.737501 ], [ -106.732678, 34.737203 ], [ -106.731869, 34.740155 ], [ -106.731301, 34.740191 ], [ -106.731353, 34.741059 ], [ -106.732713, 34.741235 ], [ -106.73649, 34.742779 ], [ -106.734432, 34.750023 ], [ -106.734454, 34.756253 ], [ -106.732973, 34.758507 ], [ -106.736836, 34.753828 ], [ -106.737952, 34.750102 ], [ -106.737976, 34.742959 ], [ -106.737691, 34.742945 ], [ -106.737981, 34.742902 ] ] ] } }
]
}
