{
"type": "FeatureCollection",
"name": "88439",
"crs": { "type": "name", "properties": { "name": "urn:ogc:def:crs:OGC:1.3:CRS84" } },
"features": [
{ "type": "Feature", "properties": { "Name": "", "Description": "" }, "geometry": { "type": "Polygon", "coordinates": [ [ [ -104.614253, 35.477987 ], [ -104.60957, 35.47266 ], [ -104.59759, 35.46289 ], [ -104.59589, 35.46178 ], [ -104.59318, 35.46085 ], [ -104.58888, 35.46077 ], [ -104.58631, 35.46153 ], [ -104.57823, 35.46557 ], [ -104.57331, 35.46698 ], [ -104.56905, 35.46687 ], [ -104.55969, 35.46551 ], [ -104.55645, 35.4653 ], [ -104.55006, 35.46609 ], [ -104.54656, 35.46632 ], [ -104.53219, 35.46589 ], [ -104.49783, 35.46279 ], [ -104.49575, 35.46208 ], [ -104.46114, 35.46274 ], [ -104.45967, 35.46256 ], [ -104.45073, 35.45977 ], [ -104.44602, 35.45942 ], [ -104.4407, 35.45941 ], [ -104.4292, 35.46371 ], [ -104.42646, 35.46064 ], [ -104.42439, 35.45892 ], [ -104.42468, 35.4338 ], [ -104.42298, 35.43323 ], [ -104.41933, 35.43116 ], [ -104.41285, 35.42786 ], [ -104.41005, 35.42606 ], [ -104.4078, 35.42504 ], [ -104.41175, 35.42317 ], [ -104.41384, 35.42129 ], [ -104.41505, 35.41889 ], [ -104.41851, 35.41506 ], [ -104.42196, 35.4144 ], [ -104.42597, 35.41317 ], [ -104.43007, 35.41249 ], [ -104.432216, 35.412557 ], [ -104.43451, 35.41134 ], [ -104.43772, 35.41072 ], [ -104.43837, 35.40996 ], [ -104.44058, 35.40954 ], [ -104.44374, 35.40955 ], [ -104.44492, 35.40915 ], [ -104.44652, 35.40971 ], [ -104.44776, 35.4079 ], [ -104.44973, 35.40678 ], [ -104.44955, 35.40489 ], [ -104.45212, 35.40469 ], [ -104.45994, 35.40458 ], [ -104.460923, 35.389047 ], [ -104.458155, 35.389847 ], [ -104.456471, 35.39215 ], [ -104.453135, 35.394789 ], [ -104.451853, 35.394734 ], [ -104.450691, 35.39275 ], [ -104.4481, 35.39363 ], [ -104.447685, 35.395669 ], [ -104.44508, 35.397824 ], [ -104.445275, 35.399286 ], [ -104.443953, 35.400682 ], [ -104.442939, 35.40288 ], [ -104.440697, 35.403782 ], [ -104.438703, 35.403403 ], [ -104.436138, 35.404073 ], [ -104.435246, 35.405849 ], [ -104.435339, 35.407641 ], [ -104.43256, 35.408932 ], [ -104.431727, 35.409124 ], [ -104.429619, 35.406893 ], [ -104.426874, 35.405969 ], [ -104.427055, 35.40531 ], [ -104.430654, 35.402391 ], [ -104.431224, 35.401061 ], [ -104.429184, 35.400511 ], [ -104.426653, 35.401346 ], [ -104.424283, 35.401555 ], [ -104.425646, 35.399824 ], [ -104.425546, 35.398554 ], [ -104.423411, 35.398785 ], [ -104.424009, 35.397372 ], [ -104.422827, 35.396548 ], [ -104.422955, 35.395481 ], [ -104.4246, 35.394393 ], [ -104.422908, 35.394041 ], [ -104.421136, 35.392453 ], [ -104.419277, 35.393161 ], [ -104.419512, 35.394343 ], [ -104.418088, 35.394673 ], [ -104.415363, 35.393633 ], [ -104.409758, 35.393868 ], [ -104.406549, 35.395412 ], [ -104.404247, 35.395538 ], [ -104.403415, 35.394713 ], [ -104.403416, 35.391877 ], [ -104.401933, 35.391525 ], [ -104.399187, 35.392359 ], [ -104.398837, 35.393453 ], [ -104.401259, 35.395982 ], [ -104.400239, 35.396845 ], [ -104.395956, 35.396008 ], [ -104.393534, 35.394336 ], [ -104.394998, 35.392567 ], [ -104.394301, 35.390027 ], [ -104.393033, 35.389757 ], [ -104.391448, 35.390576 ], [ -104.387159, 35.391074 ], [ -104.385621, 35.392019 ], [ -104.382694, 35.392364 ], [ -104.382441, 35.390336 ], [ -104.376951, 35.38903 ], [ -104.374047, 35.386987 ], [ -104.373208, 35.387916 ], [ -104.373935, 35.390004 ], [ -104.372388, 35.391416 ], [ -104.371293, 35.391148 ], [ -104.371524, 35.388989 ], [ -104.370604, 35.388428 ], [ -104.368068, 35.389353 ], [ -104.365892, 35.388007 ], [ -104.36357, 35.38814 ], [ -104.359106, 35.386872 ], [ -104.357166, 35.386681 ], [ -104.356026, 35.388396 ], [ -104.353246, 35.387122 ], [ -104.352113, 35.389244 ], [ -104.349971, 35.388387 ], [ -104.347824, 35.38897 ], [ -104.3472, 35.389921 ], [ -104.345099, 35.390032 ], [ -104.344146, 35.388839 ], [ -104.345111, 35.385261 ], [ -104.344151, 35.385206 ], [ -104.342648, 35.386663 ], [ -104.342407, 35.388433 ], [ -104.338521, 35.387725 ], [ -104.338159, 35.391331 ], [ -104.336589, 35.391661 ], [ -104.334917, 35.390221 ], [ -104.335118, 35.387753 ], [ -104.334211, 35.386456 ], [ -104.33217, 35.385615 ], [ -104.332687, 35.383056 ], [ -104.333901, 35.381735 ], [ -104.331612, 35.380861 ], [ -104.329304, 35.381164 ], [ -104.326565, 35.380565 ], [ -104.326163, 35.3814 ], [ -104.328324, 35.384544 ], [ -104.327311, 35.385303 ], [ -104.319411, 35.381192 ], [ -104.318449, 35.381124 ], [ -104.316558, 35.377629 ], [ -104.311132, 35.374378 ], [ -104.309985, 35.37321 ], [ -104.309486, 35.370844 ], [ -104.310749, 35.368275 ], [ -104.311063, 35.365251 ], [ -104.312578, 35.364111 ], [ -104.31169, 35.36317 ], [ -104.31107, 35.35976 ], [ -104.31114, 35.35552 ], [ -104.309583, 35.355407 ], [ -104.309, 35.35483 ], [ -104.308187, 35.348599 ], [ -104.303592, 35.350805 ], [ -104.30077, 35.350601 ], [ -104.298281, 35.352607 ], [ -104.298731, 35.350079 ], [ -104.297261, 35.351667 ], [ -104.296228, 35.351335 ], [ -104.297471, 35.351904 ], [ -104.298092, 35.354056 ], [ -104.297434, 35.356771 ], [ -104.296236, 35.358991 ], [ -104.295387, 35.362023 ], [ -104.295644, 35.365037 ], [ -104.294344, 35.366709 ], [ -104.290693, 35.368899 ], [ -104.287231, 35.371342 ], [ -104.281874, 35.373654 ], [ -104.276906, 35.375019 ], [ -104.271495, 35.376208 ], [ -104.267648, 35.375721 ], [ -104.260161, 35.375452 ], [ -104.25761, 35.375814 ], [ -104.238021, 35.376764 ], [ -104.23505, 35.376386 ], [ -104.2283, 35.379521 ], [ -104.224959, 35.381766 ], [ -104.22263, 35.383682 ], [ -104.216518, 35.384977 ], [ -104.213265, 35.384851 ], [ -104.208148, 35.386582 ], [ -104.2035, 35.38662 ], [ -104.197826, 35.388997 ], [ -104.195793, 35.391256 ], [ -104.194119, 35.395947 ], [ -104.1937, 35.398979 ], [ -104.194255, 35.401991 ], [ -104.195082, 35.403751 ], [ -104.199192, 35.40779 ], [ -104.200382, 35.410133 ], [ -104.20078, 35.412696 ], [ -104.200004, 35.414586 ], [ -104.196071, 35.420024 ], [ -104.195398, 35.422475 ], [ -104.19623, 35.423995 ], [ -104.197208, 35.430599 ], [ -104.195317, 35.434174 ], [ -104.194803, 35.437689 ], [ -104.195428, 35.438111 ], [ -104.195927, 35.44109 ], [ -104.198665, 35.443733 ], [ -104.198803, 35.445015 ], [ -104.200991, 35.445867 ], [ -104.204439, 35.445986 ], [ -104.20843, 35.446999 ], [ -104.211131, 35.446811 ], [ -104.212912, 35.448014 ], [ -104.213768, 35.454304 ], [ -104.215551, 35.455112 ], [ -104.220028, 35.454836 ], [ -104.222049, 35.456202 ], [ -104.222329, 35.459626 ], [ -104.21792, 35.463843 ], [ -104.214049, 35.464363 ], [ -104.211739, 35.462803 ], [ -104.209944, 35.462712 ], [ -104.209033, 35.46378 ], [ -104.209194, 35.4661 ], [ -104.210098, 35.468692 ], [ -104.212163, 35.470879 ], [ -104.212376, 35.472443 ], [ -104.216839, 35.475755 ], [ -104.220438, 35.474356 ], [ -104.223936, 35.471207 ], [ -104.224965, 35.470812 ], [ -104.229571, 35.470491 ], [ -104.231984, 35.471757 ], [ -104.234317, 35.472276 ], [ -104.238344, 35.471959 ], [ -104.241377, 35.474007 ], [ -104.241897, 35.478813 ], [ -104.241731, 35.481407 ], [ -104.240574, 35.484322 ], [ -104.233001, 35.491486 ], [ -104.231273, 35.491607 ], [ -104.228511, 35.494561 ], [ -104.22816, 35.496272 ], [ -104.227108, 35.497278 ], [ -104.227518, 35.502022 ], [ -104.225023, 35.504133 ], [ -104.225207, 35.505842 ], [ -104.223471, 35.507541 ], [ -104.222908, 35.508943 ], [ -104.223929, 35.510128 ], [ -104.224373, 35.512588 ], [ -104.224209, 35.515201 ], [ -104.22477, 35.520399 ], [ -104.225417, 35.52143 ], [ -104.228855, 35.524311 ], [ -104.23411, 35.531189 ], [ -104.234536, 35.532242 ], [ -104.235856, 35.534941 ], [ -104.237754, 35.535562 ], [ -104.240931, 35.532722 ], [ -104.24164, 35.530198 ], [ -104.240043, 35.527404 ], [ -104.241151, 35.525677 ], [ -104.242698, 35.525533 ], [ -104.245437, 35.526489 ], [ -104.248739, 35.530993 ], [ -104.25, 35.53432 ], [ -104.24873, 35.535441 ], [ -104.244965, 35.536565 ], [ -104.240564, 35.539418 ], [ -104.23822, 35.543169 ], [ -104.239934, 35.547856 ], [ -104.241675, 35.550317 ], [ -104.244202, 35.552615 ], [ -104.245856, 35.556338 ], [ -104.247486, 35.556941 ], [ -104.250557, 35.557001 ], [ -104.254146, 35.559189 ], [ -104.255328, 35.560613 ], [ -104.257171, 35.560305 ], [ -104.260045, 35.557557 ], [ -104.261744, 35.557151 ], [ -104.263185, 35.558288 ], [ -104.264211, 35.56218 ], [ -104.260917, 35.565997 ], [ -104.257691, 35.567155 ], [ -104.255242, 35.569299 ], [ -104.254176, 35.571418 ], [ -104.255012, 35.574587 ], [ -104.255695, 35.575114 ], [ -104.261625, 35.575811 ], [ -104.262907, 35.575685 ], [ -104.264415, 35.573105 ], [ -104.265079, 35.570584 ], [ -104.268782, 35.570934 ], [ -104.270379, 35.572472 ], [ -104.271967, 35.576181 ], [ -104.272381, 35.578143 ], [ -104.27839, 35.580376 ], [ -104.283713, 35.583697 ], [ -104.28399, 35.585005 ], [ -104.279879, 35.588306 ], [ -104.27594, 35.588259 ], [ -104.274922, 35.589586 ], [ -104.27541, 35.593246 ], [ -104.276415, 35.596726 ], [ -104.277655, 35.597859 ], [ -104.280119, 35.598726 ], [ -104.282203, 35.59815 ], [ -104.28544, 35.594623 ], [ -104.289796, 35.592345 ], [ -104.293949, 35.592305 ], [ -104.296902, 35.591918 ], [ -104.300277, 35.593761 ], [ -104.303247, 35.595991 ], [ -104.303545, 35.597082 ], [ -104.302416, 35.598202 ], [ -104.297375, 35.598305 ], [ -104.293069, 35.600221 ], [ -104.295161, 35.60506 ], [ -104.293513, 35.606754 ], [ -104.294231, 35.6076 ], [ -104.295977, 35.607621 ], [ -104.297703, 35.606639 ], [ -104.299926, 35.606519 ], [ -104.302003, 35.608346 ], [ -104.304626, 35.609022 ], [ -104.305748, 35.608656 ], [ -104.306663, 35.605974 ], [ -104.308723, 35.606008 ], [ -104.310917, 35.608078 ], [ -104.314922, 35.609948 ], [ -104.31759, 35.609402 ], [ -104.317812, 35.606122 ], [ -104.318489, 35.605357 ], [ -104.322603, 35.606179 ], [ -104.324729, 35.608038 ], [ -104.32489, 35.610322 ], [ -104.326574, 35.610536 ], [ -104.328854, 35.610861 ], [ -104.330979, 35.612988 ], [ -104.331375, 35.611058 ], [ -104.333684, 35.612921 ], [ -104.334667, 35.613026 ], [ -104.334862, 35.611146 ], [ -104.337816, 35.610178 ], [ -104.338697, 35.608749 ], [ -104.34007, 35.608842 ], [ -104.341565, 35.611298 ], [ -104.34388, 35.609797 ], [ -104.3453, 35.60966 ], [ -104.345711, 35.611407 ], [ -104.346768, 35.611523 ], [ -104.34845, 35.609956 ], [ -104.349548, 35.61183 ], [ -104.349287, 35.614039 ], [ -104.351864, 35.613318 ], [ -104.354454, 35.610256 ], [ -104.355564, 35.610146 ], [ -104.356396, 35.617126 ], [ -104.358227, 35.617515 ], [ -104.362121, 35.611611 ], [ -104.366353, 35.610257 ], [ -104.367228, 35.608949 ], [ -104.369886, 35.608909 ], [ -104.370833, 35.606287 ], [ -104.373303, 35.605719 ], [ -104.374466, 35.604411 ], [ -104.376115, 35.603882 ], [ -104.379587, 35.604241 ], [ -104.380208, 35.6024 ], [ -104.381439, 35.602181 ], [ -104.381993, 35.60029 ], [ -104.386502, 35.59971 ], [ -104.386723, 35.597527 ], [ -104.38993, 35.59756 ], [ -104.39343, 35.59942 ], [ -104.39671, 35.59804 ], [ -104.4002, 35.59824 ], [ -104.40648, 35.59791 ], [ -104.42286, 35.59767 ], [ -104.42521, 35.59804 ], [ -104.42797, 35.60005 ], [ -104.42559, 35.58897 ], [ -104.42509, 35.58466 ], [ -104.4248, 35.57793 ], [ -104.42336, 35.57484 ], [ -104.42504, 35.57386 ], [ -104.42828, 35.57308 ], [ -104.42934, 35.57151 ], [ -104.43323, 35.56748 ], [ -104.44339, 35.5665 ], [ -104.44635, 35.56716 ], [ -104.45425, 35.57077 ], [ -104.45887, 35.57222 ], [ -104.460797, 35.572112 ], [ -104.460693, 35.570338 ], [ -104.462907, 35.566973 ], [ -104.468438, 35.564017 ], [ -104.471083, 35.564433 ], [ -104.474614, 35.563012 ], [ -104.47778, 35.559943 ], [ -104.482992, 35.559415 ], [ -104.490083, 35.559206 ], [ -104.495773, 35.560576 ], [ -104.498295, 35.559086 ], [ -104.503432, 35.557594 ], [ -104.506602, 35.55725 ], [ -104.509491, 35.556381 ], [ -104.512518, 35.556609 ], [ -104.514031, 35.559927 ], [ -104.515687, 35.55892 ], [ -104.519387, 35.558393 ], [ -104.520873, 35.558828 ], [ -104.522499, 35.557249 ], [ -104.527345, 35.550868 ], [ -104.524794, 35.548373 ], [ -104.524821, 35.545947 ], [ -104.523307, 35.543155 ], [ -104.523139, 35.540627 ], [ -104.524957, 35.538809 ], [ -104.525852, 35.536882 ], [ -104.525123, 35.535846 ], [ -104.526185, 35.533904 ], [ -104.5214, 35.53262 ], [ -104.51925, 35.53268 ], [ -104.51736, 35.53158 ], [ -104.51467, 35.52867 ], [ -104.51241, 35.52784 ], [ -104.506783, 35.528519 ], [ -104.509366, 35.527091 ], [ -104.511371, 35.525036 ], [ -104.513361, 35.525366 ], [ -104.515149, 35.526829 ], [ -104.518697, 35.531118 ], [ -104.518662, 35.532261 ], [ -104.520014, 35.532415 ], [ -104.521682, 35.530415 ], [ -104.523317, 35.529954 ], [ -104.52516, 35.527256 ], [ -104.530405, 35.526735 ], [ -104.532645, 35.526866 ], [ -104.522471, 35.478413 ], [ -104.522266, 35.47769 ], [ -104.614253, 35.477987 ] ] ] } }
]
}
