{
"type": "FeatureCollection",
"name": "89034",
"crs": { "type": "name", "properties": { "name": "urn:ogc:def:crs:OGC:1.3:CRS84" } },
"features": [
{ "type": "Feature", "properties": { "Name": "", "Description": "" }, "geometry": { "type": "Polygon", "coordinates": [ [ [ -114.191691, 36.765747 ], [ -114.191398, 36.764862 ], [ -114.183762, 36.76393 ], [ -114.178556, 36.763314 ], [ -114.174547, 36.763383 ], [ -114.171833, 36.763862 ], [ -114.167639, 36.76545 ], [ -114.159962, 36.769962 ], [ -114.157249, 36.771261 ], [ -114.150075, 36.774078 ], [ -114.14806, 36.775244 ], [ -114.147869, 36.776758 ], [ -114.140832, 36.780726 ], [ -114.118066, 36.796527 ], [ -114.109642, 36.802254 ], [ -114.107592, 36.803251 ], [ -114.109574, 36.804333 ], [ -114.111179, 36.805953 ], [ -114.115569, 36.803019 ], [ -114.117198, 36.80247 ], [ -114.12275, 36.802032 ], [ -114.124625, 36.800539 ], [ -114.12637, 36.796691 ], [ -114.129711, 36.798617 ], [ -114.13124, 36.801143 ], [ -114.132493, 36.801636 ], [ -114.13688, 36.801708 ], [ -114.138498, 36.802631 ], [ -114.138664, 36.803928 ], [ -114.136418, 36.804224 ], [ -114.135267, 36.804976 ], [ -114.134375, 36.806929 ], [ -114.134446, 36.815015 ], [ -114.133424, 36.817076 ], [ -114.126769, 36.820835 ], [ -114.125257, 36.820952 ], [ -114.120697, 36.81979 ], [ -114.118721, 36.819773 ], [ -114.116762, 36.820367 ], [ -114.111841, 36.820087 ], [ -114.105643, 36.820529 ], [ -114.096284, 36.820249 ], [ -114.095417, 36.822408 ], [ -114.093303, 36.823616 ], [ -114.093838, 36.825349 ], [ -114.095007, 36.825843 ], [ -114.095803, 36.828765 ], [ -114.097438, 36.829135 ], [ -114.096856, 36.830014 ], [ -114.097122, 36.832286 ], [ -114.098608, 36.834289 ], [ -114.097764, 36.835488 ], [ -114.099628, 36.8361 ], [ -114.099537, 36.837451 ], [ -114.098119, 36.837734 ], [ -114.099346, 36.83858 ], [ -114.098759, 36.842247 ], [ -114.100026, 36.842127 ], [ -114.100518, 36.843384 ], [ -114.165773, 36.843393 ], [ -114.168812, 36.843392 ], [ -114.170255, 36.837438 ], [ -114.170798, 36.833361 ], [ -114.170458, 36.830341 ], [ -114.170853, 36.829226 ], [ -114.173646, 36.829492 ], [ -114.174928, 36.827901 ], [ -114.176608, 36.82679 ], [ -114.177343, 36.824156 ], [ -114.179492, 36.819817 ], [ -114.181792, 36.815999 ], [ -114.184373, 36.812258 ], [ -114.186214, 36.80905 ], [ -114.187787, 36.805085 ], [ -114.187998, 36.798343 ], [ -114.187821, 36.796143 ], [ -114.187079, 36.794196 ], [ -114.18577, 36.792479 ], [ -114.185303, 36.788059 ], [ -114.183427, 36.786596 ], [ -114.181634, 36.786546 ], [ -114.180358, 36.785315 ], [ -114.179583, 36.782595 ], [ -114.181087, 36.777844 ], [ -114.181986, 36.77667 ], [ -114.187645, 36.774748 ], [ -114.188107, 36.774665 ], [ -114.190061, 36.768963 ], [ -114.190116, 36.767531 ], [ -114.191691, 36.765747 ] ] ] } }
]
}
