{
"type": "FeatureCollection",
"name": "89070",
"crs": { "type": "name", "properties": { "name": "urn:ogc:def:crs:OGC:1.3:CRS84" } },
"features": [
{ "type": "Feature", "properties": { "Name": "", "Description": "" }, "geometry": { "type": "Polygon", "coordinates": [ [ [ -115.721826, 36.445004 ], [ -115.723301, 36.44037 ], [ -115.721498, 36.444539 ], [ -115.719778, 36.447035 ], [ -115.717363, 36.449649 ], [ -115.712519, 36.45224 ], [ -115.709692, 36.453238 ], [ -115.707732, 36.453564 ], [ -115.703674, 36.453519 ], [ -115.700457, 36.453884 ], [ -115.696667, 36.455518 ], [ -115.694059, 36.455856 ], [ -115.686994, 36.455784 ], [ -115.680172, 36.456226 ], [ -115.673403, 36.457298 ], [ -115.666997, 36.460124 ], [ -115.658256, 36.464495 ], [ -115.628784, 36.47959 ], [ -115.626621, 36.480862 ], [ -115.620379, 36.48566 ], [ -115.564692, 36.514681 ], [ -115.56255, 36.511941 ], [ -115.558195, 36.514337 ], [ -115.55684, 36.51267 ], [ -115.553589, 36.512107 ], [ -115.551901, 36.512962 ], [ -115.550797, 36.515254 ], [ -115.552006, 36.51763 ], [ -115.555027, 36.516921 ], [ -115.556523, 36.518985 ], [ -115.549419, 36.522675 ], [ -115.548321, 36.523608 ], [ -115.555322, 36.522732 ], [ -115.564688, 36.52732 ], [ -115.572723, 36.53204 ], [ -115.576054, 36.532005 ], [ -115.576008, 36.533982 ], [ -115.597956, 36.546856 ], [ -115.597918, 36.53757 ], [ -115.649051, 36.537527 ], [ -115.649338, 36.535287 ], [ -115.651951, 36.533179 ], [ -115.652743, 36.53206 ], [ -115.653591, 36.529298 ], [ -115.655291, 36.527541 ], [ -115.656848, 36.524871 ], [ -115.658632, 36.5238 ], [ -115.661747, 36.519875 ], [ -115.666845, 36.517164 ], [ -115.668176, 36.516869 ], [ -115.672227, 36.514043 ], [ -115.673925, 36.511989 ], [ -115.675595, 36.51142 ], [ -115.676925, 36.509983 ], [ -115.680578, 36.50784 ], [ -115.683522, 36.504966 ], [ -115.690798, 36.499952 ], [ -115.69133, 36.498051 ], [ -115.693934, 36.494731 ], [ -115.694442, 36.493128 ], [ -115.69648, 36.490542 ], [ -115.697694, 36.487016 ], [ -115.699645, 36.48404 ], [ -115.702272, 36.477767 ], [ -115.702439, 36.476439 ], [ -115.704502, 36.472616 ], [ -115.706852, 36.47067 ], [ -115.709169, 36.466939 ], [ -115.712196, 36.464099 ], [ -115.715476, 36.45952 ], [ -115.7172, 36.456452 ], [ -115.719856, 36.452491 ], [ -115.720781, 36.44663 ], [ -115.721826, 36.445004 ] ] ] } }
]
}
