{
"type": "FeatureCollection",
"name": "89158",
"crs": { "type": "name", "properties": { "name": "urn:ogc:def:crs:OGC:1.3:CRS84" } },
"features": [
{ "type": "Feature", "properties": { "Name": "", "Description": "" }, "geometry": { "type": "Polygon", "coordinates": [ [ [ -115.180444, 36.108113 ], [ -115.180482, 36.100698 ], [ -115.179398, 36.100715 ], [ -115.172946, 36.100838 ], [ -115.173, 36.108845 ], [ -115.17345, 36.109128 ], [ -115.176257, 36.10918 ], [ -115.180444, 36.108113 ] ] ] } }
]
}
