{
"type": "FeatureCollection",
"name": "89315",
"crs": { "type": "name", "properties": { "name": "urn:ogc:def:crs:OGC:1.3:CRS84" } },
"features": [
{ "type": "Feature", "properties": { "Name": "", "Description": "" }, "geometry": { "type": "Polygon", "coordinates": [ [ [ -114.862993, 39.189277 ], [ -114.864104, 39.189105 ], [ -114.860506, 39.188271 ], [ -114.854339, 39.187944 ], [ -114.851881, 39.188952 ], [ -114.849162, 39.189437 ], [ -114.847471, 39.189062 ], [ -114.838182, 39.189713 ], [ -114.837628, 39.188883 ], [ -114.841259, 39.187689 ], [ -114.84479, 39.185539 ], [ -114.848197, 39.184166 ], [ -114.852698, 39.183227 ], [ -114.855176, 39.182322 ], [ -114.858365, 39.180165 ], [ -114.86139, 39.176217 ], [ -114.857997, 39.178019 ], [ -114.852938, 39.17645 ], [ -114.850277, 39.176607 ], [ -114.841833, 39.174926 ], [ -114.849679, 39.174915 ], [ -114.845783, 39.169389 ], [ -114.829638, 39.169457 ], [ -114.830021, 39.172236 ], [ -114.828766, 39.175005 ], [ -114.828943, 39.177725 ], [ -114.828246, 39.181148 ], [ -114.845264, 39.2038 ], [ -114.854637, 39.200321 ], [ -114.860712, 39.199141 ], [ -114.862573, 39.197657 ], [ -114.862738, 39.193685 ], [ -114.863316, 39.191343 ], [ -114.862993, 39.189277 ] ] ] } }
]
}
