{
"type": "FeatureCollection",
"name": "89496",
"crs": { "type": "name", "properties": { "name": "urn:ogc:def:crs:OGC:1.3:CRS84" } },
"features": [
{ "type": "Feature", "properties": { "Name": "", "Description": "" }, "geometry": { "type": "Polygon", "coordinates": [ [ [ -118.741716, 39.153769 ], [ -118.751573, 39.141758 ], [ -118.570178, 39.141941 ], [ -118.570333, 39.127276 ], [ -118.544378, 39.127255 ], [ -118.533322, 39.126938 ], [ -118.533211, 39.112247 ], [ -118.477688, 39.112762 ], [ -118.477505, 39.073682 ], [ -118.456667, 39.073719 ], [ -118.453967, 39.07388 ], [ -118.453769, 39.074 ], [ -118.452633, 39.073902 ], [ -118.417752, 39.073691 ], [ -118.418688, 39.076442 ], [ -118.420469, 39.078753 ], [ -118.420152, 39.080475 ], [ -118.421368, 39.084009 ], [ -118.418466, 39.087377 ], [ -118.415879, 39.089613 ], [ -118.414134, 39.092144 ], [ -118.413992, 39.094093 ], [ -118.412053, 39.096363 ], [ -118.413824, 39.100143 ], [ -118.414765, 39.104192 ], [ -118.415578, 39.105916 ], [ -118.418853, 39.119216 ], [ -118.420871, 39.124537 ], [ -118.421739, 39.126351 ], [ -118.42456, 39.129613 ], [ -118.427342, 39.134124 ], [ -118.42827, 39.136415 ], [ -118.430076, 39.138315 ], [ -118.431455, 39.140452 ], [ -118.433669, 39.142514 ], [ -118.435317, 39.145512 ], [ -118.437636, 39.14785 ], [ -118.437637, 39.148663 ], [ -118.439254, 39.15009 ], [ -118.43994, 39.151877 ], [ -118.440591, 39.157342 ], [ -118.44215, 39.160093 ], [ -118.440588, 39.163461 ], [ -118.441954, 39.164135 ], [ -118.442001, 39.166833 ], [ -118.441492, 39.168664 ], [ -118.44198, 39.170712 ], [ -118.444478, 39.171442 ], [ -118.447261, 39.172952 ], [ -118.449129, 39.173039 ], [ -118.450626, 39.173944 ], [ -118.451604, 39.180581 ], [ -118.451281, 39.183512 ], [ -118.452103, 39.189645 ], [ -118.451461, 39.192191 ], [ -118.451844, 39.19542 ], [ -118.454606, 39.20107 ], [ -118.456708, 39.203382 ], [ -118.459971, 39.207707 ], [ -118.463806, 39.21334 ], [ -118.468478, 39.21676 ], [ -118.473148, 39.218949 ], [ -118.475033, 39.22065 ], [ -118.477866, 39.224069 ], [ -118.478944, 39.224904 ], [ -118.481706, 39.229007 ], [ -118.482923, 39.232864 ], [ -118.482956, 39.235215 ], [ -118.484232, 39.237637 ], [ -118.49454, 39.271608 ], [ -118.495932, 39.277694 ], [ -118.496863, 39.284087 ], [ -118.497392, 39.28501 ], [ -118.502761, 39.287461 ], [ -118.506977, 39.289125 ], [ -118.51035, 39.290135 ], [ -118.515361, 39.291265 ], [ -118.517947, 39.292112 ], [ -118.525316, 39.292804 ], [ -118.527132, 39.293309 ], [ -118.532215, 39.296496 ], [ -118.536236, 39.296022 ], [ -118.536978, 39.29497 ], [ -118.541643, 39.29665 ], [ -118.548999, 39.29872 ], [ -118.552345, 39.297736 ], [ -118.554807, 39.296268 ], [ -118.559639, 39.294978 ], [ -118.566153, 39.294611 ], [ -118.569428, 39.294098 ], [ -118.573379, 39.293045 ], [ -118.573929, 39.293479 ], [ -118.572951, 39.299844 ], [ -118.572364, 39.301029 ], [ -118.571501, 39.305712 ], [ -118.572186, 39.308105 ], [ -118.571302, 39.310248 ], [ -118.576943, 39.314311 ], [ -118.582364, 39.318606 ], [ -118.585369, 39.322744 ], [ -118.587762, 39.329316 ], [ -118.589488, 39.331747 ], [ -118.593876, 39.336335 ], [ -118.596081, 39.339567 ], [ -118.601867, 39.342317 ], [ -118.611022, 39.345963 ], [ -118.615662, 39.348596 ], [ -118.614999, 39.349174 ], [ -118.615476, 39.350723 ], [ -118.619056, 39.354378 ], [ -118.619644, 39.35649 ], [ -118.621545, 39.358405 ], [ -118.62886, 39.362988 ], [ -118.630903, 39.366077 ], [ -118.632499, 39.36748 ], [ -118.631152, 39.369219 ], [ -118.630577, 39.371186 ], [ -118.631319, 39.374475 ], [ -118.631663, 39.37269 ], [ -118.635845, 39.367576 ], [ -118.638529, 39.362982 ], [ -118.639816, 39.359365 ], [ -118.641046, 39.354177 ], [ -118.640294, 39.349899 ], [ -118.639566, 39.348169 ], [ -118.636025, 39.342311 ], [ -118.631241, 39.332923 ], [ -118.630661, 39.330812 ], [ -118.628792, 39.318785 ], [ -118.631465, 39.315922 ], [ -118.633623, 39.315899 ], [ -118.634253, 39.308702 ], [ -118.634256, 39.302019 ], [ -118.6331, 39.297706 ], [ -118.630113, 39.291184 ], [ -118.621802, 39.280686 ], [ -118.613395, 39.266324 ], [ -118.613571, 39.265744 ], [ -118.617451, 39.262388 ], [ -118.620546, 39.260092 ], [ -118.625597, 39.258176 ], [ -118.631787, 39.256499 ], [ -118.635129, 39.254505 ], [ -118.639924, 39.252357 ], [ -118.645923, 39.250942 ], [ -118.648098, 39.250695 ], [ -118.654048, 39.247378 ], [ -118.653715, 39.245035 ], [ -118.655806, 39.235988 ], [ -118.65749, 39.232746 ], [ -118.659725, 39.230343 ], [ -118.660354, 39.228911 ], [ -118.662293, 39.227594 ], [ -118.661712, 39.225728 ], [ -118.664017, 39.225549 ], [ -118.6685, 39.227411 ], [ -118.670821, 39.228756 ], [ -118.674414, 39.228345 ], [ -118.684459, 39.226575 ], [ -118.686614, 39.227157 ], [ -118.700849, 39.232254 ], [ -118.702303, 39.23186 ], [ -118.705887, 39.228827 ], [ -118.707469, 39.22818 ], [ -118.708408, 39.22328 ], [ -118.709078, 39.22195 ], [ -118.710777, 39.215119 ], [ -118.712913, 39.213151 ], [ -118.716969, 39.210491 ], [ -118.721895, 39.208765 ], [ -118.725089, 39.208723 ], [ -118.726851, 39.210808 ], [ -118.728827, 39.20916 ], [ -118.730734, 39.208713 ], [ -118.741066, 39.207654 ], [ -118.739791, 39.159771 ], [ -118.740415, 39.156417 ], [ -118.741716, 39.153769 ] ] ] } }
]
}
