{
"type": "FeatureCollection",
"name": "89557",
"crs": { "type": "name", "properties": { "name": "urn:ogc:def:crs:OGC:1.3:CRS84" } },
"features": [
{ "type": "Feature", "properties": { "Name": "", "Description": "" }, "geometry": { "type": "Polygon", "coordinates": [ [ [ -119.821188, 39.548119 ], [ -119.819757, 39.544961 ], [ -119.817131, 39.542257 ], [ -119.817128, 39.5406 ], [ -119.817126, 39.540091 ], [ -119.817122, 39.539057 ], [ -119.816227, 39.536203 ], [ -119.81222, 39.536958 ], [ -119.811743, 39.537208 ], [ -119.810984, 39.538121 ], [ -119.811032, 39.538074 ], [ -119.811485, 39.538234 ], [ -119.812252, 39.540766 ], [ -119.813552, 39.543039 ], [ -119.813806, 39.544045 ], [ -119.813637, 39.545217 ], [ -119.817478, 39.548461 ], [ -119.819004, 39.548457 ], [ -119.821188, 39.548119 ] ] ] } }
]
}
