{
"type": "FeatureCollection",
"name": "90639",
"crs": { "type": "name", "properties": { "name": "urn:ogc:def:crs:OGC:1.3:CRS84" } },
"features": [
{ "type": "Feature", "properties": { "Name": "", "Description": "" }, "geometry": { "type": "Polygon", "coordinates": [ [ [ -118.018683, 33.907016 ], [ -118.017845, 33.904287 ], [ -118.018202, 33.902306 ], [ -118.014983, 33.900887 ], [ -118.014419, 33.903013 ], [ -118.012044, 33.905766 ], [ -118.011884, 33.911305 ], [ -118.013655, 33.910835 ], [ -118.014039, 33.907215 ], [ -118.018683, 33.907016 ] ] ] } }
]
}
