{
"type": "FeatureCollection",
"name": "91125",
"crs": { "type": "name", "properties": { "name": "urn:ogc:def:crs:OGC:1.3:CRS84" } },
"features": [
{ "type": "Feature", "properties": { "Name": "", "Description": "" }, "geometry": { "type": "Polygon", "coordinates": [ [ [ -118.127996, 34.140954 ], [ -118.127955, 34.137865 ], [ -118.127942, 34.132434 ], [ -118.125186, 34.133491 ], [ -118.124438, 34.135903 ], [ -118.12126, 34.13589 ], [ -118.121271, 34.13781 ], [ -118.1213, 34.141827 ], [ -118.122857, 34.141436 ], [ -118.124924, 34.140949 ], [ -118.127996, 34.140954 ] ] ] } }
]
}
