{
"type": "FeatureCollection",
"name": "92092",
"crs": { "type": "name", "properties": { "name": "urn:ogc:def:crs:OGC:1.3:CRS84" } },
"features": [
{ "type": "Feature", "properties": { "Name": "", "Description": "" }, "geometry": { "type": "Polygon", "coordinates": [ [ [ -117.238786, 32.878163 ], [ -117.239053, 32.875454 ], [ -117.237889, 32.871801 ], [ -117.233858, 32.871688 ], [ -117.234269, 32.873159 ], [ -117.233271, 32.876857 ], [ -117.234516, 32.879483 ], [ -117.236284, 32.878316 ], [ -117.237724, 32.879007 ], [ -117.238786, 32.878163 ] ] ] } }
]
}
