{
"type": "FeatureCollection",
"name": "92096",
"crs": { "type": "name", "properties": { "name": "urn:ogc:def:crs:OGC:1.3:CRS84" } },
"features": [
{ "type": "Feature", "properties": { "Name": "", "Description": "" }, "geometry": { "type": "Polygon", "coordinates": [ [ [ -117.165328, 33.127273 ], [ -117.165496, 33.126295 ], [ -117.161938, 33.126294 ], [ -117.160149, 33.12407 ], [ -117.157766, 33.124502 ], [ -117.148898, 33.124943 ], [ -117.148667, 33.127937 ], [ -117.150274, 33.126796 ], [ -117.15211, 33.127383 ], [ -117.153445, 33.129893 ], [ -117.153531, 33.131044 ], [ -117.152992, 33.132073 ], [ -117.151952, 33.132568 ], [ -117.153325, 33.134325 ], [ -117.155861, 33.133495 ], [ -117.159966, 33.13086 ], [ -117.160714, 33.127919 ], [ -117.165328, 33.127273 ] ] ] } }
]
}
