{
"type": "FeatureCollection",
"name": "92093",
"crs": { "type": "name", "properties": { "name": "urn:ogc:def:crs:OGC:1.3:CRS84" } },
"features": [
{ "type": "Feature", "properties": { "Name": "", "Description": "" }, "geometry": { "type": "Polygon", "coordinates": [ [ [ -117.243654, 32.887696 ], [ -117.243889, 32.877961 ], [ -117.243651, 32.875608 ], [ -117.243576, 32.871563 ], [ -117.242268, 32.870202 ], [ -117.240887, 32.870221 ], [ -117.238895, 32.871493 ], [ -117.237889, 32.871801 ], [ -117.239053, 32.875454 ], [ -117.238786, 32.878163 ], [ -117.237724, 32.879007 ], [ -117.236284, 32.878316 ], [ -117.234516, 32.879483 ], [ -117.233271, 32.876857 ], [ -117.229925, 32.876749 ], [ -117.229004, 32.875658 ], [ -117.228419, 32.881636 ], [ -117.227926, 32.887123 ], [ -117.231837, 32.88835 ], [ -117.235498, 32.890173 ], [ -117.239042, 32.89099 ], [ -117.2403, 32.89185 ], [ -117.241986, 32.890636 ], [ -117.243654, 32.887696 ] ] ] } }
]
}
