{
"type": "FeatureCollection",
"name": "92136",
"crs": { "type": "name", "properties": { "name": "urn:ogc:def:crs:OGC:1.3:CRS84" } },
"features": [
{ "type": "Feature", "properties": { "Name": "", "Description": "" }, "geometry": { "type": "Polygon", "coordinates": [ [ [ -117.133508, 32.687732 ], [ -117.135989, 32.685188 ], [ -117.130448, 32.679506 ], [ -117.130336, 32.678844 ], [ -117.128598, 32.677301 ], [ -117.125466, 32.672469 ], [ -117.124914, 32.671786 ], [ -117.120547, 32.674275 ], [ -117.118953, 32.672406 ], [ -117.115652, 32.674661 ], [ -117.115879, 32.675069 ], [ -117.120007, 32.679831 ], [ -117.116987, 32.680649 ], [ -117.114802, 32.678805 ], [ -117.112794, 32.674174 ], [ -117.111543, 32.67453 ], [ -117.109922, 32.674981 ], [ -117.108971, 32.67811 ], [ -117.110843, 32.682374 ], [ -117.111053, 32.682513 ], [ -117.123222, 32.690933 ], [ -117.12435, 32.691719 ], [ -117.126215, 32.692832 ], [ -117.133713, 32.692796 ], [ -117.133672, 32.690961 ], [ -117.132567, 32.690526 ], [ -117.131294, 32.68979 ], [ -117.129378, 32.688474 ], [ -117.133621, 32.688469 ], [ -117.13361, 32.687918 ], [ -117.133508, 32.687732 ] ] ] } }
]
}
