{
"type": "FeatureCollection",
"name": "92161",
"crs": { "type": "name", "properties": { "name": "urn:ogc:def:crs:OGC:1.3:CRS84" } },
"features": [
{ "type": "Feature", "properties": { "Name": "", "Description": "" }, "geometry": { "type": "Polygon", "coordinates": [ [ [ -117.234269, 32.873159 ], [ -117.233858, 32.871688 ], [ -117.231674, 32.871679 ], [ -117.229345, 32.872071 ], [ -117.229004, 32.875658 ], [ -117.229925, 32.876749 ], [ -117.233271, 32.876857 ], [ -117.234269, 32.873159 ] ] ] } }
]
}
