{
"type": "FeatureCollection",
"name": "92179",
"crs": { "type": "name", "properties": { "name": "urn:ogc:def:crs:OGC:1.3:CRS84" } },
"features": [
{ "type": "Feature", "properties": { "Name": "", "Description": "" }, "geometry": { "type": "Polygon", "coordinates": [ [ [ -116.937572, 32.58428 ], [ -116.938566, 32.581871 ], [ -116.931046, 32.580725 ], [ -116.926913, 32.580614 ], [ -116.928878, 32.583296 ], [ -116.929795, 32.585687 ], [ -116.933294, 32.587838 ], [ -116.937553, 32.587899 ], [ -116.938549, 32.586798 ], [ -116.937572, 32.58428 ] ] ] } }
]
}
