{
"type": "FeatureCollection",
"name": "92182",
"crs": { "type": "name", "properties": { "name": "urn:ogc:def:crs:OGC:1.3:CRS84" } },
"features": [
{ "type": "Feature", "properties": { "Name": "", "Description": "" }, "geometry": { "type": "Polygon", "coordinates": [ [ [ -117.080871, 32.775149 ], [ -117.080882, 32.773437 ], [ -117.080219, 32.773437 ], [ -117.078462, 32.772903 ], [ -117.079114, 32.771005 ], [ -117.077405, 32.770718 ], [ -117.076252, 32.770694 ], [ -117.07618, 32.773181 ], [ -117.06999, 32.773168 ], [ -117.06848, 32.774228 ], [ -117.068514, 32.775756 ], [ -117.070085, 32.778114 ], [ -117.072052, 32.778607 ], [ -117.074312, 32.778291 ], [ -117.074792, 32.777095 ], [ -117.076406, 32.778948 ], [ -117.076153, 32.776886 ], [ -117.07676, 32.775635 ], [ -117.076941, 32.775145 ], [ -117.077131, 32.77518 ], [ -117.078576, 32.775293 ], [ -117.078982, 32.775269 ], [ -117.079574, 32.775051 ], [ -117.080098, 32.774999 ], [ -117.080447, 32.77511 ], [ -117.080786, 32.77538 ], [ -117.080871, 32.775149 ] ] ] } }
]
}
