{
"type": "FeatureCollection",
"name": "92317",
"crs": { "type": "name", "properties": { "name": "urn:ogc:def:crs:OGC:1.3:CRS84" } },
"features": [
{ "type": "Feature", "properties": { "Name": "", "Description": "" }, "geometry": { "type": "Polygon", "coordinates": [ [ [ -117.219089, 34.240128 ], [ -117.219021, 34.239648 ], [ -117.215845, 34.240484 ], [ -117.218257, 34.238164 ], [ -117.217948, 34.23676 ], [ -117.215763, 34.232201 ], [ -117.215984, 34.230691 ], [ -117.215477, 34.230902 ], [ -117.21269, 34.229151 ], [ -117.209136, 34.230555 ], [ -117.204784, 34.232425 ], [ -117.202096, 34.231924 ], [ -117.202209, 34.233491 ], [ -117.205279, 34.235855 ], [ -117.199363, 34.236463 ], [ -117.200175, 34.243164 ], [ -117.199591, 34.244724 ], [ -117.197932, 34.246596 ], [ -117.198253, 34.249008 ], [ -117.194063, 34.248794 ], [ -117.195906, 34.249501 ], [ -117.19779, 34.249344 ], [ -117.19933, 34.248323 ], [ -117.200052, 34.249256 ], [ -117.201393, 34.247206 ], [ -117.206021, 34.248215 ], [ -117.207654, 34.247421 ], [ -117.207644, 34.247669 ], [ -117.207255, 34.249774 ], [ -117.205251, 34.250259 ], [ -117.207971, 34.252485 ], [ -117.205263, 34.253499 ], [ -117.206207, 34.255566 ], [ -117.202468, 34.255707 ], [ -117.202997, 34.254654 ], [ -117.204677, 34.254221 ], [ -117.203163, 34.25359 ], [ -117.202041, 34.254515 ], [ -117.199877, 34.254713 ], [ -117.199064, 34.255386 ], [ -117.20078, 34.257703 ], [ -117.20461, 34.258645 ], [ -117.205237, 34.260353 ], [ -117.203551, 34.261534 ], [ -117.207147, 34.262049 ], [ -117.20894, 34.261243 ], [ -117.211072, 34.261559 ], [ -117.213533, 34.260594 ], [ -117.217371, 34.260003 ], [ -117.21735, 34.257358 ], [ -117.214519, 34.253468 ], [ -117.212254, 34.255477 ], [ -117.213011, 34.25314 ], [ -117.21093, 34.251693 ], [ -117.212498, 34.251187 ], [ -117.214311, 34.246234 ], [ -117.217399, 34.240331 ], [ -117.219089, 34.240128 ] ] ] } }
]
}
