{
"type": "FeatureCollection",
"name": "92350",
"crs": { "type": "name", "properties": { "name": "urn:ogc:def:crs:OGC:1.3:CRS84" } },
"features": [
{ "type": "Feature", "properties": { "Name": "", "Description": "" }, "geometry": { "type": "Polygon", "coordinates": [ [ [ -117.265694, 34.053893 ], [ -117.265703, 34.052028 ], [ -117.263244, 34.052038 ], [ -117.262615, 34.052325 ], [ -117.261144, 34.051659 ], [ -117.257848, 34.051878 ], [ -117.257483, 34.052347 ], [ -117.259063, 34.053979 ], [ -117.261198, 34.054447 ], [ -117.262872, 34.053889 ], [ -117.265694, 34.053893 ] ] ] } }
]
}
