{
"type": "FeatureCollection",
"name": "92415",
"crs": { "type": "name", "properties": { "name": "urn:ogc:def:crs:OGC:1.3:CRS84" } },
"features": [
{ "type": "Feature", "properties": { "Name": "", "Description": "" }, "geometry": { "type": "Polygon", "coordinates": [ [ [ -117.289679, 34.104578 ], [ -117.289652, 34.102721 ], [ -117.28516, 34.102732 ], [ -117.28516, 34.104577 ], [ -117.285155, 34.10833 ], [ -117.28742, 34.10832 ], [ -117.287414, 34.104591 ], [ -117.289679, 34.104578 ] ] ] } }
]
}
