{
"type": "FeatureCollection",
"name": "92521",
"crs": { "type": "name", "properties": { "name": "urn:ogc:def:crs:OGC:1.3:CRS84" } },
"features": [
{ "type": "Feature", "properties": { "Name": "", "Description": "" }, "geometry": { "type": "Polygon", "coordinates": [ [ [ -117.338688, 33.965157 ], [ -117.338668, 33.96115 ], [ -117.331125, 33.961173 ], [ -117.331121, 33.966717 ], [ -117.327736, 33.966813 ], [ -117.326266, 33.964371 ], [ -117.323045, 33.961958 ], [ -117.321969, 33.962517 ], [ -117.323179, 33.962991 ], [ -117.320326, 33.96335 ], [ -117.318233, 33.961507 ], [ -117.318131, 33.971314 ], [ -117.31668, 33.971641 ], [ -117.317928, 33.971734 ], [ -117.318087, 33.975671 ], [ -117.323887, 33.974642 ], [ -117.323679, 33.971964 ], [ -117.326596, 33.971975 ], [ -117.32654, 33.968891 ], [ -117.327355, 33.968665 ], [ -117.330051, 33.970961 ], [ -117.334897, 33.975695 ], [ -117.335121, 33.975691 ], [ -117.335314, 33.975696 ], [ -117.336146, 33.973783 ], [ -117.336281, 33.972107 ], [ -117.334156, 33.969897 ], [ -117.333938, 33.968671 ], [ -117.334248, 33.967572 ], [ -117.338688, 33.965157 ] ] ] } }
]
}
