{
"type": "FeatureCollection",
"name": "92697",
"crs": { "type": "name", "properties": { "name": "urn:ogc:def:crs:OGC:1.3:CRS84" } },
"features": [
{ "type": "Feature", "properties": { "Name": "", "Description": "" }, "geometry": { "type": "Polygon", "coordinates": [ [ [ -117.86163, 33.651407 ], [ -117.861548, 33.651174 ], [ -117.861211, 33.649833 ], [ -117.859894, 33.650131 ], [ -117.85349, 33.650698 ], [ -117.852995, 33.648816 ], [ -117.84812, 33.64678 ], [ -117.84578, 33.64887 ], [ -117.84588, 33.65071 ], [ -117.846772, 33.652933 ], [ -117.844608, 33.654797 ], [ -117.844657, 33.654936 ], [ -117.845533, 33.655587 ], [ -117.84748, 33.653699 ], [ -117.849249, 33.652677 ], [ -117.852041, 33.651851 ], [ -117.860064, 33.651533 ], [ -117.86163, 33.651407 ] ] ] } }
]
}
