{
"type": "FeatureCollection",
"name": "93106",
"crs": { "type": "name", "properties": { "name": "urn:ogc:def:crs:OGC:1.3:CRS84" } },
"features": [
{ "type": "Feature", "properties": { "Name": "", "Description": "" }, "geometry": { "type": "MultiPolygon", "coordinates": [ [ [ [ -119.859847, 34.420365 ], [ -119.860728, 34.417306 ], [ -119.858697, 34.417296 ], [ -119.853645, 34.417242 ], [ -119.853682, 34.4151 ], [ -119.852581, 34.414484 ], [ -119.853365, 34.413541 ], [ -119.853391, 34.412269 ], [ -119.851019, 34.412189 ], [ -119.847751, 34.410895 ], [ -119.847458, 34.409425 ], [ -119.845058, 34.40871 ], [ -119.846289, 34.411516 ], [ -119.841201133168994, 34.4113956184733 ], [ -119.840424810423002, 34.413864303796899 ], [ -119.84039, 34.413975 ], [ -119.838604206637001, 34.414679033278603 ], [ -119.838612, 34.415889 ], [ -119.848163, 34.419342 ], [ -119.852444, 34.422042 ], [ -119.851243, 34.424173 ], [ -119.859791, 34.424307 ], [ -119.859847, 34.420365 ] ] ], [ [ [ -119.869692, 34.419154 ], [ -119.869625, 34.417505 ], [ -119.865133, 34.417432 ], [ -119.865133, 34.419193 ], [ -119.869692, 34.419154 ] ] ] ] } }
]
}
