{
"type": "FeatureCollection",
"name": "93227",
"crs": { "type": "name", "properties": { "name": "urn:ogc:def:crs:OGC:1.3:CRS84" } },
"features": [
{ "type": "Feature", "properties": { "Name": "", "Description": "" }, "geometry": { "type": "Polygon", "coordinates": [ [ [ -119.420238, 36.344982 ], [ -119.422232, 36.344715 ], [ -119.419686, 36.341674 ], [ -119.41462, 36.341698 ], [ -119.421268, 36.351804 ], [ -119.421824, 36.351623 ], [ -119.418363, 36.346588 ], [ -119.420238, 36.344982 ] ] ] } }
]
}
