{
"type": "FeatureCollection",
"name": "93237",
"crs": { "type": "name", "properties": { "name": "urn:ogc:def:crs:OGC:1.3:CRS84" } },
"features": [
{ "type": "Feature", "properties": { "Name": "", "Description": "" }, "geometry": { "type": "Polygon", "coordinates": [ [ [ -118.921582, 36.476081 ], [ -118.920939, 36.473658 ], [ -118.917501, 36.467465 ], [ -118.914624, 36.463872 ], [ -118.913697, 36.457867 ], [ -118.912787, 36.456353 ], [ -118.909048, 36.454082 ], [ -118.905878, 36.451208 ], [ -118.903967, 36.448923 ], [ -118.904478, 36.446424 ], [ -118.907115, 36.443278 ], [ -118.907197, 36.441765 ], [ -118.906449, 36.440322 ], [ -118.907047, 36.43893 ], [ -118.906099, 36.438116 ], [ -118.904371, 36.443255 ], [ -118.902275, 36.447615 ], [ -118.903679, 36.451167 ], [ -118.900728, 36.450919 ], [ -118.89765, 36.452461 ], [ -118.896487, 36.455144 ], [ -118.894994, 36.456405 ], [ -118.89134, 36.455806 ], [ -118.890545, 36.457837 ], [ -118.890975, 36.459015 ], [ -118.889282, 36.461205 ], [ -118.888835, 36.462348 ], [ -118.885304, 36.46309 ], [ -118.885088, 36.465251 ], [ -118.886984, 36.464806 ], [ -118.885797, 36.469889 ], [ -118.886493, 36.472415 ], [ -118.890665, 36.472294 ], [ -118.890711, 36.486644 ], [ -118.899321, 36.486735 ], [ -118.899306, 36.499154 ], [ -118.900226, 36.500706 ], [ -118.902584, 36.500725 ], [ -118.905619, 36.503204 ], [ -118.906752, 36.503185 ], [ -118.908103, 36.502842 ], [ -118.910388, 36.500714 ], [ -118.912813, 36.499283 ], [ -118.911791, 36.497532 ], [ -118.909823, 36.496029 ], [ -118.909784, 36.495212 ], [ -118.912349, 36.492636 ], [ -118.914645, 36.493053 ], [ -118.918729, 36.491443 ], [ -118.919714, 36.489994 ], [ -118.91851, 36.488507 ], [ -118.917732, 36.485508 ], [ -118.920591, 36.483968 ], [ -118.919595, 36.478948 ], [ -118.921582, 36.476081 ] ] ] } }
]
}
