{
"type": "FeatureCollection",
"name": "93246",
"crs": { "type": "name", "properties": { "name": "urn:ogc:def:crs:OGC:1.3:CRS84" } },
"features": [
{ "type": "Feature", "properties": { "Name": "", "Description": "" }, "geometry": { "type": "Polygon", "coordinates": [ [ [ -119.960051, 36.374956 ], [ -119.959746, 36.357316 ], [ -119.958929, 36.306322 ], [ -119.958902, 36.299129 ], [ -119.958946, 36.284603 ], [ -119.940975, 36.284736 ], [ -119.940959, 36.264692 ], [ -119.931978, 36.268109 ], [ -119.932073, 36.255353 ], [ -119.906186, 36.255325 ], [ -119.901285, 36.255188 ], [ -119.896138, 36.255311 ], [ -119.89683, 36.256325 ], [ -119.904196, 36.255762 ], [ -119.905043, 36.25634 ], [ -119.897116, 36.256999 ], [ -119.894458, 36.259728 ], [ -119.89774, 36.259146 ], [ -119.898759, 36.260983 ], [ -119.898786, 36.263144 ], [ -119.914074, 36.26298 ], [ -119.919643, 36.272742 ], [ -119.905087, 36.278249 ], [ -119.905149, 36.29924 ], [ -119.905276, 36.329759 ], [ -119.905212, 36.354962 ], [ -119.905595, 36.356719 ], [ -119.9072, 36.358386 ], [ -119.913004, 36.361368 ], [ -119.915584, 36.36299 ], [ -119.920763, 36.369771 ], [ -119.923201, 36.371726 ], [ -119.93244, 36.379175 ], [ -119.941228, 36.379128 ], [ -119.941304, 36.371885 ], [ -119.958941, 36.371873 ], [ -119.959014, 36.37495 ], [ -119.960051, 36.374956 ] ] ] } }
]
}
