{
"type": "FeatureCollection",
"name": "93407",
"crs": { "type": "name", "properties": { "name": "urn:ogc:def:crs:OGC:1.3:CRS84" } },
"features": [
{ "type": "Feature", "properties": { "Name": "", "Description": "" }, "geometry": { "type": "Polygon", "coordinates": [ [ [ -120.680483, 35.308489 ], [ -120.680765, 35.307989 ], [ -120.680335, 35.307625 ], [ -120.678341, 35.30583 ], [ -120.677551, 35.304635 ], [ -120.67617, 35.3017 ], [ -120.676001, 35.301336 ], [ -120.675647, 35.300664 ], [ -120.674857, 35.299565 ], [ -120.673732, 35.298463 ], [ -120.671019, 35.299134 ], [ -120.66853, 35.302087 ], [ -120.66702, 35.302576 ], [ -120.666622, 35.302703 ], [ -120.662717, 35.304105 ], [ -120.662282, 35.302494 ], [ -120.658311, 35.30214 ], [ -120.657056, 35.302493 ], [ -120.657648, 35.303457 ], [ -120.660463, 35.305367 ], [ -120.659261, 35.305986 ], [ -120.659668, 35.307496 ], [ -120.660494, 35.308435 ], [ -120.663794, 35.308134 ], [ -120.663822, 35.31014 ], [ -120.661054, 35.313501 ], [ -120.664431, 35.315096 ], [ -120.671348, 35.315202 ], [ -120.671743, 35.312593 ], [ -120.673821, 35.312046 ], [ -120.680367, 35.312301 ], [ -120.680483, 35.308489 ] ] ] } }
]
}
