{
"type": "FeatureCollection",
"name": "93409",
"crs": { "type": "name", "properties": { "name": "urn:ogc:def:crs:OGC:1.3:CRS84" } },
"features": [
{ "type": "Feature", "properties": { "Name": "", "Description": "" }, "geometry": { "type": "Polygon", "coordinates": [ [ [ -120.708844, 35.321992 ], [ -120.708833, 35.320815 ], [ -120.706522, 35.321089 ], [ -120.703293, 35.320766 ], [ -120.701345, 35.321253 ], [ -120.69852, 35.320962 ], [ -120.696636, 35.320685 ], [ -120.696179, 35.320505 ], [ -120.695657, 35.320103 ], [ -120.693072, 35.317649 ], [ -120.690904, 35.322634 ], [ -120.689567, 35.324786 ], [ -120.688397, 35.325067 ], [ -120.689713, 35.326753 ], [ -120.691493, 35.326726 ], [ -120.692895, 35.327956 ], [ -120.696379, 35.328111 ], [ -120.69856, 35.325431 ], [ -120.70196, 35.327112 ], [ -120.702406, 35.325559 ], [ -120.703686, 35.324458 ], [ -120.707671, 35.322988 ], [ -120.708844, 35.321992 ] ] ] } }
]
}
