{
"type": "FeatureCollection",
"name": "93581",
"crs": { "type": "name", "properties": { "name": "urn:ogc:def:crs:OGC:1.3:CRS84" } },
"features": [
{ "type": "Feature", "properties": { "Name": "", "Description": "" }, "geometry": { "type": "Polygon", "coordinates": [ [ [ -118.592783, 35.123492 ], [ -118.593072, 35.116238 ], [ -118.583735, 35.116568 ], [ -118.583858, 35.108965 ], [ -118.575128, 35.109015 ], [ -118.575132, 35.098357 ], [ -118.557466, 35.098276 ], [ -118.55745, 35.109131 ], [ -118.553049, 35.109205 ], [ -118.553152, 35.11647 ], [ -118.557294, 35.116468 ], [ -118.557268, 35.123597 ], [ -118.57348, 35.123528 ], [ -118.573399, 35.121981 ], [ -118.574889, 35.121997 ], [ -118.574842, 35.123522 ], [ -118.592783, 35.123492 ] ] ] } }
]
}
