{
"type": "FeatureCollection",
"name": "93740",
"crs": { "type": "name", "properties": { "name": "urn:ogc:def:crs:OGC:1.3:CRS84" } },
"features": [
{ "type": "Feature", "properties": { "Name": "", "Description": "" }, "geometry": { "type": "Polygon", "coordinates": [ [ [ -119.754153, 36.812251 ], [ -119.754165, 36.808588 ], [ -119.745224, 36.808551 ], [ -119.742301, 36.808566 ], [ -119.740768, 36.808549 ], [ -119.740956, 36.815823 ], [ -119.736145, 36.815804 ], [ -119.736006, 36.823068 ], [ -119.754124, 36.823117 ], [ -119.754165, 36.815858 ], [ -119.754153, 36.812251 ] ] ] } }
]
}
