{
"type": "FeatureCollection",
"name": "93741",
"crs": { "type": "name", "properties": { "name": "urn:ogc:def:crs:OGC:1.3:CRS84" } },
"features": [
{ "type": "Feature", "properties": { "Name": "", "Description": "" }, "geometry": { "type": "Polygon", "coordinates": [ [ [ -119.79955, 36.76858 ], [ -119.798974, 36.764993 ], [ -119.797873, 36.765018 ], [ -119.794482, 36.765042 ], [ -119.792237, 36.765055 ], [ -119.791686, 36.765051 ], [ -119.791374, 36.765051 ], [ -119.792535, 36.766578 ], [ -119.796932, 36.772238 ], [ -119.797318, 36.772235 ], [ -119.797301, 36.768625 ], [ -119.79955, 36.76858 ] ] ] } }
]
}
