{
"type": "FeatureCollection",
"name": "93944",
"crs": { "type": "name", "properties": { "name": "urn:ogc:def:crs:OGC:1.3:CRS84" } },
"features": [
{ "type": "Feature", "properties": { "Name": "", "Description": "" }, "geometry": { "type": "Polygon", "coordinates": [ [ [ -121.926762, 36.600835 ], [ -121.927114, 36.600398 ], [ -121.926654, 36.599235 ], [ -121.921215, 36.595828 ], [ -121.921012, 36.594442 ], [ -121.910612, 36.602206 ], [ -121.908873, 36.603307 ], [ -121.912439, 36.60352 ], [ -121.914441, 36.606365 ], [ -121.916639, 36.605304 ], [ -121.917548, 36.605002 ], [ -121.916894, 36.604217 ], [ -121.922139, 36.601537 ], [ -121.922393, 36.60153 ], [ -121.923035, 36.602328 ], [ -121.92345, 36.602578 ], [ -121.92622, 36.601234 ], [ -121.926727, 36.600874 ], [ -121.926762, 36.600835 ] ] ] } }
]
}
