{
"type": "FeatureCollection",
"name": "94018",
"crs": { "type": "name", "properties": { "name": "urn:ogc:def:crs:OGC:1.3:CRS84" } },
"features": [
{ "type": "Feature", "properties": { "Name": "", "Description": "" }, "geometry": { "type": "Polygon", "coordinates": [ [ [ -122.485232, 37.50851 ], [ -122.485698, 37.50809 ], [ -122.483484, 37.506471 ], [ -122.482192, 37.505709 ], [ -122.475886, 37.503055 ], [ -122.467899, 37.499953 ], [ -122.466926, 37.500487 ], [ -122.465739, 37.499908 ], [ -122.462572, 37.500107 ], [ -122.463112, 37.503212 ], [ -122.464617, 37.504515 ], [ -122.465941, 37.505214 ], [ -122.46386, 37.50497 ], [ -122.463631, 37.506804 ], [ -122.466821, 37.509474 ], [ -122.46942, 37.510315 ], [ -122.469989, 37.508283 ], [ -122.471494, 37.508208 ], [ -122.473452, 37.507196 ], [ -122.472373, 37.508594 ], [ -122.474086, 37.508819 ], [ -122.473969, 37.510858 ], [ -122.475334, 37.511542 ], [ -122.476428, 37.511384 ], [ -122.475345, 37.509591 ], [ -122.478395, 37.510506 ], [ -122.48187, 37.512416 ], [ -122.482887, 37.511957 ], [ -122.485232, 37.50851 ] ] ] } }
]
}
