{
"type": "FeatureCollection",
"name": "94188",
"crs": { "type": "name", "properties": { "name": "urn:ogc:def:crs:OGC:1.3:CRS84" } },
"features": [
{ "type": "Feature", "properties": { "Name": "", "Description": "" }, "geometry": { "type": "Polygon", "coordinates": [ [ [ -122.383941, 37.741901 ], [ -122.384748, 37.74085 ], [ -122.38099, 37.73872 ], [ -122.380887, 37.738828 ], [ -122.37911, 37.73768 ], [ -122.376847, 37.740192 ], [ -122.383079, 37.743932 ], [ -122.383941, 37.741901 ] ] ] } }
]
}
