{
"type": "FeatureCollection",
"name": "94562",
"crs": { "type": "name", "properties": { "name": "urn:ogc:def:crs:OGC:1.3:CRS84" } },
"features": [
{ "type": "Feature", "properties": { "Name": "", "Description": "" }, "geometry": { "type": "Polygon", "coordinates": [ [ [ -122.413135, 38.431069 ], [ -122.416502, 38.429271 ], [ -122.412771, 38.424718 ], [ -122.411884, 38.424462 ], [ -122.411308, 38.425473 ], [ -122.402686, 38.432493 ], [ -122.400501, 38.434248 ], [ -122.402729, 38.43672 ], [ -122.41034, 38.432605 ], [ -122.413135, 38.431069 ] ] ] } }
]
}
