{
"type": "FeatureCollection",
"name": "95221",
"crs": { "type": "name", "properties": { "name": "urn:ogc:def:crs:OGC:1.3:CRS84" } },
"features": [
{ "type": "Feature", "properties": { "Name": "", "Description": "" }, "geometry": { "type": "Polygon", "coordinates": [ [ [ -120.556437, 38.07546 ], [ -120.555739, 38.075287 ], [ -120.554261, 38.077275 ], [ -120.552704, 38.076531 ], [ -120.554075, 38.074527 ], [ -120.555582, 38.073989 ], [ -120.553898, 38.073137 ], [ -120.551268, 38.073152 ], [ -120.548597, 38.071064 ], [ -120.547237, 38.067909 ], [ -120.542028, 38.065251 ], [ -120.540958, 38.065282 ], [ -120.539282, 38.066812 ], [ -120.539978, 38.068131 ], [ -120.542242, 38.067534 ], [ -120.547131, 38.071385 ], [ -120.547942, 38.076225 ], [ -120.549883, 38.077074 ], [ -120.554362, 38.079415 ], [ -120.555512, 38.07802 ], [ -120.555022, 38.077102 ], [ -120.556437, 38.07546 ] ] ] } }
]
}
