{
"type": "FeatureCollection",
"name": "95253",
"crs": { "type": "name", "properties": { "name": "urn:ogc:def:crs:OGC:1.3:CRS84" } },
"features": [
{ "type": "Feature", "properties": { "Name": "", "Description": "" }, "geometry": { "type": "Polygon", "coordinates": [ [ [ -121.210828, 38.146019 ], [ -121.21074, 38.137865 ], [ -121.207266, 38.137892 ], [ -121.205985, 38.138098 ], [ -121.192224, 38.138367 ], [ -121.18769, 38.140221 ], [ -121.178369, 38.145421 ], [ -121.178397, 38.146686 ], [ -121.178452, 38.159812 ], [ -121.180992, 38.157851 ], [ -121.182338, 38.155974 ], [ -121.182364, 38.154713 ], [ -121.184477, 38.15413 ], [ -121.185447, 38.151623 ], [ -121.187619, 38.151321 ], [ -121.189537, 38.149526 ], [ -121.188672, 38.148575 ], [ -121.189447, 38.148294 ], [ -121.191916, 38.150291 ], [ -121.19311, 38.148181 ], [ -121.194856, 38.149925 ], [ -121.196774, 38.150914 ], [ -121.196926, 38.151851 ], [ -121.19501, 38.153103 ], [ -121.194637, 38.15626 ], [ -121.197089, 38.156618 ], [ -121.199145, 38.158554 ], [ -121.202235, 38.158726 ], [ -121.20304, 38.159719 ], [ -121.20493, 38.158579 ], [ -121.20619, 38.159514 ], [ -121.206125, 38.146102 ], [ -121.210828, 38.146019 ] ] ] } }
]
}
