{
"type": "FeatureCollection",
"name": "95419",
"crs": { "type": "name", "properties": { "name": "urn:ogc:def:crs:OGC:1.3:CRS84" } },
"features": [
{ "type": "Feature", "properties": { "Name": "", "Description": "" }, "geometry": { "type": "Polygon", "coordinates": [ [ [ -122.961451, 38.424598 ], [ -122.962241, 38.424206 ], [ -122.957646, 38.421361 ], [ -122.954242, 38.422112 ], [ -122.954722, 38.423201 ], [ -122.959295, 38.425295 ], [ -122.959946, 38.424976 ], [ -122.962188, 38.425371 ], [ -122.961451, 38.424598 ] ] ] } }
]
}
