{
"type": "FeatureCollection",
"name": "95480",
"crs": { "type": "name", "properties": { "name": "urn:ogc:def:crs:OGC:1.3:CRS84" } },
"features": [
{ "type": "Feature", "properties": { "Name": "", "Description": "" }, "geometry": { "type": "Polygon", "coordinates": [ [ [ -123.413949, 38.699608 ], [ -123.412672, 38.698879 ], [ -123.41019, 38.699369 ], [ -123.409529, 38.698259 ], [ -123.407526, 38.697055 ], [ -123.404014, 38.697028 ], [ -123.401762, 38.697492 ], [ -123.402087, 38.698661 ], [ -123.399126, 38.698755 ], [ -123.396256, 38.697012 ], [ -123.395404, 38.695147 ], [ -123.395895, 38.693908 ], [ -123.394905, 38.691611 ], [ -123.393136, 38.691024 ], [ -123.389567, 38.68745 ], [ -123.385387, 38.682899 ], [ -123.381171, 38.681901 ], [ -123.377333, 38.680325 ], [ -123.374202, 38.68066 ], [ -123.37479, 38.682041 ], [ -123.37215, 38.682141 ], [ -123.371168, 38.6804 ], [ -123.371926, 38.678563 ], [ -123.367918, 38.677071 ], [ -123.367501, 38.676274 ], [ -123.363721, 38.675321 ], [ -123.36151, 38.675113 ], [ -123.358355, 38.672403 ], [ -123.356341, 38.669939 ], [ -123.355603, 38.669687 ], [ -123.354157, 38.666969 ], [ -123.355667, 38.66397 ], [ -123.35409, 38.660964 ], [ -123.350659, 38.66024 ], [ -123.348614, 38.658445 ], [ -123.345097, 38.657088 ], [ -123.34395, 38.657039 ], [ -123.343391, 38.657112 ], [ -123.34143, 38.656434 ], [ -123.341421, 38.654849 ], [ -123.337801, 38.654714 ], [ -123.337934, 38.654877 ], [ -123.339144, 38.655868 ], [ -123.338195, 38.65842 ], [ -123.335752, 38.660114 ], [ -123.333672, 38.659895 ], [ -123.328793, 38.664154 ], [ -123.325396, 38.661164 ], [ -123.325333, 38.660459 ], [ -123.321711, 38.661448 ], [ -123.325005, 38.662267 ], [ -123.325748, 38.663981 ], [ -123.32853, 38.666848 ], [ -123.329084, 38.669222 ], [ -123.330163, 38.669639 ], [ -123.33305, 38.669067 ], [ -123.335377, 38.669902 ], [ -123.338195, 38.673851 ], [ -123.341805, 38.676037 ], [ -123.344538, 38.676926 ], [ -123.34491, 38.677717 ], [ -123.343222, 38.679635 ], [ -123.343286, 38.681942 ], [ -123.344184, 38.683859 ], [ -123.345376, 38.684348 ], [ -123.34916, 38.683754 ], [ -123.351319, 38.684467 ], [ -123.354594, 38.687965 ], [ -123.357503, 38.68786 ], [ -123.357924, 38.689409 ], [ -123.360378, 38.689633 ], [ -123.360967, 38.690199 ], [ -123.360597, 38.692127 ], [ -123.358214, 38.692562 ], [ -123.357885, 38.693397 ], [ -123.359183, 38.69477 ], [ -123.361741, 38.694928 ], [ -123.363922, 38.696098 ], [ -123.365808, 38.696427 ], [ -123.369481, 38.695914 ], [ -123.371023, 38.696649 ], [ -123.372772, 38.700093 ], [ -123.374743, 38.70174 ], [ -123.377736, 38.700488 ], [ -123.379404, 38.701 ], [ -123.383211, 38.700425 ], [ -123.387248, 38.701048 ], [ -123.390177, 38.703153 ], [ -123.390296, 38.704625 ], [ -123.38918, 38.706278 ], [ -123.389255, 38.709618 ], [ -123.388286, 38.711156 ], [ -123.389358, 38.71225 ], [ -123.391945, 38.711767 ], [ -123.393545, 38.709823 ], [ -123.395172, 38.709066 ], [ -123.39621, 38.709484 ], [ -123.396454, 38.710786 ], [ -123.39787, 38.711808 ], [ -123.401123, 38.711601 ], [ -123.404377, 38.709964 ], [ -123.40714, 38.709251 ], [ -123.406987, 38.706664 ], [ -123.407408, 38.705653 ], [ -123.411061, 38.701889 ], [ -123.413949, 38.699608 ] ] ] } }
]
}
