{
"type": "FeatureCollection",
"name": "95538",
"crs": { "type": "name", "properties": { "name": "urn:ogc:def:crs:OGC:1.3:CRS84" } },
"features": [
{ "type": "Feature", "properties": { "Name": "", "Description": "" }, "geometry": { "type": "Polygon", "coordinates": [ [ [ -124.185613, 41.873152 ], [ -124.186106, 41.865821 ], [ -124.153652, 41.865841 ], [ -124.150449, 41.865705 ], [ -124.152128, 41.862437 ], [ -124.15437, 41.858094 ], [ -124.141946, 41.858061 ], [ -124.14114, 41.861978 ], [ -124.140261, 41.861194 ], [ -124.139141, 41.862022 ], [ -124.133698, 41.869075 ], [ -124.135722, 41.869891 ], [ -124.135789, 41.871307 ], [ -124.129631, 41.867661 ], [ -124.129207, 41.866341 ], [ -124.12652, 41.866263 ], [ -124.124901, 41.869572 ], [ -124.128447, 41.872368 ], [ -124.130975, 41.873986 ], [ -124.133364, 41.876092 ], [ -124.136777, 41.876113 ], [ -124.137359, 41.87852 ], [ -124.138632, 41.873031 ], [ -124.185613, 41.873152 ] ] ] } }
]
}
