{
"type": "FeatureCollection",
"name": "95613",
"crs": { "type": "name", "properties": { "name": "urn:ogc:def:crs:OGC:1.3:CRS84" } },
"features": [
{ "type": "Feature", "properties": { "Name": "", "Description": "" }, "geometry": { "type": "Polygon", "coordinates": [ [ [ -120.904691, 38.815193 ], [ -120.90441, 38.814067 ], [ -120.899965, 38.813777 ], [ -120.898184, 38.812966 ], [ -120.897727, 38.811756 ], [ -120.900793, 38.812656 ], [ -120.902904, 38.811661 ], [ -120.899833, 38.808692 ], [ -120.89747, 38.808249 ], [ -120.896255, 38.80718 ], [ -120.894445, 38.803246 ], [ -120.891575, 38.800783 ], [ -120.890658, 38.801481 ], [ -120.882869, 38.799611 ], [ -120.881903, 38.798764 ], [ -120.880944, 38.79911 ], [ -120.884205, 38.800599 ], [ -120.886304, 38.802205 ], [ -120.888066, 38.80279 ], [ -120.886327, 38.803526 ], [ -120.885686, 38.803016 ], [ -120.882992, 38.803015 ], [ -120.884634, 38.806189 ], [ -120.88419, 38.807652 ], [ -120.881634, 38.811676 ], [ -120.885661, 38.811637 ], [ -120.885653, 38.818699 ], [ -120.885633, 38.82031 ], [ -120.886543, 38.820961 ], [ -120.886606, 38.821829 ], [ -120.887361, 38.821194 ], [ -120.888849, 38.820643 ], [ -120.889226, 38.82102 ], [ -120.888964, 38.822524 ], [ -120.888268, 38.824422 ], [ -120.887242, 38.825892 ], [ -120.894128, 38.82613 ], [ -120.894325, 38.821324 ], [ -120.898212, 38.821101 ], [ -120.899472, 38.820191 ], [ -120.896785, 38.81518 ], [ -120.90233, 38.81611 ], [ -120.904691, 38.815193 ] ] ] } }
]
}
