{
"type": "FeatureCollection",
"name": "95676",
"crs": { "type": "name", "properties": { "name": "urn:ogc:def:crs:OGC:1.3:CRS84" } },
"features": [
{ "type": "Feature", "properties": { "Name": "", "Description": "" }, "geometry": { "type": "Polygon", "coordinates": [ [ [ -121.727624, 38.880215 ], [ -121.727625, 38.865562 ], [ -121.718358, 38.865523 ], [ -121.718373, 38.86186 ], [ -121.710919, 38.861809 ], [ -121.70741, 38.871133 ], [ -121.706644, 38.869787 ], [ -121.703974, 38.869644 ], [ -121.702706, 38.870733 ], [ -121.702718, 38.871823 ], [ -121.705226, 38.871839 ], [ -121.7052, 38.870328 ], [ -121.706771, 38.872908 ], [ -121.704095, 38.87983 ], [ -121.718261, 38.880166 ], [ -121.727624, 38.880215 ] ] ] } }
]
}
