{
"type": "FeatureCollection",
"name": "95671",
"crs": { "type": "name", "properties": { "name": "urn:ogc:def:crs:OGC:1.3:CRS84" } },
"features": [
{ "type": "Feature", "properties": { "Name": "", "Description": "" }, "geometry": { "type": "Polygon", "coordinates": [ [ [ -121.166858, 38.700302 ], [ -121.167458, 38.687203 ], [ -121.16252, 38.681881 ], [ -121.160453, 38.68286 ], [ -121.155615, 38.686163 ], [ -121.148356, 38.689223 ], [ -121.145248, 38.692512 ], [ -121.14286, 38.693685 ], [ -121.144017, 38.696505 ], [ -121.143591, 38.698968 ], [ -121.146439, 38.700903 ], [ -121.147705, 38.703426 ], [ -121.156681, 38.707682 ], [ -121.159557, 38.705002 ], [ -121.164242, 38.704462 ], [ -121.166858, 38.700302 ] ] ] } }
]
}
