{
"type": "FeatureCollection",
"name": "95913",
"crs": { "type": "name", "properties": { "name": "urn:ogc:def:crs:OGC:1.3:CRS84" } },
"features": [
{ "type": "Feature", "properties": { "Name": "", "Description": "" }, "geometry": { "type": "Polygon", "coordinates": [ [ [ -122.2735, 39.615142 ], [ -122.273572, 39.611579 ], [ -122.249836, 39.611549 ], [ -122.198572, 39.61136 ], [ -122.184771, 39.61133 ], [ -122.156402, 39.611226 ], [ -122.116893, 39.611089 ], [ -122.116985, 39.623592 ], [ -122.141441, 39.623788 ], [ -122.140764, 39.652644 ], [ -122.178416, 39.653154 ], [ -122.194114, 39.653262 ], [ -122.197102, 39.653274 ], [ -122.204499, 39.653417 ], [ -122.216015, 39.653509 ], [ -122.215894, 39.638897 ], [ -122.253302, 39.639182 ], [ -122.253444, 39.624741 ], [ -122.271381, 39.624918 ], [ -122.271725, 39.616558 ], [ -122.2735, 39.615142 ] ] ] } }
]
}
