{
"type": "FeatureCollection",
"name": "95958",
"crs": { "type": "name", "properties": { "name": "urn:ogc:def:crs:OGC:1.3:CRS84" } },
"features": [
{ "type": "Feature", "properties": { "Name": "", "Description": "" }, "geometry": { "type": "Polygon", "coordinates": [ [ [ -121.839367, 39.552526 ], [ -121.846327, 39.543943 ], [ -121.80061, 39.543954 ], [ -121.800623, 39.551425 ], [ -121.793753, 39.551406 ], [ -121.772829, 39.55158 ], [ -121.766852, 39.551995 ], [ -121.767638, 39.554129 ], [ -121.766566, 39.554361 ], [ -121.765392, 39.5512 ], [ -121.764692, 39.551352 ], [ -121.76507, 39.552368 ], [ -121.784224, 39.604461 ], [ -121.789871, 39.593957 ], [ -121.793722, 39.589154 ], [ -121.800234, 39.584262 ], [ -121.800036, 39.584078 ], [ -121.800616, 39.558418 ], [ -121.814778, 39.558503 ], [ -121.820421, 39.561939 ], [ -121.826629, 39.56201 ], [ -121.822723, 39.566677 ], [ -121.823817, 39.566403 ], [ -121.832153, 39.559919 ], [ -121.839367, 39.552526 ] ] ] } }
]
}
