{
"type": "FeatureCollection",
"name": "95972",
"crs": { "type": "name", "properties": { "name": "urn:ogc:def:crs:OGC:1.3:CRS84" } },
"features": [
{ "type": "Feature", "properties": { "Name": "", "Description": "" }, "geometry": { "type": "Polygon", "coordinates": [ [ [ -121.360854, 39.407105 ], [ -121.363493, 39.403297 ], [ -121.35844, 39.403841 ], [ -121.35734, 39.40429 ], [ -121.356751, 39.404881 ], [ -121.357295, 39.407561 ], [ -121.356578, 39.409419 ], [ -121.351665, 39.413404 ], [ -121.348395, 39.413668 ], [ -121.347688, 39.415213 ], [ -121.34463, 39.41699 ], [ -121.343894, 39.417936 ], [ -121.341539, 39.417767 ], [ -121.33942, 39.418352 ], [ -121.336576, 39.421143 ], [ -121.335445, 39.421797 ], [ -121.334461, 39.423816 ], [ -121.334834, 39.424875 ], [ -121.33334, 39.426103 ], [ -121.333182, 39.427182 ], [ -121.331118, 39.42845 ], [ -121.329627, 39.428614 ], [ -121.325538, 39.431982 ], [ -121.323069, 39.433091 ], [ -121.320588, 39.435125 ], [ -121.319394, 39.434023 ], [ -121.318558, 39.43568 ], [ -121.315466, 39.439868 ], [ -121.311836, 39.442229 ], [ -121.318747, 39.440271 ], [ -121.321801, 39.438602 ], [ -121.324644, 39.437994 ], [ -121.325947, 39.436899 ], [ -121.326525, 39.436632 ], [ -121.330168, 39.437222 ], [ -121.332415, 39.439859 ], [ -121.334774, 39.440516 ], [ -121.337678, 39.439895 ], [ -121.341028, 39.440298 ], [ -121.34391, 39.442245 ], [ -121.343712, 39.440674 ], [ -121.345338, 39.438923 ], [ -121.343564, 39.437574 ], [ -121.341979, 39.433839 ], [ -121.340616, 39.431605 ], [ -121.338848, 39.430788 ], [ -121.335803, 39.430745 ], [ -121.335021, 39.430059 ], [ -121.334071, 39.425802 ], [ -121.336097, 39.424385 ], [ -121.338306, 39.424241 ], [ -121.341807, 39.422427 ], [ -121.342037, 39.420302 ], [ -121.345069, 39.419585 ], [ -121.348392, 39.417633 ], [ -121.349361, 39.416511 ], [ -121.351862, 39.415339 ], [ -121.352357, 39.413304 ], [ -121.354032, 39.411566 ], [ -121.359054, 39.409095 ], [ -121.360854, 39.407105 ] ] ] } }
]
}
