{
"type": "FeatureCollection",
"name": "96078",
"crs": { "type": "name", "properties": { "name": "urn:ogc:def:crs:OGC:1.3:CRS84" } },
"features": [
{ "type": "Feature", "properties": { "Name": "", "Description": "" }, "geometry": { "type": "Polygon", "coordinates": [ [ [ -122.183094, 40.081785 ], [ -122.182319, 40.08138 ], [ -122.174195, 40.081435 ], [ -122.173556, 40.080484 ], [ -122.170565, 40.080519 ], [ -122.170525, 40.08165 ], [ -122.172033, 40.083973 ], [ -122.176808, 40.083875 ], [ -122.178705, 40.084526 ], [ -122.183094, 40.081785 ] ] ] } }
]
}
