{
"type": "FeatureCollection",
"name": "96820",
"crs": { "type": "name", "properties": { "name": "urn:ogc:def:crs:OGC:1.3:CRS84" } },
"features": [
{ "type": "Feature", "properties": { "Name": "", "Description": "" }, "geometry": { "type": "Polygon", "coordinates": [ [ [ -157.922744, 21.338163 ], [ -157.92316, 21.335318 ], [ -157.921319, 21.334987 ], [ -157.920071, 21.334528 ], [ -157.918812, 21.334334 ], [ -157.918338, 21.337531 ], [ -157.918883, 21.337605 ], [ -157.922744, 21.338163 ] ] ] } }
]
}
