{
"type": "FeatureCollection",
"name": "96848",
"crs": { "type": "name", "properties": { "name": "urn:ogc:def:crs:OGC:1.3:CRS84" } },
"features": [
{ "type": "Feature", "properties": { "Name": "", "Description": "" }, "geometry": { "type": "Polygon", "coordinates": [ [ [ -157.815812, 21.301765 ], [ -157.818034, 21.301473 ], [ -157.814607, 21.301431 ], [ -157.815186, 21.296275 ], [ -157.81354, 21.295987 ], [ -157.813896, 21.298319 ], [ -157.812728, 21.301143 ], [ -157.813959, 21.301846 ], [ -157.813579, 21.302459 ], [ -157.813099, 21.302865 ], [ -157.812018, 21.304451 ], [ -157.812352, 21.304601 ], [ -157.813877, 21.305351 ], [ -157.814953, 21.304881 ], [ -157.815812, 21.301765 ] ] ] } }
]
}
