{
"type": "FeatureCollection",
"name": "97003",
"crs": { "type": "name", "properties": { "name": "urn:ogc:def:crs:OGC:1.3:CRS84" } },
"features": [
{ "type": "Feature", "properties": { "Name": "", "Description": "" }, "geometry": { "type": "Polygon", "coordinates": [ [ [ -122.902123, 45.500301 ], [ -122.902134, 45.499848 ], [ -122.900154, 45.499842 ], [ -122.901466, 45.497556 ], [ -122.891672, 45.496524 ], [ -122.891677, 45.496396 ], [ -122.891677, 45.496362 ], [ -122.891679, 45.496286 ], [ -122.89168, 45.49623 ], [ -122.881149, 45.49516 ], [ -122.878294, 45.494827 ], [ -122.877805, 45.494777 ], [ -122.867177, 45.493628 ], [ -122.860493, 45.492964 ], [ -122.854637, 45.492363 ], [ -122.851967, 45.492095 ], [ -122.841917, 45.491021 ], [ -122.838608, 45.490688 ], [ -122.830704, 45.48985 ], [ -122.828844, 45.489648 ], [ -122.826111, 45.489394 ], [ -122.826111, 45.489557 ], [ -122.826126, 45.492814 ], [ -122.827262, 45.492701 ], [ -122.828385, 45.492833 ], [ -122.830008, 45.493357 ], [ -122.83121, 45.493481 ], [ -122.830187, 45.49552 ], [ -122.826303, 45.494476 ], [ -122.828011, 45.497894 ], [ -122.828451, 45.499364 ], [ -122.828301, 45.500846 ], [ -122.82663, 45.503867 ], [ -122.823189, 45.50956 ], [ -122.822185, 45.510591 ], [ -122.823105, 45.511496 ], [ -122.824646, 45.51256 ], [ -122.83051, 45.514162 ], [ -122.830611, 45.514042 ], [ -122.835512, 45.508641 ], [ -122.836712, 45.507439 ], [ -122.836778, 45.506769 ], [ -122.837013, 45.505739 ], [ -122.837363, 45.502708 ], [ -122.837944, 45.497227 ], [ -122.839631, 45.496032 ], [ -122.839883, 45.494106 ], [ -122.842617, 45.494586 ], [ -122.844864, 45.496295 ], [ -122.847426, 45.497289 ], [ -122.848525, 45.499297 ], [ -122.847779, 45.5003 ], [ -122.844684, 45.499765 ], [ -122.844113, 45.501744 ], [ -122.842236, 45.501917 ], [ -122.840686, 45.504403 ], [ -122.842552, 45.505503 ], [ -122.8406, 45.507532 ], [ -122.846004, 45.509662 ], [ -122.848968, 45.511564 ], [ -122.850561, 45.512391 ], [ -122.851988, 45.512506 ], [ -122.851979, 45.510261 ], [ -122.851979, 45.509973 ], [ -122.85222, 45.509964 ], [ -122.856923, 45.512549 ], [ -122.867293, 45.515475 ], [ -122.867497, 45.515521 ], [ -122.869193, 45.516108 ], [ -122.870047, 45.516271 ], [ -122.872828, 45.516202 ], [ -122.877122, 45.515921 ], [ -122.878387, 45.515533 ], [ -122.879591, 45.515186 ], [ -122.880852, 45.515122 ], [ -122.888008, 45.515159 ], [ -122.893975, 45.515195 ], [ -122.896054, 45.515202 ], [ -122.897631, 45.515214 ], [ -122.897637, 45.515117 ], [ -122.899052, 45.515151 ], [ -122.899073, 45.513922 ], [ -122.901689, 45.513905 ], [ -122.901783, 45.507262 ], [ -122.90205, 45.507261 ], [ -122.902033, 45.506563 ], [ -122.902107, 45.504075 ], [ -122.902106, 45.502971 ], [ -122.902132, 45.500638 ], [ -122.902123, 45.500301 ] ] ] } }
]
}
