{
"type": "FeatureCollection",
"name": "97078",
"crs": { "type": "name", "properties": { "name": "urn:ogc:def:crs:OGC:1.3:CRS84" } },
"features": [
{ "type": "Feature", "properties": { "Name": "", "Description": "" }, "geometry": { "type": "Polygon", "coordinates": [ [ [ -122.933382, 45.467206 ], [ -122.936824, 45.463004 ], [ -122.933349, 45.46314 ], [ -122.933346, 45.456168 ], [ -122.933111, 45.451603 ], [ -122.929131, 45.451719 ], [ -122.926506, 45.453914 ], [ -122.923264, 45.452548 ], [ -122.923004, 45.450365 ], [ -122.921108, 45.448853 ], [ -122.913889, 45.451155 ], [ -122.916743, 45.455566 ], [ -122.918756, 45.455566 ], [ -122.919657, 45.458434 ], [ -122.914783, 45.45847 ], [ -122.901236, 45.458567 ], [ -122.900531, 45.460165 ], [ -122.898541, 45.462291 ], [ -122.892657, 45.466546 ], [ -122.892548, 45.466444 ], [ -122.890889, 45.467565 ], [ -122.884825, 45.469272 ], [ -122.884481, 45.469403 ], [ -122.881615, 45.47011 ], [ -122.874251, 45.471845 ], [ -122.871892, 45.472726 ], [ -122.870233, 45.473787 ], [ -122.870208, 45.476088 ], [ -122.868736, 45.474566 ], [ -122.867518, 45.475301 ], [ -122.860925, 45.478215 ], [ -122.855505, 45.480719 ], [ -122.854674, 45.48096 ], [ -122.851482, 45.481846 ], [ -122.846685, 45.483311 ], [ -122.846209, 45.48341 ], [ -122.841941, 45.48392 ], [ -122.837142, 45.484435 ], [ -122.829863, 45.485393 ], [ -122.828932, 45.48795 ], [ -122.830794, 45.487921 ], [ -122.830704, 45.48985 ], [ -122.838608, 45.490688 ], [ -122.841917, 45.491021 ], [ -122.851967, 45.492095 ], [ -122.854637, 45.492363 ], [ -122.860493, 45.492964 ], [ -122.867177, 45.493628 ], [ -122.877805, 45.494777 ], [ -122.878294, 45.494827 ], [ -122.881149, 45.49516 ], [ -122.89168, 45.49623 ], [ -122.891976, 45.489478 ], [ -122.892641, 45.486036 ], [ -122.892991, 45.484479 ], [ -122.893574, 45.481633 ], [ -122.89375, 45.481627 ], [ -122.89353, 45.482856 ], [ -122.897126, 45.482829 ], [ -122.896945, 45.476549 ], [ -122.908526, 45.476541 ], [ -122.908532, 45.478178 ], [ -122.906743, 45.478036 ], [ -122.906233, 45.48046 ], [ -122.909126, 45.480548 ], [ -122.911248, 45.481456 ], [ -122.908549, 45.482797 ], [ -122.908552, 45.483754 ], [ -122.898313, 45.483744 ], [ -122.893181, 45.484091 ], [ -122.892756, 45.486033 ], [ -122.907713, 45.486201 ], [ -122.907736, 45.48721 ], [ -122.912635, 45.487201 ], [ -122.913357, 45.486304 ], [ -122.913562, 45.480993 ], [ -122.917248, 45.479759 ], [ -122.9196, 45.475673 ], [ -122.924122, 45.473139 ], [ -122.926532, 45.472281 ], [ -122.931203, 45.47247 ], [ -122.93104, 45.471311 ], [ -122.932032, 45.469464 ], [ -122.933382, 45.467206 ] ] ] } }
]
}
