{
"type": "FeatureCollection",
"name": "97310",
"crs": { "type": "name", "properties": { "name": "urn:ogc:def:crs:OGC:1.3:CRS84" } },
"features": [
{ "type": "Feature", "properties": { "Name": "", "Description": "" }, "geometry": { "type": "MultiPolygon", "coordinates": [ [ [ [ -122.95276, 44.89732 ], [ -122.94974, 44.89522 ], [ -122.94777, 44.89658 ], [ -122.94563, 44.89811 ], [ -122.9486, 44.90021 ], [ -122.95276, 44.89732 ] ] ], [ [ [ -122.975603, 44.879519 ], [ -122.97663, 44.874979 ], [ -122.971352, 44.87394 ], [ -122.971301, 44.87491 ], [ -122.970855, 44.874706 ], [ -122.970332, 44.875282 ], [ -122.97063, 44.87539 ], [ -122.97251, 44.87655 ], [ -122.975603, 44.879519 ] ] ], [ [ [ -123.005111, 44.930558 ], [ -123.005695, 44.9304 ], [ -123.00369, 44.92918 ], [ -123.00125, 44.92831 ], [ -122.99859, 44.92791 ], [ -122.99846, 44.93036 ], [ -122.999152, 44.93088 ], [ -123.005111, 44.930558 ] ] ], [ [ [ -123.02906, 44.94001 ], [ -123.029656, 44.938896 ], [ -123.02849, 44.93861 ], [ -123.02795, 44.9397 ], [ -123.02906, 44.94001 ] ] ] ] } }
]
}
