{
"type": "FeatureCollection",
"name": "97336",
"crs": { "type": "name", "properties": { "name": "urn:ogc:def:crs:OGC:1.3:CRS84" } },
"features": [
{ "type": "Feature", "properties": { "Name": "", "Description": "" }, "geometry": { "type": "Polygon", "coordinates": [ [ [ -122.860274, 44.357463 ], [ -122.859258, 44.357056 ], [ -122.859308, 44.354615 ], [ -122.855458, 44.352245 ], [ -122.853094, 44.350583 ], [ -122.848327, 44.349731 ], [ -122.848353, 44.350994 ], [ -122.848514, 44.356447 ], [ -122.846042, 44.356304 ], [ -122.844427, 44.356553 ], [ -122.842445, 44.357149 ], [ -122.842509, 44.357777 ], [ -122.84316, 44.358282 ], [ -122.842451, 44.36073 ], [ -122.843301, 44.362063 ], [ -122.850004, 44.362122 ], [ -122.853595, 44.360457 ], [ -122.855758, 44.358443 ], [ -122.860274, 44.357463 ] ] ] } }
]
}
