{
"type": "FeatureCollection",
"name": "97335",
"crs": { "type": "name", "properties": { "name": "urn:ogc:def:crs:OGC:1.3:CRS84" } },
"features": [
{ "type": "Feature", "properties": { "Name": "", "Description": "" }, "geometry": { "type": "Polygon", "coordinates": [ [ [ -122.901454, 44.634913 ], [ -122.900876, 44.634926 ], [ -122.900827, 44.630718 ], [ -122.894391, 44.630814 ], [ -122.885175, 44.631837 ], [ -122.867689, 44.631888 ], [ -122.866003, 44.632612 ], [ -122.865391, 44.633594 ], [ -122.864244, 44.636751 ], [ -122.86409, 44.637006 ], [ -122.855983, 44.645742 ], [ -122.882567, 44.64304 ], [ -122.885537, 44.642734 ], [ -122.889054, 44.642374 ], [ -122.900912, 44.641157 ], [ -122.89994, 44.638528 ], [ -122.900354, 44.635365 ], [ -122.901454, 44.634913 ] ] ] } }
]
}
