{
"type": "FeatureCollection",
"name": "97432",
"crs": { "type": "name", "properties": { "name": "urn:ogc:def:crs:OGC:1.3:CRS84" } },
"features": [
{ "type": "Feature", "properties": { "Name": "", "Description": "" }, "geometry": { "type": "Polygon", "coordinates": [ [ [ -123.43176, 43.10687 ], [ -123.431796, 43.102201 ], [ -123.430274, 43.100052 ], [ -123.428782, 43.100137 ], [ -123.429746, 43.102571 ], [ -123.429711, 43.104247 ], [ -123.427625, 43.104252 ], [ -123.424405, 43.10676 ], [ -123.425638, 43.106799 ], [ -123.43176, 43.10687 ] ] ] } }
]
}
