{
"type": "FeatureCollection",
"name": "97709",
"crs": { "type": "name", "properties": { "name": "urn:ogc:def:crs:OGC:1.3:CRS84" } },
"features": [
{ "type": "Feature", "properties": { "Name": "", "Description": "" }, "geometry": { "type": "Polygon", "coordinates": [ [ [ -121.976763, 43.830226 ], [ -121.977799, 43.828526 ], [ -121.976611, 43.827615 ], [ -121.975264, 43.827875 ], [ -121.973657, 43.829345 ], [ -121.973495, 43.827147 ], [ -121.974756, 43.821219 ], [ -121.974278, 43.817418 ], [ -121.975565, 43.812541 ], [ -121.97546, 43.811768 ], [ -121.974371, 43.811555 ], [ -121.97073, 43.813036 ], [ -121.967767, 43.812761 ], [ -121.963754, 43.809736 ], [ -121.964537, 43.808235 ], [ -121.962739, 43.807995 ], [ -121.959149, 43.809018 ], [ -121.954878, 43.809056 ], [ -121.951018, 43.807533 ], [ -121.950555, 43.806483 ], [ -121.945102, 43.804601 ], [ -121.94196, 43.804939 ], [ -121.937558, 43.8046 ], [ -121.933942, 43.804818 ], [ -121.931155, 43.804229 ], [ -121.925557, 43.798657 ], [ -121.922623, 43.798228 ], [ -121.919323, 43.796086 ], [ -121.914334, 43.795623 ], [ -121.912788, 43.794714 ], [ -121.909156, 43.795806 ], [ -121.906073, 43.795332 ], [ -121.902726, 43.794096 ], [ -121.898851, 43.794308 ], [ -121.897573, 43.794952 ], [ -121.896052, 43.794399 ], [ -121.893527, 43.795375 ], [ -121.892174, 43.796377 ], [ -121.890767, 43.797003 ], [ -121.886766, 43.797998 ], [ -121.884451, 43.797455 ], [ -121.879795, 43.798804 ], [ -121.878911, 43.799909 ], [ -121.88443, 43.804724 ], [ -121.883454, 43.806128 ], [ -121.879807, 43.804913 ], [ -121.875038, 43.804578 ], [ -121.873703, 43.805186 ], [ -121.868798, 43.804687 ], [ -121.865578, 43.803295 ], [ -121.861289, 43.802917 ], [ -121.858163, 43.804656 ], [ -121.853471, 43.804511 ], [ -121.849123, 43.80627 ], [ -121.825931, 43.816156 ], [ -121.82243, 43.818276 ], [ -121.817742, 43.820386 ], [ -121.812854, 43.821384 ], [ -121.80706, 43.823947 ], [ -121.798323, 43.826317 ], [ -121.793477, 43.826814 ], [ -121.79271, 43.826766 ], [ -121.784357, 43.834328 ], [ -121.781315, 43.838498 ], [ -121.780067, 43.842826 ], [ -121.780003, 43.847337 ], [ -121.782027, 43.854882 ], [ -121.784583, 43.858148 ], [ -121.784855, 43.859807 ], [ -121.784235, 43.86143 ], [ -121.781104, 43.866892 ], [ -121.776668, 43.873822 ], [ -121.775687, 43.875388 ], [ -121.776447, 43.876603 ], [ -121.769248, 43.88783 ], [ -121.769691, 43.893076 ], [ -121.777907, 43.902477 ], [ -121.781603, 43.909201 ], [ -121.783625, 43.918532 ], [ -121.78549, 43.92379 ], [ -121.789003, 43.928731 ], [ -121.787707, 43.932754 ], [ -121.789005, 43.938653 ], [ -121.804545, 43.95489 ], [ -121.805961, 43.95775 ], [ -121.806678, 43.960748 ], [ -121.805551, 43.961637 ], [ -121.807693, 43.963613 ], [ -121.808805, 43.965282 ], [ -121.808915, 43.968752 ], [ -121.809963, 43.972204 ], [ -121.808528, 43.974597 ], [ -121.809989, 43.978552 ], [ -121.809094, 43.981544 ], [ -121.805837, 43.984041 ], [ -121.804372, 43.986193 ], [ -121.803431, 43.98924 ], [ -121.802064, 43.991218 ], [ -121.787485, 44.005455 ], [ -121.786561, 44.006865 ], [ -121.782778, 44.014526 ], [ -121.780163, 44.018262 ], [ -121.768054, 44.032621 ], [ -121.766445, 44.036032 ], [ -121.764976, 44.035848 ], [ -121.763875, 44.036602 ], [ -121.761919, 44.035571 ], [ -121.757359, 44.033911 ], [ -121.754339, 44.031714 ], [ -121.750908, 44.030709 ], [ -121.748552, 44.031039 ], [ -121.744553, 44.032822 ], [ -121.742569, 44.032774 ], [ -121.74092, 44.035584 ], [ -121.740992, 44.037521 ], [ -121.743028, 44.040983 ], [ -121.743296, 44.04601 ], [ -121.742012, 44.047706 ], [ -121.743596, 44.0511 ], [ -121.820056, 44.050905 ], [ -121.821394, 44.047911 ], [ -121.825726, 44.044147 ], [ -121.830059, 44.041365 ], [ -121.832225, 44.041599 ], [ -121.834472, 44.039744 ], [ -121.835193, 44.037024 ], [ -121.832785, 44.035576 ], [ -121.832623, 44.033319 ], [ -121.82955, 44.03106 ], [ -121.828042, 44.029158 ], [ -121.827324, 44.024752 ], [ -121.825487, 44.023129 ], [ -121.825042, 44.021567 ], [ -121.825381, 44.019426 ], [ -121.823599, 44.016406 ], [ -121.822016, 44.012359 ], [ -121.822384, 44.010777 ], [ -121.824299, 44.008066 ], [ -121.824533, 44.004224 ], [ -121.825663, 44.002135 ], [ -121.827099, 43.99759 ], [ -121.829103, 43.995395 ], [ -121.829239, 43.994496 ], [ -121.833384, 43.991094 ], [ -121.831355, 43.990573 ], [ -121.830273, 43.989247 ], [ -121.828402, 43.988727 ], [ -121.832449, 43.987296 ], [ -121.835458, 43.987284 ], [ -121.83679, 43.985983 ], [ -121.835963, 43.984745 ], [ -121.837282, 43.982647 ], [ -121.843135, 43.979073 ], [ -121.845087, 43.976239 ], [ -121.84511, 43.975021 ], [ -121.84356, 43.973445 ], [ -121.841469, 43.972587 ], [ -121.836722, 43.971232 ], [ -121.841387, 43.969574 ], [ -121.84539, 43.967175 ], [ -121.848898, 43.967269 ], [ -121.851462, 43.966335 ], [ -121.853218, 43.966596 ], [ -121.857063, 43.965248 ], [ -121.859711, 43.961526 ], [ -121.85998, 43.958507 ], [ -121.858022, 43.954542 ], [ -121.859435, 43.953806 ], [ -121.859497, 43.952781 ], [ -121.858124, 43.951404 ], [ -121.858174, 43.948783 ], [ -121.859205, 43.947384 ], [ -121.858102, 43.945593 ], [ -121.858364, 43.944787 ], [ -121.860927, 43.943048 ], [ -121.861569, 43.941197 ], [ -121.861353, 43.939036 ], [ -121.862399, 43.937103 ], [ -121.861553, 43.935837 ], [ -121.865338, 43.932315 ], [ -121.864863, 43.930281 ], [ -121.86649, 43.925795 ], [ -121.868366, 43.923898 ], [ -121.869966, 43.923286 ], [ -121.865855, 43.920959 ], [ -121.865553, 43.919789 ], [ -121.866636, 43.917106 ], [ -121.86838, 43.915837 ], [ -121.868029, 43.914504 ], [ -121.869385, 43.911859 ], [ -121.871602, 43.911681 ], [ -121.876903, 43.907841 ], [ -121.884325, 43.907985 ], [ -121.888545, 43.90867 ], [ -121.891442, 43.908658 ], [ -121.892574, 43.9109 ], [ -121.893921, 43.910784 ], [ -121.898393, 43.912269 ], [ -121.899743, 43.914537 ], [ -121.901482, 43.9159 ], [ -121.904318, 43.914863 ], [ -121.905856, 43.913363 ], [ -121.907868, 43.913876 ], [ -121.911588, 43.912326 ], [ -121.913613, 43.912917 ], [ -121.916265, 43.912347 ], [ -121.916801, 43.911488 ], [ -121.920359, 43.911171 ], [ -121.923578, 43.908566 ], [ -121.928213, 43.909181 ], [ -121.929404, 43.907347 ], [ -121.931438, 43.905543 ], [ -121.934322, 43.904908 ], [ -121.936964, 43.903343 ], [ -121.939333, 43.900866 ], [ -121.93656, 43.900588 ], [ -121.931479, 43.898992 ], [ -121.931269, 43.897504 ], [ -121.932415, 43.894213 ], [ -121.937524, 43.890663 ], [ -121.94233, 43.886262 ], [ -121.943782, 43.884603 ], [ -121.94521, 43.882058 ], [ -121.947402, 43.881049 ], [ -121.952256, 43.878063 ], [ -121.952638, 43.876552 ], [ -121.951391, 43.875554 ], [ -121.95134, 43.873938 ], [ -121.95296, 43.871681 ], [ -121.956466, 43.870083 ], [ -121.9575, 43.868549 ], [ -121.959462, 43.868195 ], [ -121.961483, 43.866226 ], [ -121.962046, 43.865003 ], [ -121.965431, 43.865763 ], [ -121.968548, 43.864554 ], [ -121.972931, 43.861156 ], [ -121.972875, 43.859351 ], [ -121.975113, 43.85757 ], [ -121.975358, 43.855444 ], [ -121.97542, 43.851773 ], [ -121.974896, 43.851243 ], [ -121.976173, 43.848478 ], [ -121.976081, 43.846044 ], [ -121.974401, 43.843043 ], [ -121.9744, 43.84128 ], [ -121.975192, 43.83999 ], [ -121.974803, 43.838518 ], [ -121.975226, 43.83585 ], [ -121.976052, 43.834914 ], [ -121.976763, 43.830226 ] ] ] } }
]
}
