{
"type": "FeatureCollection",
"name": "97902",
"crs": { "type": "name", "properties": { "name": "urn:ogc:def:crs:OGC:1.3:CRS84" } },
"features": [
{ "type": "Feature", "properties": { "Name": "", "Description": "" }, "geometry": { "type": "Polygon", "coordinates": [ [ [ -117.54684, 42.922112 ], [ -117.547987, 42.920074 ], [ -117.544348, 42.914804 ], [ -117.539124, 42.915125 ], [ -117.539251, 42.911628 ], [ -117.535673, 42.907375 ], [ -117.536379, 42.905796 ], [ -117.534553, 42.905204 ], [ -117.532537, 42.901607 ], [ -117.529909, 42.900758 ], [ -117.525543, 42.896942 ], [ -117.521661, 42.897098 ], [ -117.522719, 42.894374 ], [ -117.520364, 42.893137 ], [ -117.519486, 42.891692 ], [ -117.516964, 42.890431 ], [ -117.513433, 42.889548 ], [ -117.51072, 42.889786 ], [ -117.508264, 42.889291 ], [ -117.505076, 42.889863 ], [ -117.502054, 42.889399 ], [ -117.500506, 42.888314 ], [ -117.495948, 42.887461 ], [ -117.49058, 42.887516 ], [ -117.486807, 42.888203 ], [ -117.485262, 42.889231 ], [ -117.481845, 42.889175 ], [ -117.480461, 42.889928 ], [ -117.479797, 42.888223 ], [ -117.477939, 42.889554 ], [ -117.47192, 42.890039 ], [ -117.469261, 42.889866 ], [ -117.460222, 42.888388 ], [ -117.458604, 42.887484 ], [ -117.45611, 42.884491 ], [ -117.45223, 42.88257 ], [ -117.449918, 42.882242 ], [ -117.449844, 42.915046 ], [ -117.452664, 42.91505 ], [ -117.450771, 42.917576 ], [ -117.450898, 42.918943 ], [ -117.453954, 42.921605 ], [ -117.454559, 42.923285 ], [ -117.456083, 42.924042 ], [ -117.455755, 42.925453 ], [ -117.457077, 42.925914 ], [ -117.457788, 42.927929 ], [ -117.46168, 42.928235 ], [ -117.466768, 42.930595 ], [ -117.469271, 42.930473 ], [ -117.473589, 42.931537 ], [ -117.478834, 42.931771 ], [ -117.480538, 42.933242 ], [ -117.48107, 42.935223 ], [ -117.484088, 42.934717 ], [ -117.486472, 42.936314 ], [ -117.487959, 42.936472 ], [ -117.488969, 42.93813 ], [ -117.494558, 42.93867 ], [ -117.496488, 42.940421 ], [ -117.496684, 42.942973 ], [ -117.498396, 42.94317 ], [ -117.498403, 42.944118 ], [ -117.506649, 42.944193 ], [ -117.507262, 42.944094 ], [ -117.50936, 42.944324 ], [ -117.509329, 42.945502 ], [ -117.51087, 42.944239 ], [ -117.513246, 42.944421 ], [ -117.514293, 42.943291 ], [ -117.51936, 42.94247 ], [ -117.520033, 42.941191 ], [ -117.521281, 42.941328 ], [ -117.523156, 42.942136 ], [ -117.527218, 42.941735 ], [ -117.528812, 42.938994 ], [ -117.530952, 42.93764 ], [ -117.530556, 42.936457 ], [ -117.53218, 42.934438 ], [ -117.530065, 42.93285 ], [ -117.528424, 42.927887 ], [ -117.527725, 42.922657 ], [ -117.529123, 42.922353 ], [ -117.529199, 42.918473 ], [ -117.534506, 42.922076 ], [ -117.54684, 42.922112 ] ] ] } }
]
}
