{
"type": "FeatureCollection",
"name": "97917",
"crs": { "type": "name", "properties": { "name": "urn:ogc:def:crs:OGC:1.3:CRS84" } },
"features": [
{ "type": "Feature", "properties": { "Name": "", "Description": "" }, "geometry": { "type": "Polygon", "coordinates": [ [ [ -118.232229, 43.659387 ], [ -118.232326, 43.631916 ], [ -118.230987, 43.630828 ], [ -118.229332, 43.630679 ], [ -118.228877, 43.628765 ], [ -118.226423, 43.629216 ], [ -118.227714, 43.62803 ], [ -118.22723, 43.627152 ], [ -118.224842, 43.625688 ], [ -118.225122, 43.622693 ], [ -118.224328, 43.62086 ], [ -118.221644, 43.617348 ], [ -118.224469, 43.616842 ], [ -118.221506, 43.614478 ], [ -118.218362, 43.611257 ], [ -118.217274, 43.610807 ], [ -118.217205, 43.608283 ], [ -118.216372, 43.605709 ], [ -118.217398, 43.603722 ], [ -118.215993, 43.602372 ], [ -118.218682, 43.602767 ], [ -118.219558, 43.602003 ], [ -118.215297, 43.598767 ], [ -118.212593, 43.598339 ], [ -118.209609, 43.596496 ], [ -118.205817, 43.59474 ], [ -118.208354, 43.593302 ], [ -118.208671, 43.592303 ], [ -118.206541, 43.590959 ], [ -118.205868, 43.586842 ], [ -118.20777, 43.586227 ], [ -118.208042, 43.585108 ], [ -118.20931, 43.585239 ], [ -118.211938, 43.587889 ], [ -118.213667, 43.588619 ], [ -118.215132, 43.588224 ], [ -118.218334, 43.588728 ], [ -118.223943, 43.586695 ], [ -118.225219, 43.587095 ], [ -118.230277, 43.585798 ], [ -118.232028, 43.584393 ], [ -118.232171, 43.436775 ], [ -118.175354, 43.436389 ], [ -118.172575, 43.434939 ], [ -118.166876, 43.434635 ], [ -118.162465, 43.433615 ], [ -118.156018, 43.433593 ], [ -118.153462, 43.434725 ], [ -118.148041, 43.436207 ], [ -118.140098, 43.436165 ], [ -118.138455, 43.433767 ], [ -118.136603, 43.43309 ], [ -118.135324, 43.43165 ], [ -118.132067, 43.426921 ], [ -118.129363, 43.42558 ], [ -118.12822, 43.425506 ], [ -118.125808, 43.424141 ], [ -118.123794, 43.423822 ], [ -118.118333, 43.419038 ], [ -118.116835, 43.418191 ], [ -118.116677, 43.416732 ], [ -118.118571, 43.41458 ], [ -118.117299, 43.413675 ], [ -118.115104, 43.413466 ], [ -118.107607, 43.41199 ], [ -118.105101, 43.412289 ], [ -118.104303, 43.413805 ], [ -118.099529, 43.416453 ], [ -118.098478, 43.416622 ], [ -118.095018, 43.41938 ], [ -118.092195, 43.420637 ], [ -118.086053, 43.421399 ], [ -118.083495, 43.422416 ], [ -118.081905, 43.422474 ], [ -118.077109, 43.424549 ], [ -118.073459, 43.425274 ], [ -118.070698, 43.42637 ], [ -118.06766, 43.424777 ], [ -118.065045, 43.423902 ], [ -118.060789, 43.421246 ], [ -118.055631, 43.418639 ], [ -118.054534, 43.416743 ], [ -118.051669, 43.414696 ], [ -118.04878, 43.411493 ], [ -118.045338, 43.413468 ], [ -118.04772, 43.419313 ], [ -118.047953, 43.421745 ], [ -118.046271, 43.424245 ], [ -118.045227, 43.428504 ], [ -118.044803, 43.432062 ], [ -118.04221, 43.435534 ], [ -118.040373, 43.435451 ], [ -117.97535, 43.435035 ], [ -117.978342, 43.437795 ], [ -117.981699, 43.438833 ], [ -117.982719, 43.441879 ], [ -117.982908, 43.44412 ], [ -117.981025, 43.446474 ], [ -117.980335, 43.448659 ], [ -117.981102, 43.451197 ], [ -117.979202, 43.451352 ], [ -117.977851, 43.452646 ], [ -117.978488, 43.455737 ], [ -117.979358, 43.457212 ], [ -117.979189, 43.458533 ], [ -117.982644, 43.464773 ], [ -117.983007, 43.46721 ], [ -117.984848, 43.47017 ], [ -117.987505, 43.472735 ], [ -117.988938, 43.476433 ], [ -117.991186, 43.478723 ], [ -117.993857, 43.480847 ], [ -117.993799, 43.501692 ], [ -117.994343, 43.503011 ], [ -117.992908, 43.50439 ], [ -117.99381, 43.505682 ], [ -117.993801, 43.512417 ], [ -117.99265, 43.513421 ], [ -117.993824, 43.515532 ], [ -117.993856, 43.54144 ], [ -117.983902, 43.541451 ], [ -117.980887, 43.543635 ], [ -117.977454, 43.543496 ], [ -117.975708, 43.543913 ], [ -117.974679, 43.544719 ], [ -117.972492, 43.548338 ], [ -117.970126, 43.548999 ], [ -117.969365, 43.5511 ], [ -117.969535, 43.552675 ], [ -117.971192, 43.555641 ], [ -117.972409, 43.556485 ], [ -117.983524, 43.556344 ], [ -117.987555, 43.558878 ], [ -117.993708, 43.561095 ], [ -117.994147, 43.563196 ], [ -117.99529, 43.565572 ], [ -117.996621, 43.566429 ], [ -117.998259, 43.568601 ], [ -117.998895, 43.570392 ], [ -118.001425, 43.57338 ], [ -118.001586, 43.574735 ], [ -118.006524, 43.580401 ], [ -118.007609, 43.581245 ], [ -118.011722, 43.580176 ], [ -118.012772, 43.579341 ], [ -118.012855, 43.575828 ], [ -118.01441, 43.58041 ], [ -118.016781, 43.582702 ], [ -118.027326, 43.58427 ], [ -118.028641, 43.585318 ], [ -118.033058, 43.586188 ], [ -118.036201, 43.585307 ], [ -118.041672, 43.583053 ], [ -118.043381, 43.581766 ], [ -118.043174, 43.585082 ], [ -118.043414, 43.589118 ], [ -118.043133, 43.591382 ], [ -118.041709, 43.593718 ], [ -118.04158, 43.596508 ], [ -118.044908, 43.601832 ], [ -118.04929, 43.606393 ], [ -118.051352, 43.607304 ], [ -118.054085, 43.609561 ], [ -118.055154, 43.613847 ], [ -118.056594, 43.615734 ], [ -118.061349, 43.619857 ], [ -118.063027, 43.623469 ], [ -118.066309, 43.62523 ], [ -118.071363, 43.625104 ], [ -118.075274, 43.624313 ], [ -118.080314, 43.624367 ], [ -118.083623, 43.623434 ], [ -118.084527, 43.622436 ], [ -118.089045, 43.625563 ], [ -118.086715, 43.628358 ], [ -118.081957, 43.629001 ], [ -118.079173, 43.633169 ], [ -118.079025, 43.634648 ], [ -118.081044, 43.636503 ], [ -118.085469, 43.637975 ], [ -118.086214, 43.639096 ], [ -118.083664, 43.641682 ], [ -118.079455, 43.643177 ], [ -118.076422, 43.643182 ], [ -118.075415, 43.643833 ], [ -118.075898, 43.645333 ], [ -118.079842, 43.647273 ], [ -118.081787, 43.647434 ], [ -118.082811, 43.648628 ], [ -118.082744, 43.652995 ], [ -118.085043, 43.656719 ], [ -118.085169, 43.658194 ], [ -118.084833, 43.65881 ], [ -118.078611, 43.660453 ], [ -118.075378, 43.662753 ], [ -118.07092, 43.66227 ], [ -118.069447, 43.663066 ], [ -118.068833, 43.664587 ], [ -118.070327, 43.667617 ], [ -118.070391, 43.670253 ], [ -118.069202, 43.67251 ], [ -118.071974, 43.677803 ], [ -118.071619, 43.68022 ], [ -118.07203, 43.683781 ], [ -118.074139, 43.68513 ], [ -118.077293, 43.683876 ], [ -118.082386, 43.682819 ], [ -118.08373, 43.683059 ], [ -118.085543, 43.685223 ], [ -118.086971, 43.688181 ], [ -118.086445, 43.688809 ], [ -118.087378, 43.691099 ], [ -118.090451, 43.694397 ], [ -118.091186, 43.696897 ], [ -118.089937, 43.699166 ], [ -118.0875, 43.702219 ], [ -118.090239, 43.705471 ], [ -118.090024, 43.70731 ], [ -118.092019, 43.708205 ], [ -118.092618, 43.707466 ], [ -118.095315, 43.70995 ], [ -118.101188, 43.709291 ], [ -118.101931, 43.71179 ], [ -118.106087, 43.714236 ], [ -118.108329, 43.718692 ], [ -118.109638, 43.720135 ], [ -118.110151, 43.723001 ], [ -118.111412, 43.725546 ], [ -118.111249, 43.727781 ], [ -118.114662, 43.724863 ], [ -118.118286, 43.72393 ], [ -118.119074, 43.722997 ], [ -118.119117, 43.718668 ], [ -118.120075, 43.716562 ], [ -118.125427, 43.709441 ], [ -118.12754, 43.709039 ], [ -118.131013, 43.709195 ], [ -118.132648, 43.707747 ], [ -118.131911, 43.702343 ], [ -118.133593, 43.700596 ], [ -118.137662, 43.698338 ], [ -118.1368, 43.69203 ], [ -118.138691, 43.692036 ], [ -118.14004, 43.689633 ], [ -118.138929, 43.687492 ], [ -118.139158, 43.683403 ], [ -118.138428, 43.681147 ], [ -118.139163, 43.67954 ], [ -118.141706, 43.676544 ], [ -118.146457, 43.673665 ], [ -118.150187, 43.670241 ], [ -118.153114, 43.668969 ], [ -118.153531, 43.667761 ], [ -118.153056, 43.665001 ], [ -118.15593, 43.662444 ], [ -118.15575, 43.660935 ], [ -118.154337, 43.658476 ], [ -118.154173, 43.654886 ], [ -118.153525, 43.650868 ], [ -118.152347, 43.649414 ], [ -118.155295, 43.649206 ], [ -118.160949, 43.648137 ], [ -118.165008, 43.647864 ], [ -118.166384, 43.649181 ], [ -118.169052, 43.649132 ], [ -118.170609, 43.64798 ], [ -118.172347, 43.648227 ], [ -118.17627, 43.65 ], [ -118.179013, 43.64994 ], [ -118.180057, 43.648755 ], [ -118.18245, 43.647715 ], [ -118.18342, 43.642916 ], [ -118.186581, 43.642542 ], [ -118.190578, 43.639787 ], [ -118.192859, 43.640266 ], [ -118.195399, 43.639348 ], [ -118.200343, 43.641571 ], [ -118.2032, 43.64449 ], [ -118.206133, 43.645439 ], [ -118.207804, 43.647941 ], [ -118.211674, 43.649697 ], [ -118.215563, 43.652306 ], [ -118.216552, 43.655535 ], [ -118.212032, 43.656786 ], [ -118.213212, 43.659248 ], [ -118.215466, 43.661358 ], [ -118.217036, 43.661981 ], [ -118.217267, 43.663216 ], [ -118.219042, 43.66452 ], [ -118.223691, 43.663085 ], [ -118.227354, 43.662425 ], [ -118.227728, 43.660838 ], [ -118.22989, 43.660617 ], [ -118.232229, 43.659387 ] ] ] } }
]
}
