{
"type": "FeatureCollection",
"name": "98025",
"crs": { "type": "name", "properties": { "name": "urn:ogc:def:crs:OGC:1.3:CRS84" } },
"features": [
{ "type": "Feature", "properties": { "Name": "", "Description": "" }, "geometry": { "type": "Polygon", "coordinates": [ [ [ -121.972735, 47.429138 ], [ -121.973064, 47.426893 ], [ -121.97175, 47.427698 ], [ -121.969827, 47.426447 ], [ -121.968194, 47.424083 ], [ -121.958931, 47.422556 ], [ -121.957186, 47.422706 ], [ -121.951975, 47.426374 ], [ -121.949254, 47.426846 ], [ -121.94195, 47.425389 ], [ -121.937963, 47.423592 ], [ -121.934482, 47.422735 ], [ -121.931319, 47.422374 ], [ -121.928918, 47.423132 ], [ -121.930055, 47.42533 ], [ -121.931649, 47.426559 ], [ -121.935208, 47.428377 ], [ -121.932631, 47.428853 ], [ -121.933098, 47.430349 ], [ -121.937178, 47.433908 ], [ -121.936612, 47.437245 ], [ -121.937701, 47.439666 ], [ -121.940837, 47.442732 ], [ -121.940776, 47.444448 ], [ -121.943135, 47.446173 ], [ -121.944186, 47.447775 ], [ -121.945527, 47.445679 ], [ -121.94553, 47.444506 ], [ -121.947909, 47.443813 ], [ -121.951265, 47.443708 ], [ -121.951049, 47.45465 ], [ -121.951609, 47.453766 ], [ -121.960215, 47.44745 ], [ -121.961804, 47.443355 ], [ -121.963064, 47.440059 ], [ -121.964512, 47.438261 ], [ -121.966264, 47.436854 ], [ -121.968826, 47.435907 ], [ -121.970917, 47.435635 ], [ -121.972797, 47.43569 ], [ -121.972815, 47.434134 ], [ -121.972735, 47.429138 ] ] ] } }
]
}
