{
"type": "FeatureCollection",
"name": "98505",
"crs": { "type": "name", "properties": { "name": "urn:ogc:def:crs:OGC:1.3:CRS84" } },
"features": [
{ "type": "Feature", "properties": { "Name": "", "Description": "" }, "geometry": { "type": "Polygon", "coordinates": [ [ [ -122.981771, 47.076125 ], [ -122.980949, 47.07256 ], [ -122.979116, 47.072233 ], [ -122.978296, 47.071011 ], [ -122.97853, 47.068818 ], [ -122.976203, 47.068885 ], [ -122.974815, 47.069654 ], [ -122.974321, 47.069274 ], [ -122.972485, 47.069972 ], [ -122.970753, 47.070043 ], [ -122.970394, 47.071059 ], [ -122.967146, 47.071766 ], [ -122.965189, 47.07299 ], [ -122.964264, 47.075634 ], [ -122.96874, 47.075634 ], [ -122.969255, 47.075709 ], [ -122.97056, 47.076108 ], [ -122.981771, 47.076125 ] ] ] } }
]
}
