{
"type": "FeatureCollection",
"name": "98539",
"crs": { "type": "name", "properties": { "name": "urn:ogc:def:crs:OGC:1.3:CRS84" } },
"features": [
{ "type": "Feature", "properties": { "Name": "", "Description": "" }, "geometry": { "type": "Polygon", "coordinates": [ [ [ -123.286013, 46.63625 ], [ -123.28279, 46.634845 ], [ -123.279021, 46.635388 ], [ -123.278343, 46.634548 ], [ -123.258371, 46.63433 ], [ -123.252496, 46.631648 ], [ -123.249988, 46.630541 ], [ -123.250032, 46.630881 ], [ -123.251249, 46.63116 ], [ -123.252532, 46.632107 ], [ -123.257156, 46.634025 ], [ -123.263023, 46.637293 ], [ -123.264072, 46.637681 ], [ -123.266657, 46.6397 ], [ -123.270896, 46.642759 ], [ -123.272477, 46.642602 ], [ -123.273777, 46.641969 ], [ -123.276736, 46.641701 ], [ -123.281071, 46.641987 ], [ -123.286013, 46.63625 ] ] ] } }
]
}
