{
"type": "FeatureCollection",
"name": "98556",
"crs": { "type": "name", "properties": { "name": "urn:ogc:def:crs:OGC:1.3:CRS84" } },
"features": [
{ "type": "Feature", "properties": { "Name": "", "Description": "" }, "geometry": { "type": "Polygon", "coordinates": [ [ [ -123.146547, 46.883422 ], [ -123.143341, 46.882499 ], [ -123.142721, 46.882322 ], [ -123.141573, 46.883143 ], [ -123.140918, 46.882878 ], [ -123.139705, 46.883688 ], [ -123.140292, 46.884096 ], [ -123.139883, 46.884375 ], [ -123.137835, 46.885314 ], [ -123.136498, 46.885767 ], [ -123.134497, 46.886814 ], [ -123.137599, 46.888216 ], [ -123.141582, 46.888553 ], [ -123.146547, 46.883422 ] ] ] } }
]
}
