{
"type": "FeatureCollection",
"name": "98566",
"crs": { "type": "name", "properties": { "name": "urn:ogc:def:crs:OGC:1.3:CRS84" } },
"features": [
{ "type": "Feature", "properties": { "Name": "", "Description": "" }, "geometry": { "type": "Polygon", "coordinates": [ [ [ -124.06161, 47.37556 ], [ -124.061959, 47.373597 ], [ -124.060086, 47.37267 ], [ -124.059837, 47.371859 ], [ -124.058681, 47.36973 ], [ -124.056615, 47.37013 ], [ -124.055258, 47.37205 ], [ -124.049348, 47.374106 ], [ -124.044544, 47.373475 ], [ -124.042065, 47.373579 ], [ -124.041306, 47.372509 ], [ -124.036453, 47.374 ], [ -124.035266, 47.373391 ], [ -124.028387, 47.374157 ], [ -124.026189, 47.373382 ], [ -124.025004, 47.37039 ], [ -124.018849, 47.368582 ], [ -124.016496, 47.367393 ], [ -124.012662, 47.366317 ], [ -124.008524, 47.367024 ], [ -123.996877, 47.363297 ], [ -123.993715, 47.362476 ], [ -123.988333, 47.362684 ], [ -123.985609, 47.362411 ], [ -123.981952, 47.362741 ], [ -123.979704, 47.364544 ], [ -123.971494, 47.368526 ], [ -123.967306, 47.369203 ], [ -123.955969, 47.369248 ], [ -123.930233, 47.367942 ], [ -123.928255, 47.368227 ], [ -123.913993, 47.371789 ], [ -123.913966, 47.373755 ], [ -123.905931, 47.373738 ], [ -123.905483, 47.374227 ], [ -123.904382, 47.375324 ], [ -123.903572, 47.375745 ], [ -123.898778, 47.377835 ], [ -123.897397, 47.379546 ], [ -123.896871, 47.37722 ], [ -123.892796, 47.378576 ], [ -123.892759, 47.380771 ], [ -123.882501, 47.380725 ], [ -123.882351, 47.395342 ], [ -123.871311, 47.395365 ], [ -123.871424, 47.419474 ], [ -123.875659, 47.421485 ], [ -123.880827, 47.421461 ], [ -123.882362, 47.422164 ], [ -123.882317, 47.417285 ], [ -123.891157, 47.417342 ], [ -123.894131, 47.419635 ], [ -123.898786, 47.419938 ], [ -123.899699, 47.419455 ], [ -123.900499, 47.419576 ], [ -123.903763, 47.421629 ], [ -123.90592, 47.422672 ], [ -123.91358, 47.426469 ], [ -123.914327, 47.427866 ], [ -123.915543, 47.429102 ], [ -123.916758, 47.432565 ], [ -123.919841, 47.43371 ], [ -123.921837, 47.437215 ], [ -123.923341, 47.436837 ], [ -123.924198, 47.436541 ], [ -123.924263, 47.434989 ], [ -123.925338, 47.434111 ], [ -123.927424, 47.433047 ], [ -123.930268, 47.432578 ], [ -123.934291, 47.432554 ], [ -123.936081, 47.433075 ], [ -123.938813, 47.434424 ], [ -123.941069, 47.434715 ], [ -123.942338, 47.434567 ], [ -123.944642, 47.43387 ], [ -123.946994, 47.432499 ], [ -123.948974, 47.430908 ], [ -123.950476, 47.42726 ], [ -123.949635, 47.424216 ], [ -123.951598, 47.42194 ], [ -123.953667, 47.421139 ], [ -123.957134, 47.421352 ], [ -123.959525, 47.420309 ], [ -123.960688, 47.418543 ], [ -123.955953, 47.420008 ], [ -123.954401, 47.419263 ], [ -123.952188, 47.420508 ], [ -123.948139, 47.419324 ], [ -123.947839, 47.417399 ], [ -123.948615, 47.418627 ], [ -123.951161, 47.419757 ], [ -123.950425, 47.417585 ], [ -123.952308, 47.41895 ], [ -123.95563, 47.419301 ], [ -123.959436, 47.418313 ], [ -123.965214, 47.418048 ], [ -123.96755, 47.418914 ], [ -123.970217, 47.420938 ], [ -123.97189, 47.420542 ], [ -123.974693, 47.418265 ], [ -123.977109, 47.418111 ], [ -123.981159, 47.419782 ], [ -123.982615, 47.421646 ], [ -123.986786, 47.422226 ], [ -123.98884, 47.423519 ], [ -123.991478, 47.427242 ], [ -123.994429, 47.427417 ], [ -123.998076, 47.426446 ], [ -123.998897, 47.42623 ], [ -124.003066, 47.422572 ], [ -124.004855, 47.419918 ], [ -124.00474, 47.420927 ], [ -124.007458, 47.418427 ], [ -124.010159, 47.417228 ], [ -124.013181, 47.417448 ], [ -124.015524, 47.417137 ], [ -124.01757, 47.415009 ], [ -124.016796, 47.413418 ], [ -124.01758, 47.413013 ], [ -124.01791, 47.414922 ], [ -124.020804, 47.413667 ], [ -124.022923, 47.41115 ], [ -124.026123, 47.410838 ], [ -124.029154, 47.409155 ], [ -124.031934, 47.407088 ], [ -124.033115, 47.405306 ], [ -124.034804, 47.403771 ], [ -124.034296, 47.402602 ], [ -124.034418, 47.400469 ], [ -124.0334, 47.400512 ], [ -124.031688, 47.400254 ], [ -124.02978, 47.401926 ], [ -124.027655, 47.402568 ], [ -124.030217, 47.401334 ], [ -124.030686, 47.400385 ], [ -124.032197, 47.399991 ], [ -124.033634, 47.400496 ], [ -124.037691, 47.397875 ], [ -124.042546, 47.397245 ], [ -124.043128, 47.395918 ], [ -124.042531, 47.394569 ], [ -124.040827, 47.393641 ], [ -124.040399, 47.392259 ], [ -124.041321, 47.390093 ], [ -124.043009, 47.389314 ], [ -124.047516, 47.389551 ], [ -124.050125, 47.38869 ], [ -124.053396, 47.388954 ], [ -124.05401, 47.387308 ], [ -124.053307, 47.385909 ], [ -124.053671, 47.383951 ], [ -124.054729, 47.381774 ], [ -124.05758, 47.377913 ], [ -124.060156, 47.376081 ], [ -124.06161, 47.37556 ] ] ] } }
]
}
