{
"type": "FeatureCollection",
"name": "98609",
"crs": { "type": "name", "properties": { "name": "urn:ogc:def:crs:OGC:1.3:CRS84" } },
"features": [
{ "type": "Feature", "properties": { "Name": "", "Description": "" }, "geometry": { "type": "Polygon", "coordinates": [ [ [ -122.868027, 46.069704 ], [ -122.867471, 46.065249 ], [ -122.866835, 46.065277 ], [ -122.867173, 46.069194 ], [ -122.866493, 46.070489 ], [ -122.861871, 46.071562 ], [ -122.863622, 46.074217 ], [ -122.866203, 46.07427 ], [ -122.866438, 46.076916 ], [ -122.868027, 46.069704 ] ] ] } }
]
}
