{
"type": "FeatureCollection",
"name": "98623",
"crs": { "type": "name", "properties": { "name": "urn:ogc:def:crs:OGC:1.3:CRS84" } },
"features": [
{ "type": "Feature", "properties": { "Name": "", "Description": "" }, "geometry": { "type": "Polygon", "coordinates": [ [ [ -121.503106, 45.79654 ], [ -121.499966, 45.796885 ], [ -121.496603, 45.795567 ], [ -121.492316, 45.795784 ], [ -121.489577, 45.79467 ], [ -121.485311, 45.797159 ], [ -121.485185, 45.797167 ], [ -121.485158, 45.797401 ], [ -121.486774, 45.800697 ], [ -121.489315, 45.804032 ], [ -121.496614, 45.804379 ], [ -121.500342, 45.802073 ], [ -121.4998, 45.800321 ], [ -121.503106, 45.79654 ] ] ] } }
]
}
