{
"type": "FeatureCollection",
"name": "99014",
"crs": { "type": "name", "properties": { "name": "urn:ogc:def:crs:OGC:1.3:CRS84" } },
"features": [
{ "type": "Feature", "properties": { "Name": "", "Description": "" }, "geometry": { "type": "Polygon", "coordinates": [ [ [ -117.601486, 47.561859 ], [ -117.599147, 47.559289 ], [ -117.596609, 47.55943 ], [ -117.596524, 47.558315 ], [ -117.595276, 47.556346 ], [ -117.594321, 47.556355 ], [ -117.594346, 47.56139 ], [ -117.593624, 47.565466 ], [ -117.596655, 47.563839 ], [ -117.598125, 47.563198 ], [ -117.601486, 47.561859 ] ] ] } }
]
}
