{
"type": "FeatureCollection",
"name": "99258",
"crs": { "type": "name", "properties": { "name": "urn:ogc:def:crs:OGC:1.3:CRS84" } },
"features": [
{ "type": "Feature", "properties": { "Name": "", "Description": "" }, "geometry": { "type": "Polygon", "coordinates": [ [ [ -117.409538, 47.666387 ], [ -117.407675, 47.664915 ], [ -117.406466, 47.665772 ], [ -117.403852, 47.664833 ], [ -117.400384, 47.661837 ], [ -117.397881, 47.661842 ], [ -117.397941, 47.667091 ], [ -117.3998, 47.667457 ], [ -117.399788, 47.669524 ], [ -117.403036, 47.669521 ], [ -117.40709, 47.668421 ], [ -117.409538, 47.666387 ] ] ] } }
]
}
