{
"type": "FeatureCollection",
"name": "99251",
"crs": { "type": "name", "properties": { "name": "urn:ogc:def:crs:OGC:1.3:CRS84" } },
"features": [
{ "type": "Feature", "properties": { "Name": "", "Description": "" }, "geometry": { "type": "Polygon", "coordinates": [ [ [ -117.424814, 47.756546 ], [ -117.424906, 47.755538 ], [ -117.422508, 47.754826 ], [ -117.421603, 47.753974 ], [ -117.424181, 47.75328 ], [ -117.423838, 47.751281 ], [ -117.423817, 47.751214 ], [ -117.416556, 47.75117 ], [ -117.415061, 47.750958 ], [ -117.411478, 47.753896 ], [ -117.410875, 47.756092 ], [ -117.421085, 47.756265 ], [ -117.422354, 47.756289 ], [ -117.424814, 47.756546 ] ] ] } }
]
}
