{
"type": "FeatureCollection",
"name": "99530",
"crs": { "type": "name", "properties": { "name": "urn:ogc:def:crs:OGC:1.3:CRS84" } },
"features": [
{ "type": "Feature", "properties": { "Name": "", "Description": "" }, "geometry": { "type": "Polygon", "coordinates": [ [ [ -149.989167, 61.186582 ], [ -149.987408, 61.182185 ], [ -149.985316, 61.181669 ], [ -149.980627, 61.18217 ], [ -149.980084, 61.183354 ], [ -149.977449, 61.185586 ], [ -149.979634, 61.187318 ], [ -149.980689, 61.18717 ], [ -149.989167, 61.186582 ] ] ] } }
]
}
