{
"type": "FeatureCollection",
"name": "99608",
"crs": { "type": "name", "properties": { "name": "urn:ogc:def:crs:OGC:1.3:CRS84" } },
"features": [
{ "type": "Feature", "properties": { "Name": "", "Description": "" }, "geometry": { "type": "Polygon", "coordinates": [ [ [ -154.528873, 57.541253 ], [ -154.528433, 57.540457 ], [ -154.52382, 57.542482 ], [ -154.521859, 57.545099 ], [ -154.520139, 57.544983 ], [ -154.516268, 57.547354 ], [ -154.51272, 57.548945 ], [ -154.50866, 57.548063 ], [ -154.507692, 57.547224 ], [ -154.510138, 57.546805 ], [ -154.511026, 57.547976 ], [ -154.512477, 57.546198 ], [ -154.516052, 57.545519 ], [ -154.518095, 57.544593 ], [ -154.519681, 57.542801 ], [ -154.325627, 57.541158 ], [ -154.209657, 57.540654 ], [ -154.211212, 57.658395 ], [ -154.210977848699002, 57.661150584475202 ], [ -154.218264, 57.661475 ], [ -154.22587, 57.662238 ], [ -154.232287, 57.663764 ], [ -154.232321515449001, 57.663739376075398 ], [ -154.234426, 57.662238 ], [ -154.233951, 57.659187 ], [ -154.238704, 57.656644 ], [ -154.244171, 57.655754 ], [ -154.251539, 57.651939 ], [ -154.258194, 57.651939 ], [ -154.260095, 57.64965 ], [ -154.258194, 57.648378 ], [ -154.25962, 57.645452 ], [ -154.261522, 57.642145 ], [ -154.263543670583005, 57.641847501614997 ], [ -154.271029, 57.640746 ], [ -154.276733, 57.641255 ], [ -154.280061, 57.641636 ], [ -154.28042684577099, 57.641553037042598 ], [ -154.294084, 57.638456 ], [ -154.303115, 57.636293 ], [ -154.307631, 57.636547 ], [ -154.317139, 57.636675 ], [ -154.32617, 57.635275 ], [ -154.333538, 57.636675 ], [ -154.33948, 57.637693 ], [ -154.342095, 57.639728 ], [ -154.349225, 57.639855 ], [ -154.350414, 57.638456 ], [ -154.347799, 57.636675 ], [ -154.343046, 57.635911 ], [ -154.341382, 57.634003 ], [ -154.341382, 57.63184 ], [ -154.341447058298002, 57.631645958935898 ], [ -154.343046, 57.626877 ], [ -154.346360764346997, 57.624003230148801 ], [ -154.348037, 57.62255 ], [ -154.354355085754008, 57.620012322581402 ], [ -154.354692, 57.619877 ], [ -154.362298, 57.617586 ], [ -154.366576, 57.614276 ], [ -154.37228, 57.613003 ], [ -154.380361, 57.611348 ], [ -154.384164, 57.609565 ], [ -154.390344, 57.606127 ], [ -154.396286, 57.603708 ], [ -154.397237, 57.601416 ], [ -154.397425109641006, 57.601219726167599 ], [ -154.401753, 57.596704 ], [ -154.405717070488009, 57.593959590049401 ], [ -154.407457, 57.592755 ], [ -154.413637, 57.589061 ], [ -154.416251, 57.585748 ], [ -154.423857, 57.581034 ], [ -154.430274, 57.580015 ], [ -154.438552719000995, 57.579054766502097 ], [ -154.439068, 57.578995 ], [ -154.44520264944299, 57.575453182975501 ], [ -154.445248, 57.575427 ], [ -154.453357376859998, 57.572693655521803 ], [ -154.453567, 57.572623 ], [ -154.462028078673001, 57.571236553962201 ], [ -154.462123, 57.571221 ], [ -154.462819477674003, 57.571277648745003 ], [ -154.469967, 57.571859 ], [ -154.470938646067992, 57.572310345270303 ], [ -154.474924, 57.572504 ], [ -154.482971739501011, 57.573353113323101 ], [ -154.487793, 57.572368 ], [ -154.494685, 57.573515 ], [ -154.497775, 57.574917 ], [ -154.499201, 57.577976 ], [ -154.500345599745998, 57.577791894557699 ], [ -154.506332, 57.576829 ], [ -154.5137, 57.574408 ], [ -154.522019, 57.573898 ], [ -154.521924632235994, 57.572836560911398 ], [ -154.521781, 57.571221 ], [ -154.516033, 57.568020535922301 ], [ -154.515601, 57.56778 ], [ -154.515839, 57.56574 ], [ -154.51679, 57.561788 ], [ -154.516797625493012, 57.561632111760403 ], [ -154.514632, 57.55996 ], [ -154.515599, 57.557011 ], [ -154.519576, 57.551026 ], [ -154.523876, 57.545706 ], [ -154.527155, 57.544563 ], [ -154.526858, 57.543551 ], [ -154.528873, 57.541253 ] ] ] } }
]
}
