{
"type": "FeatureCollection",
"name": "99623",
"crs": { "type": "name", "properties": { "name": "urn:ogc:def:crs:OGC:1.3:CRS84" } },
"features": [
{ "type": "Feature", "properties": { "Name": "", "Description": "" }, "geometry": { "type": "Polygon", "coordinates": [ [ [ -150.329395, 61.280236 ], [ -150.327889, 61.276204 ], [ -150.324188, 61.273766 ], [ -150.318265, 61.270984 ], [ -150.314414, 61.268301 ], [ -150.309356, 61.263669 ], [ -150.305661, 61.262242 ], [ -150.306181, 61.256969 ], [ -150.307745816960988, 61.254990045435797 ], [ -150.303639, 61.255871 ], [ -150.28844069409601, 61.257304991769999 ], [ -150.286978, 61.257443 ], [ -150.272919, 61.255538 ], [ -150.263174, 61.256338 ], [ -150.2482, 61.256452 ], [ -150.230113, 61.256972 ], [ -150.204894, 61.259548 ], [ -150.132634, 61.257915 ], [ -150.074793, 61.2535 ], [ -150.043795, 61.248679 ], [ -150.029439455848006, 61.245912122311701 ], [ -150.008151, 61.241809 ], [ -149.999112, 61.240675 ], [ -149.991163681812992, 61.238777682771399 ], [ -149.985874, 61.237515 ], [ -149.983877845993987, 61.2384917580086 ], [ -149.981286, 61.23976 ], [ -149.973917, 61.244792 ], [ -149.967699322127999, 61.247528446232899 ], [ -149.962747, 61.249708 ], [ -149.960935058932989, 61.250367468260897 ], [ -149.953952, 61.252909 ], [ -149.951487951598011, 61.253626676912297 ], [ -149.949711820000999, 61.254143991685503 ], [ -149.937077, 61.257824 ], [ -149.927095, 61.259881 ], [ -149.925288402712994, 61.261983432149002 ], [ -149.922109, 61.266825 ], [ -149.917369725322999, 61.267376183106997 ], [ -149.917231, 61.26748 ], [ -149.918726723416, 61.269857667772698 ], [ -149.918776, 61.269936 ], [ -149.921509, 61.274221 ], [ -149.921727586738996, 61.277001092679797 ], [ -149.921747, 61.277248 ], [ -149.920915, 61.279817 ], [ -149.921034, 61.281873 ], [ -149.920677, 61.284329 ], [ -149.916874, 61.291465 ], [ -149.916993, 61.293177 ], [ -149.916518, 61.295575 ], [ -149.911289, 61.303964 ], [ -149.910716, 61.308369 ], [ -149.911764, 61.310925 ], [ -149.915805, 61.314975 ], [ -149.918538, 61.319082 ], [ -149.9183, 61.323473 ], [ -149.916637, 61.328548 ], [ -149.916399, 61.331456 ], [ -149.914616, 61.335504 ], [ -149.911151, 61.339989 ], [ -149.90499, 61.345991 ], [ -149.898216, 61.352715 ], [ -149.89168, 61.357728 ], [ -149.890358, 61.360103 ], [ -149.88922, 61.367493 ], [ -149.890017, 61.370315 ], [ -149.887521, 61.37635 ], [ -149.885619, 61.379765 ], [ -149.882173, 61.382839 ], [ -149.875043, 61.386596 ], [ -149.867318, 61.38984 ], [ -149.859118, 61.39166 ], [ -149.853652, 61.392286 ], [ -149.845452, 61.392116 ], [ -149.838084, 61.392742 ], [ -149.828101, 61.394107 ], [ -149.818118, 61.396269 ], [ -149.811701, 61.398431 ], [ -149.808860708981001, 61.400130659889797 ], [ -149.807423, 61.400991 ], [ -149.80362, 61.405314 ], [ -149.800887, 61.408385 ], [ -149.794945, 61.412594 ], [ -149.788884, 61.415551 ], [ -149.784009, 61.417941 ], [ -149.777491, 61.423882 ], [ -149.776168, 61.426863 ], [ -149.774623, 61.430217 ], [ -149.77189, 61.434877 ], [ -149.767968, 61.438343 ], [ -149.762264, 61.443342 ], [ -149.757391, 61.446808 ], [ -149.750617, 61.449477 ], [ -149.740278, 61.453339 ], [ -149.734099, 61.4551 ], [ -149.728275, 61.45527 ], [ -149.722333, 61.455895 ], [ -149.718768, 61.457428 ], [ -149.71651, 61.460096 ], [ -149.713539, 61.462765 ], [ -149.706647, 61.465376 ], [ -149.698507198149002, 61.467648822341999 ], [ -149.697522151733011, 61.467923870253898 ], [ -149.697348552047998, 61.467972343330999 ], [ -149.693825944791996, 61.468955937357002 ], [ -149.691197, 61.46969 ], [ -149.681215, 61.471904 ], [ -149.676224, 61.475082 ], [ -149.675511926331012, 61.4754616527959 ], [ -149.669093, 61.478884 ], [ -149.657362567945995, 61.482849757802299 ], [ -149.655664, 61.483424 ], [ -149.655259506790003, 61.483544441450803 ], [ -149.643661, 61.486998 ], [ -149.631183, 61.489494 ], [ -149.616131041565012, 61.492904793099797 ], [ -149.614665, 61.493237 ], [ -149.614581832432009, 61.493240953387897 ], [ -149.606145, 61.493642 ], [ -149.599714119073013, 61.494708167119803 ], [ -149.600219, 61.495357 ], [ -149.598813, 61.495546 ], [ -149.593055, 61.498182 ], [ -149.587772, 61.50161 ], [ -149.585734, 61.502279 ], [ -149.581477, 61.501519 ], [ -149.581783, 61.49871 ], [ -149.578943, 61.498353 ], [ -149.578761, 61.500496 ], [ -149.57711, 61.50243 ], [ -149.572995, 61.502993 ], [ -149.570178, 61.502659 ], [ -149.5722, 61.501237 ], [ -149.570336, 61.500006 ], [ -149.570528, 61.501589 ], [ -149.568243, 61.501923 ], [ -149.566103, 61.500533 ], [ -149.564288, 61.501847 ], [ -149.562668, 61.500886 ], [ -149.559878, 61.501901 ], [ -149.559801, 61.503271 ], [ -149.556062, 61.504262 ], [ -149.558728, 61.505777 ], [ -149.556193, 61.507108 ], [ -149.558733, 61.507264 ], [ -149.557347, 61.508407 ], [ -149.560308, 61.507942 ], [ -149.561884, 61.508995 ], [ -149.558777, 61.510659 ], [ -149.556238, 61.511008 ], [ -149.555065, 61.512641 ], [ -149.551865, 61.513871 ], [ -149.54715, 61.514655 ], [ -149.545937, 61.515753 ], [ -149.532947, 61.518251 ], [ -149.533472, 61.519886 ], [ -149.537167, 61.520085 ], [ -149.539336, 61.52002 ], [ -149.540974, 61.519694 ], [ -149.541362, 61.522236 ], [ -149.54395, 61.523544 ], [ -149.546544, 61.527249 ], [ -149.552902, 61.525794 ], [ -149.559884, 61.526589 ], [ -149.564251, 61.525457 ], [ -149.568084, 61.523242 ], [ -149.57133, 61.522127 ], [ -149.571273, 61.529204 ], [ -149.569105, 61.531417 ], [ -149.565541, 61.531612 ], [ -149.556095, 61.533111 ], [ -149.556273, 61.539988 ], [ -149.551296, 61.540535 ], [ -149.5448, 61.543747 ], [ -149.539541, 61.548125 ], [ -149.540891, 61.549615 ], [ -149.541085, 61.553238 ], [ -149.533922, 61.556483 ], [ -149.533959, 61.56316 ], [ -149.541359, 61.563303 ], [ -149.55629, 61.563284 ], [ -149.562605, 61.563304 ], [ -149.563859, 61.563291 ], [ -149.563872, 61.566923 ], [ -149.560256, 61.567393 ], [ -149.554433, 61.570616 ], [ -149.548761, 61.57244 ], [ -149.548754, 61.577742 ], [ -149.547165, 61.577582 ], [ -149.547167, 61.57937 ], [ -149.541185, 61.577743 ], [ -149.52653, 61.577725 ], [ -149.526522, 61.579566 ], [ -149.526531, 61.581222 ], [ -149.511356, 61.581241 ], [ -149.511354, 61.58855 ], [ -149.511454, 61.599449 ], [ -149.511511, 61.603151 ], [ -149.511513, 61.604563 ], [ -149.511515, 61.606721 ], [ -149.511538, 61.614109 ], [ -149.511546, 61.628234 ], [ -149.51171, 61.638512 ], [ -149.522113, 61.638521 ], [ -149.524019, 61.638902 ], [ -149.526497, 61.640257 ], [ -149.526817, 61.641796 ], [ -149.520433, 61.642819 ], [ -149.515671, 61.640924 ], [ -149.508833, 61.642291 ], [ -149.508545, 61.643356 ], [ -149.505918, 61.644135 ], [ -149.504106, 61.642451 ], [ -149.501022, 61.642098 ], [ -149.499189, 61.643204 ], [ -149.501502, 61.644218 ], [ -149.497148, 61.645185 ], [ -149.495738, 61.643441 ], [ -149.494035, 61.64374 ], [ -149.492239, 61.646682 ], [ -149.486148, 61.648474 ], [ -149.48085, 61.646184 ], [ -149.479712, 61.646882 ], [ -149.481062, 61.649783 ], [ -149.480978, 61.679664 ], [ -149.477576, 61.680517 ], [ -149.470314, 61.684621 ], [ -149.46914, 61.68622 ], [ -149.643563, 61.686227 ], [ -149.645451, 61.683685 ], [ -149.647095, 61.679734 ], [ -149.645087, 61.67305 ], [ -149.645806, 61.670094 ], [ -149.64332, 61.664998 ], [ -149.644954, 61.662915 ], [ -149.644657, 61.661571 ], [ -149.646089, 61.660822 ], [ -149.643603, 61.659851 ], [ -149.639542, 61.652523 ], [ -149.639851, 61.651613 ], [ -149.637731, 61.650397 ], [ -149.637253, 61.648938 ], [ -149.631345, 61.646547 ], [ -149.633265, 61.645394 ], [ -149.635883, 61.645268 ], [ -149.641044, 61.642595 ], [ -149.642303, 61.640683 ], [ -149.646382, 61.640243 ], [ -149.64791, 61.639256 ], [ -149.652074, 61.63958 ], [ -149.653668, 61.638476 ], [ -149.657677, 61.638315 ], [ -149.655661, 61.639573 ], [ -149.656101, 61.640061 ], [ -149.658151, 61.640309 ], [ -149.660866, 61.640093 ], [ -149.661092, 61.642066 ], [ -149.664117, 61.641727 ], [ -149.665964, 61.641572 ], [ -149.668288, 61.639703 ], [ -149.672445, 61.640379 ], [ -149.67244, 61.638791 ], [ -149.675871, 61.638542 ], [ -149.676207, 61.637813 ], [ -149.674098, 61.637576 ], [ -149.676357, 61.636926 ], [ -149.677924, 61.639024 ], [ -149.680206, 61.639286 ], [ -149.681239, 61.6383 ], [ -149.680171, 61.636913 ], [ -149.684218, 61.637645 ], [ -149.685634, 61.637573 ], [ -149.685971, 61.638387 ], [ -149.687302, 61.63864 ], [ -149.688528, 61.637912 ], [ -149.686397, 61.636735 ], [ -149.688487, 61.636125 ], [ -149.69481, 61.636423 ], [ -149.696164, 61.635629 ], [ -149.694228, 61.63453 ], [ -149.697427, 61.634449 ], [ -149.699536, 61.633828 ], [ -149.699723, 61.635107 ], [ -149.701022, 61.63499 ], [ -149.70142, 61.633376 ], [ -149.706119, 61.635113 ], [ -149.707398, 61.633915 ], [ -149.709246, 61.634956 ], [ -149.710372, 61.634249 ], [ -149.713006, 61.636331 ], [ -149.715767, 61.636752 ], [ -149.717446, 61.633879 ], [ -149.719505, 61.635613 ], [ -149.722819, 61.635139 ], [ -149.722829, 61.634834 ], [ -149.722652, 61.588331 ], [ -149.722638, 61.587774 ], [ -149.726249, 61.587896 ], [ -149.729755, 61.586796 ], [ -149.729841, 61.582792 ], [ -149.735876, 61.58112 ], [ -149.728366, 61.577808 ], [ -149.722541, 61.574415 ], [ -149.722545, 61.575747 ], [ -149.72041, 61.575613 ], [ -149.717931, 61.573951 ], [ -149.711296, 61.573758 ], [ -149.706168, 61.577493 ], [ -149.69752, 61.578165 ], [ -149.687177, 61.576122 ], [ -149.684625, 61.57792 ], [ -149.68249, 61.578212 ], [ -149.679966, 61.580905 ], [ -149.680386, 61.582345 ], [ -149.673017, 61.583072 ], [ -149.670079, 61.585865 ], [ -149.667345, 61.58555 ], [ -149.66202, 61.585187 ], [ -149.660899, 61.583761 ], [ -149.657497, 61.582871 ], [ -149.660979, 61.581297 ], [ -149.65647, 61.580782 ], [ -149.656161, 61.57915 ], [ -149.653423, 61.576962 ], [ -149.657844, 61.578333 ], [ -149.660544, 61.578272 ], [ -149.661406, 61.576832 ], [ -149.660234, 61.574677 ], [ -149.65698, 61.573822 ], [ -149.685429, 61.568421 ], [ -149.692617, 61.568149 ], [ -149.692595, 61.562067 ], [ -149.695158, 61.562206 ], [ -149.69886, 61.565739 ], [ -149.707668, 61.565781 ], [ -149.707633, 61.562414 ], [ -149.717514, 61.562244 ], [ -149.722117, 61.560329 ], [ -149.719399, 61.558833 ], [ -149.715863, 61.560101 ], [ -149.707675, 61.560189 ], [ -149.70769, 61.553031 ], [ -149.707728, 61.548836 ], [ -149.713053, 61.547751 ], [ -149.722273, 61.547604 ], [ -149.722252, 61.532714 ], [ -149.723599, 61.532647 ], [ -149.730622, 61.529558 ], [ -149.737616, 61.528151 ], [ -149.744035, 61.525145 ], [ -149.745036, 61.523543 ], [ -149.752487, 61.52118 ], [ -149.755186, 61.519332 ], [ -149.756382, 61.518883 ], [ -149.765322, 61.517001 ], [ -149.767926, 61.514382 ], [ -149.7717, 61.51467 ], [ -149.772236, 61.512831 ], [ -149.776624, 61.509419 ], [ -149.774907, 61.50605 ], [ -149.778812, 61.504199 ], [ -149.77253, 61.501092 ], [ -149.76975, 61.500658 ], [ -149.768814, 61.497495 ], [ -149.770668, 61.497151 ], [ -149.772548, 61.497163 ], [ -149.779874, 61.49744 ], [ -149.78356, 61.498263 ], [ -149.786582, 61.498033 ], [ -149.787913, 61.496502 ], [ -149.790663, 61.495895 ], [ -149.793625, 61.494076 ], [ -149.792417, 61.492776 ], [ -149.789275, 61.491692 ], [ -149.787887, 61.48863 ], [ -149.790848, 61.488775 ], [ -149.796981, 61.486724 ], [ -149.803507, 61.482665 ], [ -149.807524, 61.481972 ], [ -149.818033, 61.475962 ], [ -149.81915, 61.474706 ], [ -149.818092, 61.472539 ], [ -149.81622, 61.47163 ], [ -149.818001, 61.470878 ], [ -149.816551, 61.470113 ], [ -149.820022, 61.466473 ], [ -149.816188, 61.464162 ], [ -149.819327, 61.46396 ], [ -149.818723, 61.462905 ], [ -149.817088, 61.462478 ], [ -149.854873, 61.444945 ], [ -149.864452, 61.446585 ], [ -149.867955, 61.448274 ], [ -149.864891, 61.455222 ], [ -149.866619, 61.456426 ], [ -149.88202, 61.455122 ], [ -149.941574, 61.455255 ], [ -149.945089, 61.456042 ], [ -149.946136, 61.456218 ], [ -149.948349, 61.455605 ], [ -149.957912, 61.45541 ], [ -149.957515, 61.440683 ], [ -149.986053, 61.44067 ], [ -149.992795, 61.444292 ], [ -149.996907, 61.445628 ], [ -149.998378, 61.44711 ], [ -150.001567, 61.448453 ], [ -150.008711, 61.446368 ], [ -150.010277, 61.444364 ], [ -150.017069, 61.443685 ], [ -150.022452, 61.444779 ], [ -150.048784, 61.442801 ], [ -150.048815, 61.440681 ], [ -150.106946, 61.440615 ], [ -150.106245, 61.443359 ], [ -150.108292, 61.445064 ], [ -150.11523, 61.445357 ], [ -150.120116, 61.446082 ], [ -150.118158, 61.444709 ], [ -150.119971, 61.443569 ], [ -150.12332, 61.44334 ], [ -150.124258, 61.441881 ], [ -150.126581, 61.441194 ], [ -150.161811, 61.448614 ], [ -150.161687, 61.449276 ], [ -150.166483, 61.45188 ], [ -150.167002, 61.451871 ], [ -150.172582, 61.450994 ], [ -150.177541, 61.446242 ], [ -150.180446, 61.441944 ], [ -150.181218, 61.4379 ], [ -150.178079, 61.43549 ], [ -150.182305, 61.432586 ], [ -150.186908, 61.432652 ], [ -150.190357, 61.430438 ], [ -150.192753, 61.430581 ], [ -150.191478, 61.428589 ], [ -150.193569, 61.42671 ], [ -150.196308, 61.425694 ], [ -150.198362, 61.427005 ], [ -150.199372, 61.425102 ], [ -150.198182, 61.423468 ], [ -150.201871, 61.424265 ], [ -150.20214, 61.421024 ], [ -150.20436, 61.418964 ], [ -150.201635, 61.417112 ], [ -150.20193, 61.417042 ], [ -150.203227, 61.417287 ], [ -150.20398, 61.417345 ], [ -150.204674, 61.417186 ], [ -150.205035, 61.416839 ], [ -150.204915, 61.416536 ], [ -150.204613, 61.416406 ], [ -150.203196, 61.416074 ], [ -150.202582, 61.416084 ], [ -150.204515, 61.415486 ], [ -150.206817, 61.415628 ], [ -150.207388, 61.414472 ], [ -150.209548, 61.416075 ], [ -150.210417, 61.414288 ], [ -150.209827, 61.412707 ], [ -150.21227, 61.412515 ], [ -150.213893, 61.413292 ], [ -150.214661, 61.411152 ], [ -150.216029, 61.410506 ], [ -150.216688, 61.410195 ], [ -150.216473, 61.40822 ], [ -150.216856, 61.407888 ], [ -150.217528, 61.407309 ], [ -150.220514, 61.404733 ], [ -150.223199, 61.402969 ], [ -150.22391, 61.401707 ], [ -150.22314, 61.400897 ], [ -150.223, 61.399009 ], [ -150.227904, 61.395546 ], [ -150.232474, 61.395955 ], [ -150.237754, 61.393249 ], [ -150.238543, 61.39086 ], [ -150.238626, 61.388689 ], [ -150.238632, 61.388552 ], [ -150.240945, 61.388293 ], [ -150.240308, 61.386727 ], [ -150.24131, 61.386325 ], [ -150.241277, 61.385014 ], [ -150.245052, 61.385333 ], [ -150.246413, 61.383498 ], [ -150.247515, 61.381628 ], [ -150.247823, 61.381619 ], [ -150.252084, 61.382002 ], [ -150.25415, 61.38035 ], [ -150.254158, 61.379172 ], [ -150.254161, 61.378809 ], [ -150.254174, 61.377042 ], [ -150.254842, 61.373657 ], [ -150.256418, 61.372137 ], [ -150.259642, 61.372182 ], [ -150.261229, 61.373421 ], [ -150.259932, 61.371295 ], [ -150.260339, 61.37144 ], [ -150.261091, 61.37144 ], [ -150.262174, 61.370962 ], [ -150.262594, 61.37037 ], [ -150.262412, 61.369951 ], [ -150.26196, 61.369605 ], [ -150.260424, 61.369085 ], [ -150.259639, 61.368903 ], [ -150.260379, 61.367548 ], [ -150.260369, 61.365806 ], [ -150.260363, 61.364713 ], [ -150.265605, 61.364021 ], [ -150.270431, 61.364032 ], [ -150.270273, 61.362964 ], [ -150.270957, 61.36165 ], [ -150.271111, 61.361488 ], [ -150.272954, 61.361158 ], [ -150.272518, 61.360462 ], [ -150.272324, 61.360361 ], [ -150.273012, 61.360254 ], [ -150.273583, 61.359979 ], [ -150.273943, 61.35969 ], [ -150.273973, 61.359386 ], [ -150.273792, 61.359199 ], [ -150.272768, 61.358679 ], [ -150.271113, 61.358175 ], [ -150.27272, 61.357965 ], [ -150.27561, 61.359686 ], [ -150.279821, 61.361515 ], [ -150.279336, 61.362041 ], [ -150.279337, 61.36233 ], [ -150.279639, 61.362777 ], [ -150.280362, 61.363196 ], [ -150.281597, 61.363412 ], [ -150.282184, 61.36331 ], [ -150.282514, 61.36322 ], [ -150.283789, 61.362082 ], [ -150.283994, 61.360016 ], [ -150.281912, 61.357793 ], [ -150.279833, 61.357072 ], [ -150.276056, 61.355341 ], [ -150.278227, 61.353977 ], [ -150.282633, 61.351656 ], [ -150.282472, 61.351462 ], [ -150.283006, 61.351206 ], [ -150.283666, 61.350714 ], [ -150.283783, 61.34953 ], [ -150.282997, 61.34836 ], [ -150.282636, 61.348072 ], [ -150.281202, 61.347367 ], [ -150.282811, 61.346615 ], [ -150.287101, 61.347137 ], [ -150.292073, 61.34836 ], [ -150.29277, 61.347692 ], [ -150.294182, 61.347067 ], [ -150.29285, 61.34428 ], [ -150.291192, 61.343213 ], [ -150.28632, 61.343173 ], [ -150.285982, 61.340847 ], [ -150.284984, 61.338826 ], [ -150.281357, 61.337191 ], [ -150.28154, 61.336789 ], [ -150.283845, 61.336585 ], [ -150.284745, 61.336919 ], [ -150.287207, 61.338036 ], [ -150.289061, 61.33921 ], [ -150.290935, 61.338482 ], [ -150.2932, 61.337112 ], [ -150.293824, 61.336224 ], [ -150.296216, 61.334745 ], [ -150.296425, 61.334239 ], [ -150.295851, 61.333445 ], [ -150.294858, 61.333157 ], [ -150.293535, 61.33297 ], [ -150.289281, 61.332725 ], [ -150.288614, 61.332365 ], [ -150.289558, 61.330387 ], [ -150.289224, 61.32929 ], [ -150.288321, 61.328713 ], [ -150.285223, 61.328282 ], [ -150.282969, 61.328211 ], [ -150.280086, 61.329123 ], [ -150.279461, 61.331347 ], [ -150.278914, 61.331849 ], [ -150.277329, 61.332389 ], [ -150.273906, 61.330591 ], [ -150.276143, 61.329118 ], [ -150.279989, 61.328062 ], [ -150.282246, 61.327908 ], [ -150.283718, 61.327416 ], [ -150.284288, 61.327011 ], [ -150.284526, 61.326361 ], [ -150.284041, 61.324975 ], [ -150.283437, 61.324181 ], [ -150.280973, 61.322014 ], [ -150.284144, 61.317794 ], [ -150.285876, 61.315944 ], [ -150.287738, 61.315396 ], [ -150.288757, 61.314557 ], [ -150.288453, 61.3132 ], [ -150.286436, 61.312118 ], [ -150.283943, 61.312018 ], [ -150.283251, 61.311846 ], [ -150.282256, 61.310815 ], [ -150.281461, 61.310742 ], [ -150.278525, 61.305544 ], [ -150.277305, 61.301637 ], [ -150.274414, 61.298837 ], [ -150.271979, 61.29976 ], [ -150.268483, 61.296842 ], [ -150.268065, 61.295124 ], [ -150.270799, 61.295629 ], [ -150.279213, 61.302047 ], [ -150.287499, 61.302577 ], [ -150.290629, 61.300922 ], [ -150.288152, 61.297763 ], [ -150.283706, 61.294358 ], [ -150.285575, 61.292438 ], [ -150.293386, 61.291931 ], [ -150.298016, 61.28877 ], [ -150.298955, 61.284 ], [ -150.294506, 61.281214 ], [ -150.285414, 61.279038 ], [ -150.277738, 61.281577 ], [ -150.274348, 61.279242 ], [ -150.277808, 61.276734 ], [ -150.283686, 61.275097 ], [ -150.290733, 61.276053 ], [ -150.297694, 61.279295 ], [ -150.307313, 61.284195 ], [ -150.316765, 61.286091 ], [ -150.329395, 61.280236 ] ] ] } }
]
}
