{
"type": "FeatureCollection",
"name": "99635",
"crs": { "type": "name", "properties": { "name": "urn:ogc:def:crs:OGC:1.3:CRS84" } },
"features": [
{ "type": "Feature", "properties": { "Name": "", "Description": "" }, "geometry": { "type": "MultiPolygon", "coordinates": [ [ [ [ -152.726843, 60.224679 ], [ -152.728507, 60.223263 ], [ -152.726368, 60.222791 ], [ -152.723753, 60.221433 ], [ -152.72304, 60.220725 ], [ -152.719713, 60.22102 ], [ -152.717455, 60.221551 ], [ -152.715078, 60.223617 ], [ -152.71591, 60.225447 ], [ -152.717811, 60.226332 ], [ -152.71995, 60.226391 ], [ -152.721614, 60.225683 ], [ -152.726843, 60.224679 ] ] ], [ [ [ -153.65698, 60.126277 ], [ -153.656969, 60.044032 ], [ -153.65697, 59.994988 ], [ -153.656971, 59.94286 ], [ -153.650202, 59.939388 ], [ -153.636298, 59.939676 ], [ -153.631042, 59.938086 ], [ -153.626181, 59.941884 ], [ -153.624838, 59.942242 ], [ -153.619205, 59.941387 ], [ -153.615042, 59.941278 ], [ -153.609025, 59.94066 ], [ -153.603647, 59.939442 ], [ -153.596576, 59.936056 ], [ -153.591838, 59.935481 ], [ -153.589346, 59.93756 ], [ -153.589338, 59.94052 ], [ -153.587801, 59.941438 ], [ -153.587361, 59.943609 ], [ -153.586209, 59.944307 ], [ -153.58137, 59.945009 ], [ -153.577275, 59.944202 ], [ -153.573083, 59.942087 ], [ -153.570431, 59.942121 ], [ -153.564732, 59.944112 ], [ -153.552533, 59.947045 ], [ -153.54345, 59.950215 ], [ -153.539182, 59.95099 ], [ -153.529554, 59.955294 ], [ -153.523445, 59.955691 ], [ -153.521176, 59.951864 ], [ -153.51879, 59.95023 ], [ -153.517664, 59.947309 ], [ -153.442993, 59.914925 ], [ -153.437941, 59.917131 ], [ -153.433212, 59.922668 ], [ -153.430204, 59.923635 ], [ -153.427434, 59.923608 ], [ -153.42403, 59.925539 ], [ -153.417526, 59.923517 ], [ -153.414442, 59.919067 ], [ -153.409002, 59.917432 ], [ -153.407925, 59.916298 ], [ -153.413625, 59.908118 ], [ -153.414465, 59.90732 ], [ -153.411187, 59.905864 ], [ -153.401609, 59.903238 ], [ -153.399234, 59.902333 ], [ -153.397893, 59.900936 ], [ -153.402177, 59.894666 ], [ -153.399512, 59.893305 ], [ -153.396607, 59.890205 ], [ -153.390101, 59.887265 ], [ -153.384716, 59.884493 ], [ -153.384026, 59.883229 ], [ -153.38792, 59.881174 ], [ -153.383085, 59.880271 ], [ -153.379384, 59.880375 ], [ -153.375218, 59.883209 ], [ -153.37334, 59.883938 ], [ -153.368985, 59.883989 ], [ -153.362036, 59.88277 ], [ -153.351448, 59.882672 ], [ -153.349094, 59.881935 ], [ -153.347208, 59.879257 ], [ -153.343202, 59.876363 ], [ -153.344347, 59.874983 ], [ -153.347076, 59.873666 ], [ -153.346888, 59.872828 ], [ -153.339899, 59.868776 ], [ -153.335078, 59.867319 ], [ -153.330797, 59.865217 ], [ -153.328095, 59.863117 ], [ -153.318435, 59.860527 ], [ -153.315323, 59.859077 ], [ -153.313561, 59.856974 ], [ -153.307392, 59.854166 ], [ -153.30401, 59.856861 ], [ -153.29807, 59.858653 ], [ -153.29041, 59.856497 ], [ -153.281905, 59.855266 ], [ -153.279442, 59.854146 ], [ -153.280231, 59.851845 ], [ -153.272426, 59.851414 ], [ -153.224657871705006, 59.835695380614503 ], [ -153.223712, 59.836378 ], [ -153.216939, 59.840677 ], [ -153.207788, 59.84408 ], [ -153.202915, 59.847363 ], [ -153.197449, 59.851183 ], [ -153.195904, 59.852616 ], [ -153.197092, 59.8556 ], [ -153.198875, 59.856793 ], [ -153.19733, 59.857868 ], [ -153.193171, 59.858345 ], [ -153.188892, 59.858524 ], [ -153.184258, 59.856853 ], [ -153.178197, 59.858763 ], [ -153.170829, 59.861925 ], [ -153.164055, 59.863954 ], [ -153.159182, 59.864849 ], [ -153.151695, 59.863834 ], [ -153.143425165069004, 59.859903671180597 ], [ -153.142782, 59.859598 ], [ -153.138623, 59.860254 ], [ -153.1328, 59.860493 ], [ -153.130304, 59.861567 ], [ -153.125907, 59.864013 ], [ -153.117232, 59.865923 ], [ -153.093702, 59.869502 ], [ -153.079187, 59.871103 ], [ -153.076317168321992, 59.8715420600466 ], [ -153.071716, 59.872246 ], [ -153.060868, 59.876712 ], [ -153.058504901476994, 59.877383286617203 ], [ -153.051395, 59.879403 ], [ -153.036753762545999, 59.8828799177072 ], [ -153.035827, 59.8831 ], [ -153.03036, 59.883637 ], [ -153.017763, 59.885724 ], [ -153.00885, 59.886201 ], [ -152.999105, 59.886201 ], [ -152.994946, 59.88483 ], [ -152.990667, 59.883935 ], [ -152.972604, 59.883697 ], [ -152.969395, 59.883399 ], [ -152.966781, 59.883041 ], [ -152.960601, 59.883279 ], [ -152.958699, 59.882743 ], [ -152.957511, 59.882087 ], [ -152.952401, 59.881312 ], [ -152.948836, 59.880298 ], [ -152.947172, 59.879344 ], [ -152.94741, 59.878091 ], [ -152.949345, 59.876802 ], [ -152.949549, 59.875944 ], [ -152.946578, 59.875944 ], [ -152.944676, 59.875407 ], [ -152.940398, 59.875467 ], [ -152.934450696325001, 59.876221576016903 ], [ -152.924033204582003, 59.877543316061796 ], [ -152.923731143145005, 59.877581640709103 ], [ -152.921285, 59.877892 ], [ -152.908906, 59.879463 ], [ -152.904351897330002, 59.880722936999803 ], [ -152.903589, 59.880934 ], [ -152.894288, 59.882266 ], [ -152.888346, 59.882802 ], [ -152.884068, 59.882743 ], [ -152.880741, 59.882385 ], [ -152.87979, 59.881371 ], [ -152.879077, 59.879284 ], [ -152.876462, 59.877435 ], [ -152.874165, 59.877081 ], [ -152.868262, 59.875706 ], [ -152.866242, 59.874572 ], [ -152.860867, 59.875033 ], [ -152.85624, 59.875333 ], [ -152.843306, 59.87833 ], [ -152.834868, 59.879344 ], [ -152.834749911301003, 59.879339121335498 ], [ -152.841923, 59.87988 ], [ -152.842327, 59.881687 ], [ -152.840544, 59.88121 ], [ -152.833959, 59.881919 ], [ -152.835656, 59.882468 ], [ -152.835657, 59.884058 ], [ -152.830682, 59.882932 ], [ -152.826167, 59.880244 ], [ -152.829876, 59.880157 ], [ -152.829715, 59.879292 ], [ -152.832568167630001, 59.879109321972599 ], [ -152.831303, 59.878628 ], [ -152.829045, 59.87666 ], [ -152.8275, 59.876183 ], [ -152.822034, 59.876481 ], [ -152.816924, 59.876481 ], [ -152.811932, 59.877793 ], [ -152.808367, 59.877674 ], [ -152.807179, 59.878091 ], [ -152.806941, 59.879045 ], [ -152.808369, 59.879547 ], [ -152.809912, 59.879403 ], [ -152.810169697938989, 59.879791282247602 ], [ -152.810506, 59.880298 ], [ -152.810744, 59.88161 ], [ -152.809912, 59.882623 ], [ -152.80706, 59.884353 ], [ -152.807179, 59.886082 ], [ -152.804327, 59.889123 ], [ -152.798147, 59.892998 ], [ -152.79269868577299, 59.895111935540797 ], [ -152.791848, 59.895442 ], [ -152.779727, 59.898303 ], [ -152.769732, 59.900013 ], [ -152.761832, 59.900686 ], [ -152.747878, 59.902594 ], [ -152.738237010792005, 59.904689641343197 ], [ -152.727447108841005, 59.907035019408902 ], [ -152.724816, 59.909247 ], [ -152.719658, 59.911252 ], [ -152.710726, 59.914063 ], [ -152.702761, 59.919721 ], [ -152.695598, 59.925871 ], [ -152.694436, 59.928644 ], [ -152.695756, 59.92983 ], [ -152.696124, 59.931738 ], [ -152.692814, 59.938613 ], [ -152.691346273696013, 59.940208281631101 ], [ -152.690597, 59.943153 ], [ -152.687507, 59.951664 ], [ -152.684774, 59.958685 ], [ -152.682516, 59.963563 ], [ -152.682445276374011, 59.963633791252001 ], [ -152.677287, 59.968797 ], [ -152.671582, 59.973376 ], [ -152.666567, 59.976299 ], [ -152.662487159460994, 59.978207122578901 ], [ -152.662514, 59.980055 ], [ -152.659885, 59.980962 ], [ -152.660249, 59.98313 ], [ -152.656892, 59.985366 ], [ -152.660073, 59.983838 ], [ -152.665105, 59.981026 ], [ -152.666924, 59.980652 ], [ -152.669458, 59.981623 ], [ -152.667637, 59.9823 ], [ -152.66614, 59.981692 ], [ -152.664685, 59.984566 ], [ -152.661622, 59.985559 ], [ -152.65927, 59.988736 ], [ -152.653051, 59.991821 ], [ -152.652203, 59.99416 ], [ -152.64997, 59.996311 ], [ -152.646299, 59.997491 ], [ -152.644098, 59.998933 ], [ -152.640747, 59.999904 ], [ -152.639728, 60.001406 ], [ -152.63273, 60.003868 ], [ -152.620984, 60.007612 ], [ -152.62023, 60.006934 ], [ -152.625578, 60.003531 ], [ -152.633442, 60.000371 ], [ -152.64508, 59.993241 ], [ -152.647041, 59.99359 ], [ -152.647223, 59.991885 ], [ -152.64974, 59.990473 ], [ -152.651714, 59.988076 ], [ -152.654111, 59.987703 ], [ -152.653338, 59.986445 ], [ -152.650936, 59.987887 ], [ -152.649109, 59.989807 ], [ -152.643665, 59.993398 ], [ -152.640859, 59.99484 ], [ -152.637237, 59.997479 ], [ -152.634284, 59.999108 ], [ -152.623128, 60.003809 ], [ -152.618466, 60.006243 ], [ -152.607551280769997, 60.011427781300803 ], [ -152.607647, 60.011533 ], [ -152.606577, 60.012721 ], [ -152.606526831422997, 60.0127493425843 ], [ -152.608129, 60.016271 ], [ -152.60943, 60.01666 ], [ -152.609358, 60.019391 ], [ -152.607806, 60.020751 ], [ -152.605346, 60.019425 ], [ -152.602639, 60.02083 ], [ -152.602155, 60.022218 ], [ -152.603539, 60.027664 ], [ -152.597404284940012, 60.031528738849097 ], [ -152.597307, 60.031604 ], [ -152.591484, 60.03659 ], [ -152.591022146314998, 60.036947849489202 ], [ -152.588038, 60.03926 ], [ -152.585643, 60.03968 ], [ -152.584473, 60.039557 ], [ -152.581739, 60.04383 ], [ -152.579838, 60.044958 ], [ -152.576748, 60.049882 ], [ -152.575797, 60.054984 ], [ -152.575679, 60.05712 ], [ -152.576629, 60.058484 ], [ -152.576154, 60.062161 ], [ -152.575203, 60.063229 ], [ -152.575441, 60.065542 ], [ -152.573539, 60.066491 ], [ -152.571757, 60.068092 ], [ -152.570925, 60.070523 ], [ -152.571995, 60.07408 ], [ -152.573008, 60.078458 ], [ -152.575486115894989, 60.0815001117561 ], [ -152.576154, 60.08232 ], [ -152.579006, 60.084632 ], [ -152.583522, 60.085817 ], [ -152.585573, 60.087339 ], [ -152.587919, 60.088306 ], [ -152.589226, 60.090617 ], [ -152.590169080723996, 60.091915625179901 ], [ -152.591722, 60.094054 ], [ -152.594931, 60.096542 ], [ -152.597545, 60.101756 ], [ -152.60683, 60.10524 ], [ -152.610023, 60.105724 ], [ -152.611571827939002, 60.1065409473442 ], [ -152.612044, 60.10679 ], [ -152.624165, 60.109455 ], [ -152.629988, 60.111054 ], [ -152.630478024935996, 60.111241922184099 ], [ -152.633078, 60.112239 ], [ -152.634267, 60.113897 ], [ -152.636406, 60.114252 ], [ -152.638664, 60.11591 ], [ -152.639231093107014, 60.116993283046497 ], [ -152.639377, 60.117272 ], [ -152.642942, 60.117154 ], [ -152.646745, 60.117686 ], [ -152.653875, 60.119463 ], [ -152.656099309430999, 60.120504895326697 ], [ -152.659951, 60.120533 ], [ -152.662896, 60.122487 ], [ -152.667876, 60.12323 ], [ -152.662888, 60.124178 ], [ -152.664242068752003, 60.127913870123102 ], [ -152.668267, 60.129697 ], [ -152.669353336172009, 60.130108728440703 ], [ -152.676077617110991, 60.1326572744412 ], [ -152.683053, 60.133058 ], [ -152.693961, 60.138994 ], [ -152.695345, 60.141481 ], [ -152.693772, 60.144052 ], [ -152.69026, 60.145378 ], [ -152.68266, 60.146512 ], [ -152.679087, 60.14846 ], [ -152.684646, 60.150879 ], [ -152.682182, 60.150804 ], [ -152.680503, 60.149762 ], [ -152.677718, 60.150207 ], [ -152.677157, 60.153313 ], [ -152.678946, 60.155613 ], [ -152.683432, 60.158233 ], [ -152.687112, 60.159277 ], [ -152.685605, 60.161235 ], [ -152.684536, 60.162181 ], [ -152.68204, 60.163068 ], [ -152.680884014279002, 60.163142866254198 ], [ -152.679307, 60.163245 ], [ -152.678174, 60.164373 ], [ -152.678356, 60.166142 ], [ -152.689408, 60.165847 ], [ -152.692974, 60.164901 ], [ -152.69642, 60.164487 ], [ -152.705333, 60.165669 ], [ -152.711988, 60.16697 ], [ -152.718881, 60.169157 ], [ -152.725417, 60.172704 ], [ -152.734251, 60.174801 ], [ -152.735994, 60.178556 ], [ -152.740034, 60.183401 ], [ -152.745976, 60.184819 ], [ -152.748115, 60.186828 ], [ -152.744075, 60.189192 ], [ -152.749545, 60.189552 ], [ -152.754295, 60.189073 ], [ -152.762614, 60.191437 ], [ -152.764515, 60.194745 ], [ -152.773072, 60.195808 ], [ -152.786857, 60.196517 ], [ -152.794463, 60.198879 ], [ -152.803495, 60.199352 ], [ -152.821083, 60.205257 ], [ -152.83677, 60.21187 ], [ -152.854358, 60.218836 ], [ -152.869807, 60.227807 ], [ -152.875987, 60.234888 ], [ -152.882642, 60.239607 ], [ -152.885019, 60.24232 ], [ -152.877651, 60.245859 ], [ -152.866242, 60.24468 ], [ -152.851981, 60.238545 ], [ -152.850318, 60.236185 ], [ -152.844138, 60.236421 ], [ -152.827976, 60.23477 ], [ -152.815141, 60.233 ], [ -152.80397, 60.230049 ], [ -152.787332, 60.226509 ], [ -152.778301, 60.226981 ], [ -152.772378, 60.225765 ], [ -152.767605, 60.227099 ], [ -152.764159, 60.228161 ], [ -152.761306, 60.230226 ], [ -152.757385, 60.23182 ], [ -152.757147, 60.229282 ], [ -152.75382, 60.226509 ], [ -152.74966, 60.224915 ], [ -152.73944, 60.223381 ], [ -152.736231, 60.225329 ], [ -152.735399, 60.226922 ], [ -152.736707, 60.227807 ], [ -152.739915, 60.227984 ], [ -152.741104, 60.230285 ], [ -152.737776, 60.231997 ], [ -152.733141, 60.235831 ], [ -152.726486, 60.239194 ], [ -152.720901, 60.242261 ], [ -152.71686, 60.241141 ], [ -152.711988, 60.238899 ], [ -152.712939, 60.234593 ], [ -152.712107, 60.233118 ], [ -152.708185, 60.233708 ], [ -152.70462, 60.23536 ], [ -152.70355, 60.238545 ], [ -152.700579, 60.23943 ], [ -152.697727, 60.239548 ], [ -152.697133, 60.237011 ], [ -152.690597, 60.235595 ], [ -152.687745, 60.23536 ], [ -152.684061, 60.232882 ], [ -152.679307, 60.233472 ], [ -152.675861, 60.234947 ], [ -152.675861, 60.23648 ], [ -152.677238, 60.237974 ], [ -152.679426, 60.239312 ], [ -152.681921, 60.240905 ], [ -152.681565, 60.242556 ], [ -152.677168, 60.244326 ], [ -152.670403, 60.24432 ], [ -152.660055, 60.242004 ], [ -152.659342, 60.240728 ], [ -152.653638, 60.238132 ], [ -152.649478, 60.236303 ], [ -152.644843, 60.232587 ], [ -152.642467, 60.229872 ], [ -152.641872, 60.226863 ], [ -152.642585, 60.22527 ], [ -152.64138, 60.224793 ], [ -152.634504, 60.225151 ], [ -152.626899, 60.225447 ], [ -152.623809, 60.224384 ], [ -152.622977, 60.223263 ], [ -152.624759, 60.222319 ], [ -152.630701, 60.221138 ], [ -152.630463, 60.220579 ], [ -152.626905, 60.219422 ], [ -152.624165, 60.219308 ], [ -152.620244, 60.220253 ], [ -152.610261, 60.221551 ], [ -152.584235, 60.222848 ], [ -152.582452, 60.22226 ], [ -152.566409, 60.223558 ], [ -152.56427, 60.223027 ], [ -152.559873, 60.222319 ], [ -152.557615, 60.222319 ], [ -152.555832, 60.223204 ], [ -152.557021, 60.227158 ], [ -152.555595, 60.227276 ], [ -152.552743, 60.228751 ], [ -152.548821, 60.2294 ], [ -152.548702, 60.232528 ], [ -152.547157, 60.236657 ], [ -152.544899, 60.239961 ], [ -152.542998, 60.241554 ], [ -152.540502, 60.244739 ], [ -152.537769, 60.247275 ], [ -152.532896, 60.250518 ], [ -152.526835, 60.255294 ], [ -152.518517, 60.260482 ], [ -152.510554, 60.264432 ], [ -152.501047, 60.268911 ], [ -152.489401, 60.273449 ], [ -152.479894, 60.276926 ], [ -152.468347, 60.280407 ], [ -152.458652291557996, 60.282516192171798 ], [ -152.458621, 60.282523 ], [ -152.453816, 60.283585 ], [ -152.444476508207003, 60.285648184799697 ], [ -152.444165, 60.285717 ], [ -152.440677, 60.285998 ], [ -152.437221, 60.285601 ], [ -152.43319, 60.285174 ], [ -152.430808, 60.285205 ], [ -152.426891, 60.286175 ], [ -152.420949, 60.286293 ], [ -152.417027, 60.287353 ], [ -152.414056, 60.289003 ], [ -152.407996, 60.292124 ], [ -152.407758, 60.292949 ], [ -152.407996, 60.294009 ], [ -152.403836, 60.297424 ], [ -152.400152, 60.299014 ], [ -152.399143784990002, 60.299702045111601 ], [ -152.458017, 60.29967 ], [ -152.458083, 60.314115 ], [ -152.486207, 60.314114 ], [ -152.486211, 60.335781 ], [ -152.515347, 60.33578 ], [ -152.51548, 60.472999 ], [ -152.519508, 60.472999 ], [ -152.519505, 60.55966 ], [ -152.431957, 60.559663 ], [ -152.432644, 60.776354 ], [ -152.695034, 60.776299 ], [ -152.695025, 60.819627 ], [ -152.376137, 60.81964 ], [ -152.376129, 60.862968 ], [ -152.200092, 60.862975 ], [ -152.197604, 60.863064 ], [ -152.191773, 60.864587 ], [ -152.184845, 60.865591 ], [ -152.175923, 60.864501 ], [ -152.171338, 60.866542 ], [ -152.16935, 60.865691 ], [ -152.165975, 60.86659 ], [ -152.160075, 60.864976 ], [ -152.156515, 60.863346 ], [ -152.148332, 60.860549 ], [ -152.14664, 60.859221 ], [ -152.142878, 60.858833 ], [ -152.138432, 60.857622 ], [ -152.13597, 60.855933 ], [ -152.129954, 60.85387 ], [ -152.124766, 60.850998 ], [ -152.121741, 60.847951 ], [ -152.119014, 60.846074 ], [ -152.117587, 60.842289 ], [ -152.118024, 60.837795 ], [ -152.116128, 60.836423 ], [ -152.115919, 60.835152 ], [ -152.118311, 60.831654 ], [ -152.118073, 60.830874 ], [ -152.115586, 60.830225 ], [ -152.110463, 60.827395 ], [ -152.108774, 60.82546 ], [ -152.106227, 60.824189 ], [ -152.103116, 60.819928 ], [ -152.102196, 60.816865 ], [ -152.100479, 60.815782 ], [ -152.096573, 60.814468 ], [ -152.092906, 60.814296 ], [ -152.089473, 60.812418 ], [ -152.084859, 60.810552 ], [ -152.082206, 60.808837 ], [ -152.073004, 60.8067 ], [ -152.063642, 60.805692 ], [ -152.060985, 60.804165 ], [ -152.058371, 60.801193 ], [ -152.057712, 60.79832 ], [ -152.056293, 60.797944 ], [ -152.056678, 60.796326 ], [ -152.05127, 60.793422 ], [ -152.04938, 60.790402 ], [ -152.04276, 60.788349 ], [ -152.040012, 60.788522 ], [ -152.032152, 60.786744 ], [ -152.030853, 60.785327 ], [ -152.027604, 60.783795 ], [ -152.022287, 60.782696 ], [ -152.021697, 60.78154 ], [ -152.01904, 60.780123 ], [ -152.016444, 60.77781 ], [ -152.012692, 60.777274 ], [ -152.008856, 60.774817 ], [ -152.003484, 60.772575 ], [ -152.001128, 60.768759 ], [ -151.998975, 60.767487 ], [ -151.996199, 60.767327 ], [ -151.990769, 60.765344 ], [ -151.987253, 60.765848 ], [ -151.984213, 60.765008 ], [ -151.986815, 60.763984 ], [ -151.98599, 60.76303 ], [ -151.987528, 60.762121 ], [ -151.9873, 60.759086 ], [ -151.986004, 60.757886 ], [ -151.978597, 60.756148 ], [ -151.977892, 60.754804 ], [ -151.982002, 60.752538 ], [ -151.981651, 60.751223 ], [ -151.984104, 60.750242 ], [ -151.983361, 60.748954 ], [ -151.976393, 60.749239 ], [ -151.967774, 60.749146 ], [ -151.966565, 60.748538 ], [ -151.967014, 60.746574 ], [ -151.969083, 60.745723 ], [ -151.969797, 60.743975 ], [ -151.971482, 60.74308 ], [ -151.975703, 60.742838 ], [ -151.979951, 60.743736 ], [ -151.983699, 60.743926 ], [ -151.988601, 60.742715 ], [ -151.988633, 60.741935 ], [ -151.984653, 60.739997 ], [ -151.984807, 60.737685 ], [ -151.979265, 60.735456 ], [ -151.977641, 60.735715 ], [ -151.976781, 60.737333 ], [ -151.969915, 60.734034 ], [ -151.967125, 60.729958 ], [ -151.963855, 60.728308 ], [ -151.964363, 60.726401 ], [ -151.962244, 60.72494 ], [ -151.960808, 60.722122 ], [ -151.961108, 60.72033 ], [ -151.95503, 60.721091 ], [ -151.947596, 60.721663 ], [ -151.945841, 60.72223 ], [ -151.943917, 60.726112 ], [ -151.944366, 60.728064 ], [ -151.941003, 60.728854 ], [ -151.940205, 60.729728 ], [ -151.941343, 60.73024 ], [ -151.945192, 60.73027 ], [ -151.946045, 60.73166 ], [ -151.940447, 60.734067 ], [ -151.938137, 60.734049 ], [ -151.933811, 60.732883 ], [ -151.930475, 60.732856 ], [ -151.925792, 60.734704 ], [ -151.922969, 60.734682 ], [ -151.920202, 60.732963 ], [ -151.915892, 60.731356 ], [ -151.915171, 60.729905 ], [ -151.915994, 60.72834 ], [ -151.915755, 60.724001 ], [ -151.91801, 60.72182 ], [ -151.917897, 60.720947 ], [ -151.915472, 60.722339 ], [ -151.907086, 60.724265 ], [ -151.897839, 60.727028 ], [ -151.891573, 60.729144 ], [ -151.880545, 60.733334 ], [ -151.871062, 60.737445 ], [ -151.863028, 60.741848 ], [ -151.859019277429013, 60.745740985531 ], [ -151.859577, 60.746184 ], [ -151.866205, 60.749038 ], [ -151.879634, 60.754787 ], [ -151.884268, 60.755541 ], [ -151.889973, 60.755193 ], [ -151.894845, 60.756238 ], [ -151.901144, 60.758502 ], [ -151.908155, 60.762566 ], [ -151.913622, 60.767963 ], [ -151.915404, 60.770459 ], [ -151.912433, 60.773882 ], [ -151.910532, 60.777944 ], [ -151.905184, 60.780032 ], [ -151.90094, 60.777396 ], [ -151.897222, 60.775043 ], [ -151.895558, 60.771561 ], [ -151.88926, 60.767325 ], [ -151.881178, 60.764423 ], [ -151.873335, 60.760244 ], [ -151.861808, 60.757109 ], [ -151.854439, 60.756296 ], [ -151.845645, 60.754496 ], [ -151.834356, 60.750374 ], [ -151.831185, 60.747303 ], [ -151.828014494136994, 60.745475409532403 ], [ -151.822596, 60.742352 ], [ -151.819413482848006, 60.738637421156803 ], [ -151.818340994148002, 60.737385630940899 ], [ -151.818074, 60.737074 ], [ -151.812846, 60.731206 ], [ -151.809041, 60.730278 ], [ -151.807523216025004, 60.7300804148271 ], [ -151.799654, 60.729056 ], [ -151.788062175456986, 60.727844547113797 ], [ -151.784086, 60.727429 ], [ -151.773728502479003, 60.725475412981801 ], [ -151.767449, 60.724291 ], [ -151.762101, 60.723477 ], [ -151.760913, 60.722896 ], [ -151.760301, 60.721441 ], [ -151.75806, 60.720746 ], [ -151.757161, 60.718906 ], [ -151.754668, 60.716894 ], [ -151.752594, 60.715922 ], [ -151.751881, 60.714643 ], [ -151.749979, 60.713945 ], [ -151.746295, 60.713771 ], [ -151.743918, 60.712899 ], [ -151.740217498036998, 60.712565141456899 ], [ -151.73218, 60.71184 ], [ -151.725974, 60.711852 ], [ -151.720863, 60.711096 ], [ -151.716379, 60.710415 ], [ -151.710444, 60.712657 ], [ -151.710003455507007, 60.712978146727302 ], [ -151.706603, 60.715457 ], [ -151.706246, 60.719177 ], [ -151.704124, 60.724525 ], [ -151.704345, 60.728301 ], [ -151.706008, 60.732426 ], [ -151.721298, 60.75123 ], [ -151.725974, 60.758676 ], [ -151.730965, 60.763436 ], [ -151.74273, 60.777015 ], [ -151.751405, 60.786819 ], [ -151.75402, 60.788733 ], [ -151.758824, 60.793216 ], [ -151.765428, 60.797779 ], [ -151.768994, 60.80062 ], [ -151.772083, 60.803693 ], [ -151.775411, 60.806475 ], [ -151.784918, 60.817023 ], [ -151.789078, 60.821717 ], [ -151.79288, 60.826873 ], [ -151.796089, 60.834113 ], [ -151.798585, 60.837414 ], [ -151.800248, 60.84332 ], [ -151.800258, 60.849573 ], [ -151.80108, 60.851194 ], [ -151.80096128154301, 60.851705973346199 ], [ -151.800248, 60.854782 ], [ -151.791698, 60.86306 ], [ -151.788332756910989, 60.865317472313102 ], [ -151.784125169403012, 60.868140006095601 ], [ -151.783271, 60.868713 ], [ -151.770182, 60.876884 ], [ -151.744156, 60.888854 ], [ -151.734411, 60.89371 ], [ -151.721933, 60.900762 ], [ -151.721249199879992, 60.902899639909599 ], [ -151.720815, 60.904257 ], [ -151.713913, 60.916546 ], [ -151.703513, 60.916594 ], [ -151.694667224092996, 60.917529117905701 ], [ -151.692644, 60.917743 ], [ -151.679518, 60.922491 ], [ -151.67026374599601, 60.927228835335697 ], [ -151.659371386420986, 60.932805320059202 ], [ -151.648299340611999, 60.938473797480398 ], [ -151.641998, 60.950722 ], [ -151.631736, 60.957653 ], [ -151.6268, 60.959341 ], [ -151.622962, 60.961722 ], [ -151.621686, 60.960927 ], [ -151.616188, 60.961155 ], [ -151.601165, 60.96688 ], [ -151.59786, 60.970921 ], [ -151.59226, 60.972869 ], [ -151.583544, 60.974581 ], [ -151.575748, 60.976698 ], [ -151.565058, 60.980964 ], [ -151.542616, 60.991876 ], [ -151.53594, 60.994613 ], [ -151.53084, 60.997222 ], [ -151.52994, 60.998694 ], [ -151.529408, 60.998044 ], [ -151.525130898014993, 60.998601109197701 ], [ -151.52145, 61.000014 ], [ -151.510286, 61.002968 ], [ -151.498633, 61.007733 ], [ -151.493523, 61.011074 ], [ -151.4877, 61.012341 ], [ -151.480332, 61.012341 ], [ -151.469457161679998, 61.012412447539603 ], [ -151.467851, 61.012423 ], [ -151.438975, 61.013263 ], [ -151.424519242486014, 61.013528395433397 ], [ -151.423288, 61.013551 ], [ -151.396787, 61.012168 ], [ -151.390855, 61.011093 ], [ -151.362243, 61.009412 ], [ -151.357408428989004, 61.009739534055001 ], [ -151.349608, 61.010268 ], [ -151.341289, 61.011592 ], [ -151.331901, 61.015336 ], [ -151.32073, 61.021736 ], [ -151.317996, 61.024203 ], [ -151.310985, 61.028866 ], [ -151.309845188129998, 61.030686439647098 ], [ -151.309796, 61.030765 ], [ -151.308727, 61.031629 ], [ -151.293622, 61.035715 ], [ -151.279611, 61.037557 ], [ -151.269955704967003, 61.0383826350064 ], [ -151.272345, 61.039617 ], [ -151.271836, 61.042461 ], [ -151.271669, 61.048609 ], [ -151.266095, 61.04856 ], [ -151.264102, 61.049819 ], [ -151.265309, 61.050326 ], [ -151.265807, 61.052293 ], [ -151.261899, 61.05287 ], [ -151.260492, 61.053753 ], [ -151.261322, 61.054662 ], [ -151.264933, 61.05433 ], [ -151.269437, 61.057037 ], [ -151.271633, 61.059856 ], [ -151.276161, 61.064449 ], [ -151.275214, 61.06633 ], [ -151.275849, 61.071131 ], [ -151.274967, 61.071572 ], [ -151.272152, 61.072337 ], [ -151.269985, 61.072208 ], [ -151.264666, 61.073622 ], [ -151.255869, 61.072532 ], [ -151.253222, 61.073342 ], [ -151.24527, 61.076904 ], [ -151.244478, 61.077851 ], [ -151.236966, 61.079317 ], [ -151.23144, 61.081692 ], [ -151.227794, 61.084935 ], [ -151.220347, 61.085285 ], [ -151.220645, 61.08727 ], [ -151.216545, 61.088892 ], [ -151.200511, 61.088795 ], [ -151.199459, 61.092658 ], [ -151.202097, 61.096585 ], [ -151.201594, 61.098369 ], [ -151.200171, 61.099014 ], [ -151.195314, 61.098853 ], [ -151.189204, 61.099849 ], [ -151.187779, 61.103073 ], [ -151.190135, 61.102577 ], [ -151.19122, 61.101108 ], [ -151.192612, 61.101082 ], [ -151.195985, 61.103004 ], [ -151.194466, 61.104222 ], [ -151.197034, 61.105038 ], [ -151.202894, 61.105339 ], [ -151.204045, 61.105965 ], [ -151.20513, 61.107426 ], [ -151.207385, 61.10653 ], [ -151.206353, 61.105061 ], [ -151.2068, 61.103701 ], [ -151.209191, 61.103724 ], [ -151.209824, 61.103993 ], [ -151.210638, 61.105315 ], [ -151.212149, 61.106447 ], [ -151.213171, 61.106721 ], [ -151.216655, 61.106121 ], [ -151.218569, 61.104376 ], [ -151.217086, 61.103001 ], [ -151.217947, 61.101845 ], [ -151.221217, 61.101393 ], [ -151.224305, 61.102843 ], [ -151.224402, 61.103419 ], [ -151.223992, 61.104742 ], [ -151.226938, 61.105436 ], [ -151.233377, 61.105041 ], [ -151.238488, 61.102715 ], [ -151.245461, 61.103663 ], [ -151.248026, 61.104502 ], [ -151.247813, 61.106192 ], [ -151.249212, 61.108085 ], [ -151.252526, 61.10787 ], [ -151.253634, 61.106354 ], [ -151.260381, 61.106068 ], [ -151.264201, 61.106821 ], [ -151.264046, 61.109725 ], [ -151.268912, 61.110463 ], [ -151.272824, 61.109569 ], [ -151.274973, 61.109786 ], [ -151.277479, 61.111246 ], [ -151.27876, 61.113326 ], [ -151.281088, 61.1147 ], [ -151.290402, 61.116551 ], [ -151.291685, 61.117851 ], [ -151.294492, 61.118213 ], [ -151.297864, 61.120871 ], [ -151.297625, 61.12181 ], [ -151.302164, 61.123053 ], [ -151.300849, 61.124498 ], [ -151.303447, 61.126058 ], [ -151.304612, 61.125625 ], [ -151.305537, 61.127806 ], [ -151.3015, 61.128726 ], [ -151.300816, 61.129641 ], [ -151.30449, 61.131187 ], [ -151.301919, 61.134206 ], [ -151.305233, 61.139003 ], [ -151.303231, 61.138829 ], [ -151.305292, 61.140231 ], [ -151.304813, 61.14312 ], [ -151.303377, 61.145691 ], [ -151.301344, 61.146832 ], [ -151.303077, 61.147439 ], [ -151.302986, 61.149519 ], [ -151.304569, 61.151354 ], [ -151.30155, 61.152091 ], [ -151.300592, 61.153448 ], [ -151.29847, 61.153203 ], [ -151.29527, 61.154416 ], [ -151.295329, 61.155904 ], [ -151.292996, 61.156438 ], [ -151.2941, 61.158966 ], [ -151.2967, 61.16187 ], [ -151.298643, 61.162405 ], [ -151.300286, 61.16476 ], [ -151.304921, 61.165613 ], [ -151.303664, 61.167086 ], [ -151.304351, 61.170091 ], [ -151.302705, 61.170582 ], [ -151.303213, 61.173197 ], [ -151.301148, 61.173601 ], [ -151.298094, 61.177949 ], [ -151.300695, 61.179987 ], [ -151.301652, 61.182197 ], [ -151.304493, 61.183685 ], [ -151.305211, 61.185564 ], [ -151.307664, 61.187283 ], [ -151.31329, 61.187572 ], [ -151.319246, 61.187139 ], [ -151.321251, 61.188193 ], [ -151.322089, 61.190317 ], [ -151.332297, 61.194188 ], [ -151.335949, 61.194317 ], [ -151.338704, 61.196253 ], [ -151.338256, 61.197177 ], [ -151.345741, 61.199097 ], [ -151.348855, 61.19927 ], [ -151.355324, 61.201493 ], [ -151.356974, 61.204021 ], [ -151.359881, 61.205912 ], [ -151.356651, 61.209915 ], [ -151.35815, 61.211359 ], [ -151.360847, 61.212283 ], [ -151.364389, 61.21754 ], [ -151.363941, 61.218971 ], [ -151.360346, 61.219087 ], [ -151.359059, 61.219854 ], [ -151.353697, 61.220158 ], [ -151.344469, 61.219727 ], [ -151.342342, 61.220349 ], [ -151.342074, 61.222646 ], [ -151.339289, 61.224871 ], [ -151.333596, 61.224843 ], [ -151.329611, 61.226057 ], [ -151.326675, 61.226317 ], [ -151.325087, 61.225277 ], [ -151.315978, 61.226259 ], [ -151.31427, 61.225552 ], [ -151.300728, 61.22321 ], [ -151.307941, 61.252937 ], [ -151.332802, 61.252936 ], [ -151.332784, 61.426239 ], [ -151.521951, 61.426231 ], [ -152.121598, 61.426207 ], [ -153.001736, 61.426172 ], [ -153.485575, 61.426153 ], [ -153.485584, 61.166193 ], [ -153.440877, 61.166196 ], [ -153.440884, 60.906236 ], [ -153.440886, 60.819578 ], [ -153.397284, 60.819581 ], [ -153.397276, 60.472948 ], [ -153.528441, 60.472939 ], [ -153.528392, 60.126281 ], [ -153.65698, 60.126277 ] ] ] ] } }
]
}
