{
"type": "FeatureCollection",
"name": "99675",
"crs": { "type": "name", "properties": { "name": "urn:ogc:def:crs:OGC:1.3:CRS84" } },
"features": [
{ "type": "Feature", "properties": { "Name": "", "Description": "" }, "geometry": { "type": "Polygon", "coordinates": [ [ [ -156.197157, 62.993307 ], [ -156.205119, 62.987364 ], [ -156.197021, 62.970829 ], [ -156.171819, 62.934862 ], [ -156.169571, 62.937052 ], [ -156.170615, 62.939041 ], [ -156.173051, 62.939867 ], [ -156.172327, 62.940826 ], [ -156.165708, 62.94217 ], [ -156.162145, 62.943696 ], [ -156.162281, 62.94495 ], [ -156.156327, 62.947347 ], [ -156.154174, 62.949156 ], [ -156.152192, 62.955112 ], [ -156.147335, 62.958742 ], [ -156.138499, 62.962648 ], [ -156.13499, 62.963418 ], [ -156.123363, 62.964493 ], [ -156.11099, 62.967659 ], [ -156.107275, 62.967804 ], [ -156.100923, 62.969138 ], [ -156.093595, 62.96779 ], [ -156.091627, 62.968294 ], [ -156.089312, 62.966778 ], [ -156.087849, 62.96212 ], [ -156.0865, 62.962706 ], [ -156.081269, 62.961806 ], [ -156.075857, 62.95985 ], [ -156.071767, 62.954559 ], [ -156.069868, 62.949069 ], [ -156.064335, 62.952079 ], [ -156.064553, 62.95351 ], [ -156.059157, 62.952547 ], [ -156.056518, 62.94985 ], [ -156.047366, 62.952241 ], [ -156.046708, 62.955019 ], [ -156.044992, 62.951831 ], [ -156.042638, 62.951859 ], [ -156.042057, 62.953214 ], [ -156.010977, 62.942727 ], [ -156.013944, 62.948032 ], [ -156.014452, 62.951657 ], [ -156.010909, 62.958222 ], [ -156.010192, 62.960502 ], [ -156.012418, 62.963567 ], [ -156.012895, 62.967178 ], [ -156.014334, 62.969621 ], [ -156.014564, 62.972466 ], [ -156.013448, 62.976941 ], [ -156.018507, 62.979231 ], [ -156.021295, 62.979416 ], [ -156.02453, 62.981296 ], [ -156.024487, 62.984881 ], [ -156.020884, 62.987473 ], [ -156.017207, 62.986671 ], [ -156.012915, 62.983933 ], [ -156.00921, 62.984201 ], [ -156.009051, 62.985336 ], [ -156.013336, 62.988011 ], [ -156.018964, 62.98896 ], [ -156.020585, 62.989932 ], [ -156.020866, 62.991309 ], [ -156.017664, 62.99274 ], [ -156.014668, 62.992888 ], [ -156.008259, 62.991075 ], [ -156.006298, 62.989482 ], [ -156.002024, 62.988252 ], [ -155.99358, 62.9895 ], [ -155.991283, 62.988669 ], [ -155.993278, 62.986552 ], [ -155.998266, 62.985314 ], [ -156.000077, 62.98276 ], [ -155.997716, 62.981301 ], [ -155.994775, 62.980924 ], [ -155.98625, 62.981356 ], [ -155.984078, 62.983099 ], [ -155.984879, 62.985535 ], [ -155.984212, 62.987625 ], [ -155.985877, 62.989283 ], [ -155.984049, 62.991019 ], [ -155.981254, 62.990865 ], [ -155.976637, 62.989356 ], [ -155.973306, 62.989665 ], [ -155.97179, 62.990736 ], [ -155.972214, 62.992165 ], [ -155.974443, 62.992984 ], [ -155.978447, 62.993281 ], [ -155.980687, 62.995472 ], [ -155.979681, 62.996759 ], [ -155.976067, 62.99766 ], [ -155.971686, 62.997884 ], [ -155.965458, 62.997489 ], [ -155.962077, 62.995502 ], [ -155.96194, 62.994231 ], [ -155.967499, 62.990179 ], [ -155.966905, 62.987119 ], [ -155.969437, 62.986176 ], [ -155.974878, 62.987612 ], [ -155.97808, 62.987058 ], [ -155.976603, 62.984879 ], [ -155.973711, 62.984624 ], [ -155.964954, 62.985274 ], [ -155.961948, 62.986607 ], [ -155.961332, 62.989135 ], [ -155.957366, 62.990955 ], [ -155.954067, 62.991149 ], [ -155.947643, 62.989146 ], [ -155.943459, 62.98741 ], [ -155.938881, 62.987253 ], [ -155.936587, 62.989187 ], [ -155.938087, 62.990351 ], [ -155.938163, 62.992487 ], [ -155.935643, 62.993545 ], [ -155.931672, 62.993942 ], [ -155.931605, 62.997402 ], [ -155.929516, 62.997257 ], [ -155.925608, 62.995514 ], [ -155.922371, 62.996336 ], [ -155.921505, 62.998743 ], [ -155.924147, 63.00026 ], [ -155.927553, 63.001133 ], [ -155.928055, 63.002164 ], [ -155.924623, 63.003807 ], [ -155.92062, 63.00389 ], [ -155.918721, 63.004671 ], [ -155.922388, 63.006948 ], [ -155.927476, 63.007765 ], [ -155.929762, 63.007473 ], [ -155.939825, 63.009044 ], [ -156.185429, 63.004055 ], [ -156.191049, 62.999824 ], [ -156.197157, 62.993307 ] ] ] } }
]
}
