{
"type": "FeatureCollection",
"name": "99707",
"crs": { "type": "name", "properties": { "name": "urn:ogc:def:crs:OGC:1.3:CRS84" } },
"features": [
{ "type": "Feature", "properties": { "Name": "", "Description": "" }, "geometry": { "type": "Polygon", "coordinates": [ [ [ -146.595105, 65.195376 ], [ -146.607703, 65.192457 ], [ -146.53224, 65.172858 ], [ -146.525262, 65.169368 ], [ -146.523391, 65.167344 ], [ -146.524163, 65.165309 ], [ -146.515883, 65.161989 ], [ -146.51343, 65.159863 ], [ -146.511816, 65.156063 ], [ -146.512654, 65.154476 ], [ -146.51206, 65.151789 ], [ -146.512379, 65.146822 ], [ -146.508605, 65.142961 ], [ -146.507239, 65.13854 ], [ -146.50799, 65.13509 ], [ -146.509339, 65.133836 ], [ -146.515257, 65.131752 ], [ -146.515473, 65.130568 ], [ -146.519015, 65.129505 ], [ -146.523534, 65.126349 ], [ -146.52599, 65.123855 ], [ -146.537595, 65.121691 ], [ -146.543692, 65.118061 ], [ -146.547432, 65.11759 ], [ -146.548467, 65.116681 ], [ -146.548523, 65.113837 ], [ -146.549978, 65.111658 ], [ -146.548791, 65.110068 ], [ -146.551821, 65.108123 ], [ -146.552382, 65.106463 ], [ -146.558837, 65.104493 ], [ -146.559569, 65.102689 ], [ -146.557931, 65.101792 ], [ -146.559006, 65.099988 ], [ -146.5644, 65.097728 ], [ -146.553068, 65.092313 ], [ -146.547157, 65.09063 ], [ -146.545212, 65.089689 ], [ -146.533083, 65.086423 ], [ -146.516349, 65.085473 ], [ -146.501509, 65.085469 ], [ -146.492325, 65.084516 ], [ -146.46866, 65.078917 ], [ -146.528535, 65.030218 ], [ -146.528843, 65.02779 ], [ -146.526988, 65.024972 ], [ -146.527406, 65.023961 ], [ -146.523885, 65.020317 ], [ -146.517336, 65.019325 ], [ -146.510818, 65.018781 ], [ -146.503846, 65.019332 ], [ -146.498404, 65.020595 ], [ -146.491491, 65.022758 ], [ -146.482421, 65.024635 ], [ -146.479466, 65.026517 ], [ -146.475919, 65.027201 ], [ -146.470561, 65.027786 ], [ -146.462149, 65.026831 ], [ -146.46033, 65.025779 ], [ -146.457941, 65.026072 ], [ -146.452566, 65.024548 ], [ -146.448434, 65.024626 ], [ -146.445401, 65.02554 ], [ -146.442252, 65.02475 ], [ -146.441564, 65.024072 ], [ -146.436506, 65.023703 ], [ -146.43275, 65.023852 ], [ -146.43269, 65.025022 ], [ -146.430097, 65.025573 ], [ -146.427977, 65.025273 ], [ -146.42344, 65.026116 ], [ -146.422035, 65.025424 ], [ -146.41682, 65.027235 ], [ -146.411106, 65.025826 ], [ -146.403128, 65.028564 ], [ -146.395783, 65.028427 ], [ -146.392105, 65.030697 ], [ -146.389949, 65.029977 ], [ -146.386609, 65.03154 ], [ -146.382748, 65.031514 ], [ -146.376423, 65.030682 ], [ -146.373829, 65.031349 ], [ -146.363339, 65.031198 ], [ -146.361251, 65.030218 ], [ -146.354962, 65.029687 ], [ -146.350824, 65.028521 ], [ -146.345086, 65.028785 ], [ -146.34112, 65.028051 ], [ -146.339928, 65.028976 ], [ -146.335996, 65.028025 ], [ -146.32896, 65.028506 ], [ -146.321006, 65.030719 ], [ -146.314923, 65.030433 ], [ -146.313998, 65.029235 ], [ -146.308256, 65.028241 ], [ -146.30423, 65.030408 ], [ -146.301323, 65.029297 ], [ -146.298147, 65.029891 ], [ -146.27717, 65.030098 ], [ -146.273035, 65.028871 ], [ -146.269278, 65.030634 ], [ -146.266715, 65.030027 ], [ -146.262958, 65.030345 ], [ -146.260565, 65.029118 ], [ -146.249975, 65.028873 ], [ -146.248096, 65.030548 ], [ -146.236411, 65.031154 ], [ -146.2332, 65.029334 ], [ -146.228963, 65.030027 ], [ -146.22575, 65.028147 ], [ -146.224284, 65.028365 ], [ -146.223125, 65.026257 ], [ -146.219539, 65.025058 ], [ -146.215507, 65.025 ], [ -146.217062, 65.030654 ], [ -146.217057, 65.032761 ], [ -146.215345, 65.035841 ], [ -146.210807, 65.041515 ], [ -146.207834, 65.04355 ], [ -146.196914, 65.04615 ], [ -146.193124, 65.047761 ], [ -146.188431, 65.051843 ], [ -146.182899, 65.054951 ], [ -146.180108, 65.0596 ], [ -146.172228, 65.060896 ], [ -146.17037, 65.061942 ], [ -146.165376, 65.062146 ], [ -146.162129, 65.059175 ], [ -146.149857, 65.061855 ], [ -146.139126, 65.063652 ], [ -146.120968, 65.065345 ], [ -146.098856, 65.067814 ], [ -146.092476, 65.067993 ], [ -146.086676, 65.067685 ], [ -146.085877, 65.069445 ], [ -146.08334, 65.07028 ], [ -146.078077, 65.074577 ], [ -146.072411, 65.077531 ], [ -146.066755, 65.078708 ], [ -146.065843, 65.081869 ], [ -146.063887, 65.082589 ], [ -146.060194, 65.082106 ], [ -146.054934, 65.085147 ], [ -146.058515, 65.087 ], [ -146.056784, 65.089612 ], [ -146.053353, 65.090575 ], [ -146.052245, 65.092234 ], [ -146.042528, 65.091137 ], [ -146.039596, 65.093733 ], [ -146.0351, 65.095026 ], [ -146.034363, 65.097248 ], [ -146.030894, 65.098355 ], [ -146.029569, 65.101169 ], [ -146.02511, 65.101827 ], [ -146.024073, 65.102908 ], [ -146.027143, 65.104559 ], [ -146.02381, 65.105637 ], [ -146.024961, 65.107328 ], [ -146.023476, 65.108625 ], [ -146.017296, 65.109987 ], [ -146.01499, 65.111125 ], [ -146.008262, 65.112399 ], [ -146.004185, 65.115988 ], [ -145.996719, 65.116864 ], [ -145.998485, 65.118753 ], [ -145.994408, 65.119034 ], [ -145.992887, 65.121404 ], [ -145.988672, 65.121584 ], [ -145.983556, 65.124625 ], [ -145.981866, 65.123443 ], [ -145.977449, 65.124071 ], [ -145.975683, 65.126066 ], [ -145.972927, 65.124583 ], [ -145.969617, 65.126465 ], [ -145.964889, 65.126963 ], [ -145.963909, 65.128755 ], [ -145.956, 65.130311 ], [ -145.953938, 65.129779 ], [ -145.951585, 65.131472 ], [ -145.953101, 65.132408 ], [ -145.947721, 65.13308 ], [ -145.945968, 65.132548 ], [ -145.944554, 65.136232 ], [ -145.939939, 65.138403 ], [ -145.938785, 65.14021 ], [ -145.934362, 65.140519 ], [ -145.929283, 65.145362 ], [ -145.93056, 65.146487 ], [ -145.927655, 65.148194 ], [ -145.927227, 65.150938 ], [ -145.930285, 65.156652 ], [ -145.934108, 65.158525 ], [ -145.933436, 65.160562 ], [ -145.934508, 65.16173 ], [ -145.933023, 65.165544 ], [ -145.9273, 65.167312 ], [ -145.927997, 65.16877 ], [ -145.92167, 65.172892 ], [ -145.914811, 65.174647 ], [ -145.909182, 65.175491 ], [ -145.905048, 65.179249 ], [ -145.895449, 65.183172 ], [ -145.888518, 65.185171 ], [ -145.88454, 65.186763 ], [ -145.876781, 65.188502 ], [ -145.870538, 65.19125 ], [ -145.870822, 65.19307 ], [ -145.868837, 65.195078 ], [ -145.868537, 65.197317 ], [ -145.865461, 65.201694 ], [ -145.833489, 65.20359 ], [ -145.834585, 65.204574 ], [ -145.841156, 65.205922 ], [ -145.851014, 65.209521 ], [ -145.861189, 65.213629 ], [ -145.8714, 65.214417 ], [ -145.878301, 65.215356 ], [ -145.881614, 65.214319 ], [ -145.886954, 65.210268 ], [ -145.889568, 65.205787 ], [ -145.902076, 65.206983 ], [ -145.911785, 65.205414 ], [ -145.917386, 65.205507 ], [ -145.938337, 65.204837 ], [ -145.949873, 65.205483 ], [ -145.959576, 65.211181 ], [ -145.970595, 65.214375 ], [ -145.976196, 65.217643 ], [ -145.981424, 65.223057 ], [ -145.989423, 65.226887 ], [ -145.995893, 65.228751 ], [ -146.006348, 65.228098 ], [ -146.018764, 65.228191 ], [ -146.032795, 65.236088 ], [ -146.042568, 65.2393 ], [ -146.062172, 65.241353 ], [ -146.066092, 65.244807 ], [ -146.075987, 65.247515 ], [ -146.079908, 65.247981 ], [ -146.081028, 65.249942 ], [ -146.08018, 65.253948 ], [ -146.07619, 65.258916 ], [ -146.074577, 65.259411 ], [ -146.074027, 65.26161 ], [ -146.078134, 65.264131 ], [ -146.088131, 65.264594 ], [ -146.097754, 65.267882 ], [ -146.105579, 65.268705 ], [ -146.109848, 65.271441 ], [ -146.116329, 65.273349 ], [ -146.124263, 65.277403 ], [ -146.129103, 65.27804 ], [ -146.10754, 65.284574 ], [ -146.102685, 65.291109 ], [ -146.106513, 65.293723 ], [ -146.11062, 65.29895 ], [ -146.10866, 65.302778 ], [ -146.129453, 65.30563 ], [ -146.119395, 65.28841 ], [ -146.120915, 65.287935 ], [ -146.127262, 65.288099 ], [ -146.142493, 65.292443 ], [ -146.145283, 65.293701 ], [ -146.157318, 65.295831 ], [ -146.162423, 65.296369 ], [ -146.171257, 65.296662 ], [ -146.175053, 65.296549 ], [ -146.182269, 65.295224 ], [ -146.191937, 65.292542 ], [ -146.195876, 65.290204 ], [ -146.206129, 65.286352 ], [ -146.209409, 65.28452 ], [ -146.21386, 65.283337 ], [ -146.217585, 65.283078 ], [ -146.222796, 65.28136 ], [ -146.229006, 65.278098 ], [ -146.231455, 65.277824 ], [ -146.236146, 65.275904 ], [ -146.242112, 65.275269 ], [ -146.24756, 65.276309 ], [ -146.252043, 65.276295 ], [ -146.253801, 65.274793 ], [ -146.265145, 65.274503 ], [ -146.268112, 65.275687 ], [ -146.276595, 65.276061 ], [ -146.278421, 65.275079 ], [ -146.283079, 65.276998 ], [ -146.28708, 65.277358 ], [ -146.295425, 65.277312 ], [ -146.297806, 65.277788 ], [ -146.302733, 65.275779 ], [ -146.309252, 65.276513 ], [ -146.315222, 65.278301 ], [ -146.319981, 65.278314 ], [ -146.32295, 65.27915 ], [ -146.326016, 65.278224 ], [ -146.328746, 65.280143 ], [ -146.332436, 65.279766 ], [ -146.333191, 65.278682 ], [ -146.332117, 65.277181 ], [ -146.329254, 65.276908 ], [ -146.327802, 65.275595 ], [ -146.330178, 65.274727 ], [ -146.331032, 65.272041 ], [ -146.328616, 65.271133 ], [ -146.330614, 65.270525 ], [ -146.328853, 65.269617 ], [ -146.331084, 65.266352 ], [ -146.33308, 65.265513 ], [ -146.333727, 65.262986 ], [ -146.33669, 65.262436 ], [ -146.337995, 65.260977 ], [ -146.337025, 65.259663 ], [ -146.340567, 65.257466 ], [ -146.33984, 65.25634 ], [ -146.341387, 65.255286 ], [ -146.348131, 65.252696 ], [ -146.350189, 65.250356 ], [ -146.352827, 65.249606 ], [ -146.352825, 65.248033 ], [ -146.360946, 65.245991 ], [ -146.364138, 65.243288 ], [ -146.369644, 65.242201 ], [ -146.373356, 65.240552 ], [ -146.378274, 65.239292 ], [ -146.383817, 65.239027 ], [ -146.386942, 65.237291 ], [ -146.393795, 65.237458 ], [ -146.398476, 65.237021 ], [ -146.401978, 65.235285 ], [ -146.40862, 65.234859 ], [ -146.411266, 65.234004 ], [ -146.423858, 65.232647 ], [ -146.427467, 65.231777 ], [ -146.438863, 65.231864 ], [ -146.446948, 65.231233 ], [ -146.449842, 65.231475 ], [ -146.454139, 65.230675 ], [ -146.463461, 65.229723 ], [ -146.472289, 65.227501 ], [ -146.477999, 65.227089 ], [ -146.480572, 65.226074 ], [ -146.487716, 65.224359 ], [ -146.497542, 65.222553 ], [ -146.504625, 65.220871 ], [ -146.50893, 65.220503 ], [ -146.515521, 65.218463 ], [ -146.537301, 65.214207 ], [ -146.542403, 65.212885 ], [ -146.550062, 65.210037 ], [ -146.560383, 65.20504 ], [ -146.568897, 65.202176 ], [ -146.57344, 65.201546 ], [ -146.586226, 65.196911 ], [ -146.595105, 65.195376 ] ] ] } }
]
}
