{
"type": "FeatureCollection",
"name": "99725",
"crs": { "type": "name", "properties": { "name": "urn:ogc:def:crs:OGC:1.3:CRS84" } },
"features": [
{ "type": "Feature", "properties": { "Name": "", "Description": "" }, "geometry": { "type": "Polygon", "coordinates": [ [ [ -148.087081, 64.870789 ], [ -148.085967, 64.869949 ], [ -148.074496, 64.867464 ], [ -148.070762, 64.866401 ], [ -148.062652, 64.863266 ], [ -148.056694, 64.86563 ], [ -148.056281, 64.864394 ], [ -148.053657, 64.863435 ], [ -148.050017, 64.858559 ], [ -148.04873, 64.855615 ], [ -148.050163, 64.852453 ], [ -148.061852, 64.849365 ], [ -148.067075, 64.848558 ], [ -148.062431, 64.848749 ], [ -148.057241, 64.848482 ], [ -148.053845, 64.848795 ], [ -148.044132, 64.848236 ], [ -148.023412, 64.842111 ], [ -148.019634, 64.841755 ], [ -148.017509, 64.842343 ], [ -148.008813, 64.841971 ], [ -148.007375, 64.844114 ], [ -148.003509, 64.845596 ], [ -148.002375, 64.848034 ], [ -147.971993, 64.848496 ], [ -147.970437, 64.851037 ], [ -147.969946, 64.852243 ], [ -147.972493, 64.853806 ], [ -147.975581, 64.852936 ], [ -147.975381, 64.850141 ], [ -147.979701, 64.850151 ], [ -147.979593, 64.854565 ], [ -147.975904, 64.85519 ], [ -147.975061, 64.856322 ], [ -147.977512, 64.856307 ], [ -147.97514, 64.859381 ], [ -147.970622, 64.861483 ], [ -147.971541, 64.863466 ], [ -147.976986, 64.865857 ], [ -147.986898, 64.864081 ], [ -147.991063, 64.865083 ], [ -147.996567, 64.86538 ], [ -148.002544, 64.866443 ], [ -148.003536, 64.870165 ], [ -148.006676, 64.872001 ], [ -148.006558, 64.874039 ], [ -148.009634, 64.876247 ], [ -148.015566, 64.877553 ], [ -148.019568, 64.882593 ], [ -148.021472, 64.882766 ], [ -148.021649, 64.877152 ], [ -148.025429, 64.876023 ], [ -148.033582, 64.87755 ], [ -148.044456, 64.877298 ], [ -148.049976, 64.877898 ], [ -148.060288, 64.877984 ], [ -148.066835, 64.876026 ], [ -148.077102, 64.871648 ], [ -148.080236, 64.871942 ], [ -148.087081, 64.870789 ] ] ] } }
]
}
