{
"type": "FeatureCollection",
"name": "99850",
"crs": { "type": "name", "properties": { "name": "urn:ogc:def:crs:OGC:1.3:CRS84" } },
"features": [
{ "type": "Feature", "properties": { "Name": "", "Description": "" }, "geometry": { "type": "Polygon", "coordinates": [ [ [ -135.488446, 58.490436 ], [ -135.488965, 58.488727 ], [ -135.487286, 58.486452 ], [ -135.482342, 58.484477 ], [ -135.480694, 58.483621 ], [ -135.480623, 58.488541 ], [ -135.481154, 58.489988 ], [ -135.482434, 58.490989 ], [ -135.4835, 58.491435 ], [ -135.486443, 58.491764 ], [ -135.488446, 58.490436 ] ] ] } }
]
}
